{"type":"FeatureCollection","features":[{"type":"Feature","properties":{"name":"Parco Regionale Veneto del Delta del Po","@id":"relation/6520954"},"geometry":{"type":"Polygon","coordinates":[[[12.0432366,44.9782528],[12.043509,44.9780662],[12.0435951,44.9779592],[12.04362,44.9775896],[12.0437853,44.9763051],[12.044143,44.9763275],[12.046001,44.9762935],[12.0481898,44.9762351],[12.049473,44.9762165],[12.0504847,44.9761581],[12.0514297,44.9747957],[12.05228,44.9737842],[12.053159,44.9727635],[12.0548005,44.9713783],[12.0562415,44.9705746],[12.0584304,44.9697157],[12.0597519,44.9694119],[12.0624706,44.9691325],[12.0638914,44.9690531],[12.0659083,44.9692466],[12.0677028,44.9696319],[12.0694892,44.9704095],[12.0713716,44.9713498],[12.0733444,44.9723495],[12.0746082,44.9731412],[12.075736,44.973565],[12.077351,44.9738517],[12.0784601,44.973925],[12.0799,44.9736591],[12.0805517,44.9732468],[12.0812178,44.9726302],[12.0817429,44.9716895],[12.0823329,44.9701789],[12.0834653,44.9683701],[12.0839254,44.9678761],[12.0843171,44.9673479],[12.0845232,44.9671128],[12.0848285,44.9670078],[12.0858546,44.9667757],[12.0861665,44.9667585],[12.0864774,44.9667234],[12.0867037,44.9667439],[12.0869171,44.9667559],[12.087359,44.9668328],[12.0874999,44.9668911],[12.087642,44.9669761],[12.0897676,44.9688105],[12.0908159,44.9696881],[12.0910411,44.9699219],[12.0912297,44.9700462],[12.0913789,44.9701525],[12.0918199,44.9704426],[12.0936407,44.971024],[12.0949498,44.9713971],[12.0951261,44.971419],[12.0960033,44.9714396],[12.0964389,44.9714357],[12.09694,44.9714053],[12.0978729,44.9713001],[12.0986113,44.9710668],[12.0993189,44.9707277],[12.0998872,44.9703195],[12.1004524,44.969702],[12.1006492,44.9693716],[12.1007337,44.9690858],[12.1006554,44.9685929],[12.1006425,44.9683534],[12.1000684,44.9667609],[12.0999306,44.9665247],[12.0996064,44.9656184],[12.0994024,44.9648509],[12.0991634,44.9635085],[12.099184,44.9631418],[12.0993552,44.9628351],[12.0998952,44.9624028],[12.1002105,44.9622164],[12.1005034,44.9620751],[12.1011774,44.9618042],[12.1016422,44.9617581],[12.1045852,44.9618919],[12.1061481,44.9619111],[12.1077316,44.9618503],[12.1092336,44.9616598],[12.1107407,44.961337],[12.1115307,44.9610427],[12.1120133,44.9608007],[12.1125022,44.9606096],[12.1134791,44.9601239],[12.1141861,44.959659],[12.1147952,44.9590257],[12.1156585,44.958228],[12.1165144,44.9572672],[12.1176167,44.9552213],[12.1178064,44.9544665],[12.1179061,44.9539281],[12.117814,44.953605],[12.1177838,44.9535045],[12.1177602,44.9532983],[12.1177681,44.9531001],[12.1177555,44.9528686],[12.1177209,44.9526876],[12.1177118,44.9525206],[12.1177822,44.9519905],[12.1177351,44.9516925],[12.1170203,44.9501627],[12.1170155,44.9495026],[12.1169865,44.949056],[12.1168424,44.94825],[12.1169892,44.9472865],[12.1171067,44.9467006],[12.117432,44.9459931],[12.1181915,44.9450251],[12.1187201,44.944661],[12.119204,44.9444124],[12.1214396,44.9435978],[12.1219659,44.9432475],[12.1248648,44.9418674],[12.1254968,44.9413725],[12.1262705,44.9407667],[12.1268597,44.9402104],[12.1273553,44.9395334],[12.1276473,44.9386851],[12.1276991,44.9379794],[12.1276808,44.9368123],[12.1275314,44.936136],[12.1269312,44.9344236],[12.1267757,44.9338436],[12.1267761,44.9332271],[12.1271771,44.9327279],[12.1275773,44.9324952],[12.1280019,44.9323531],[12.1304322,44.9324955],[12.1318527,44.9325529],[12.1331831,44.9325781],[12.1339781,44.932516],[12.1347539,44.9324009],[12.1357437,44.9320561],[12.1360085,44.9319369],[12.1362863,44.9318094],[12.1366144,44.9316384],[12.1379623,44.9303275],[12.1387327,44.9295547],[12.1394134,44.9290229],[12.1406524,44.9283901],[12.1414137,44.9280718],[12.141948,44.927953],[12.1429974,44.9279802],[12.1437814,44.9281026],[12.1446305,44.9283834],[12.1459603,44.9292111],[12.1490105,44.9308],[12.1497428,44.9310039],[12.1503456,44.9311073],[12.1513023,44.9310889],[12.1519311,44.9310475],[12.1525849,44.9310535],[12.1537718,44.9309166],[12.1550977,44.9308479],[12.1559475,44.9307284],[12.1569089,44.9305897],[12.1575328,44.930557],[12.1581486,44.9305954],[12.1586402,44.9307259],[12.1590183,44.9310436],[12.1591556,44.9312879],[12.1593341,44.9316673],[12.1593045,44.9319482],[12.1589352,44.9328149],[12.1586479,44.9341501],[12.1586299,44.935055],[12.1587,44.9355093],[12.1588992,44.9358559],[12.1590553,44.9362358],[12.1595128,44.9369747],[12.160048,44.9374881],[12.160792,44.9381079],[12.1614207,44.9384746],[12.1627457,44.9392063],[12.1632241,44.9395052],[12.164756,44.9403103],[12.1652876,44.9405517],[12.1654743,44.9406665],[12.1656531,44.9407417],[12.1662187,44.9410035],[12.1668933,44.9412388],[12.1678524,44.9415364],[12.1702055,44.9419508],[12.1710176,44.9419762],[12.1729913,44.9414604],[12.1739953,44.9408619],[12.1746814,44.9402582],[12.1757896,44.9384854],[12.1761089,44.9375409],[12.1763595,44.9365746],[12.1765532,44.9358016],[12.1769401,44.9348553],[12.1772779,44.9342464],[12.1781611,44.9331184],[12.1794008,44.931741],[12.1804986,44.9308237],[12.1831226,44.9288061],[12.1845586,44.9279028],[12.186133,44.9270674],[12.1876586,44.926569],[12.1892113,44.92595],[12.1900084,44.9257117],[12.1916093,44.9253551],[12.1929551,44.9252695],[12.1942348,44.9252097],[12.1982596,44.9253368],[12.1999194,44.9254341],[12.2010088,44.9255955],[12.2034759,44.9262439],[12.2053108,44.9264562],[12.2066983,44.9265132],[12.2083648,44.9267302],[12.2108607,44.9266839],[12.2117331,44.9265874],[12.2153903,44.9255729],[12.2170774,44.9249497],[12.2207277,44.9238154],[12.2236284,44.9231578],[12.2246667,44.9230085],[12.2258533,44.9230949],[12.2272825,44.9232943],[12.2280711,44.9235119],[12.2287669,44.923876],[12.2292212,44.9241509],[12.2295407,44.9244297],[12.2297511,44.9249047],[12.2301217,44.9251569],[12.2304009,44.9253169],[12.2308229,44.9256167],[12.2322088,44.9268488],[12.2326681,44.9271712],[12.2337669,44.9284136],[12.2338914,44.9285972],[12.2345396,44.9295958],[12.2354605,44.9312917],[12.2361151,44.9322495],[12.2365344,44.9325995],[12.2381166,44.9340426],[12.2388023,44.9345222],[12.2398528,44.9350851],[12.2401492,44.9352014],[12.2420121,44.9356851],[12.2429901,44.9358944],[12.2436762,44.9359123],[12.2451115,44.9358215],[12.2477178,44.9349987],[12.2489909,44.9346066],[12.2498737,44.9343646],[12.251244,44.9342574],[12.252303,44.9343068],[12.253695,44.9344934],[12.2551383,44.9347001],[12.2553291,44.9349067],[12.2553351,44.9352896],[12.2553525,44.9358803],[12.2554963,44.9363804],[12.2554049,44.9370365],[12.2551194,44.9373469],[12.2540674,44.9382097],[12.2536222,44.9386082],[12.253398,44.9389224],[12.2529792,44.9395657],[12.2528535,44.939983],[12.2527826,44.9403138],[12.2528841,44.9407882],[12.2531836,44.9413312],[12.2534341,44.9415362],[12.254351,44.9419026],[12.255343,44.9422773],[12.2565395,44.942572],[12.2572362,44.942743],[12.258017,44.9428162],[12.2587328,44.9427957],[12.2593542,44.9426932],[12.2598552,44.9425727],[12.2601804,44.9423789],[12.2604891,44.9421621],[12.2605958,44.9419364],[12.2605623,44.9416085],[12.2602989,44.940916],[12.260195,44.9403992],[12.2600064,44.9399697],[12.2599664,44.9397905],[12.2599031,44.9394635],[12.2599578,44.9391119],[12.260102,44.9387578],[12.2604149,44.9382185],[12.2607482,44.9378523],[12.2611714,44.937556],[12.2617703,44.9373629],[12.2622163,44.937329],[12.2628891,44.9373416],[12.2631972,44.9374489],[12.2642708,44.9380034],[12.2648376,44.9387828],[12.2658514,44.9398038],[12.2666807,44.9404695],[12.2679034,44.9414846],[12.2693083,44.9422929],[12.2703415,44.9426027],[12.2722169,44.9430145],[12.2733623,44.9431938],[12.2745891,44.9432329],[12.2762394,44.9431006],[12.279267,44.9422399],[12.2809249,44.9415181],[12.2815326,44.9411721],[12.2819174,44.9408639],[12.2836434,44.9393668],[12.2847896,44.9380582],[12.2858151,44.9365981],[12.2863092,44.936096],[12.2871007,44.9353901],[12.2894896,44.9333744],[12.2900949,44.9328615],[12.2912185,44.9319092],[12.2919116,44.931232],[12.2924602,44.9306311],[12.2932391,44.9296544],[12.2938332,44.9290063],[12.2940391,44.9286927],[12.2944873,44.9276522],[12.294733,44.9269874],[12.2947833,44.9265617],[12.2947561,44.9255654],[12.2946465,44.9249533],[12.2941125,44.9239719],[12.2937525,44.9234201],[12.2934451,44.9230047],[12.2928554,44.9223535],[12.292329,44.9217641],[12.2909739,44.9205197],[12.2897931,44.9194508],[12.2886178,44.9184771],[12.2872927,44.9172319],[12.2868214,44.9168211],[12.2855428,44.9156054],[12.2848962,44.9149982],[12.2835891,44.9138054],[12.2827389,44.9127691],[12.282191,44.9122065],[12.2817231,44.911185],[12.2815503,44.9105112],[12.2814256,44.9093691],[12.2818206,44.9081804],[12.2820587,44.9076432],[12.2826959,44.9059901],[12.2831127,44.9054477],[12.2836206,44.9046693],[12.2839604,44.9038216],[12.2842386,44.9029438],[12.2845133,44.9020031],[12.2846993,44.9010749],[12.2848427,44.8999253],[12.2848888,44.8994253],[12.2852414,44.8980466],[12.2854131,44.8974953],[12.2854857,44.896988],[12.2855031,44.8962761],[12.2853619,44.8948164],[12.2851467,44.8935854],[12.2845454,44.8909223],[12.2841886,44.8897675],[12.284081,44.889152],[12.2841427,44.8864178],[12.2842894,44.8854337],[12.2843484,44.8844315],[12.2842951,44.881968],[12.2844646,44.8790843],[12.2846358,44.8782967],[12.2849645,44.8774195],[12.2852267,44.8761641],[12.2859646,44.874348],[12.2865949,44.8726972],[12.286294,44.872235],[12.2861095,44.8717968],[12.2864628,44.8701052],[12.2868134,44.8695578],[12.2874964,44.8688269],[12.2890403,44.8671531],[12.2904178,44.865367],[12.2909268,44.8651362],[12.2910644,44.8650099],[12.292403,44.8626326],[12.2957636,44.8584918],[12.2961236,44.8581907],[12.2972401,44.8574053],[12.2981231,44.8568861],[12.2990131,44.8564567],[12.3002196,44.8559988],[12.3025126,44.8555198],[12.3033332,44.8554136],[12.3047334,44.8552997],[12.3052974,44.855273],[12.3072218,44.8551966],[12.3079005,44.8551459],[12.3096465,44.8549921],[12.3105001,44.8549571],[12.3133703,44.8549355],[12.3138828,44.8549394],[12.3156889,44.8550577],[12.3164144,44.8548748],[12.3195435,44.8540862],[12.320836,44.853889],[12.3240021,44.8532471],[12.3249371,44.8530733],[12.3257805,44.8529516],[12.328581,44.8529495],[12.329043,44.8529802],[12.3294744,44.8531269],[12.3298252,44.8531698],[12.3304565,44.8531159],[12.3307767,44.8530539],[12.3312002,44.8530458],[12.3323222,44.8527478],[12.3335423,44.852608],[12.3374765,44.8516189],[12.3384157,44.8512355],[12.3394251,44.8507199],[12.3414869,44.8492822],[12.3417368,44.8490633],[12.3423049,44.8483311],[12.3431008,44.8467634],[12.3435354,44.8445012],[12.3438663,44.842191],[12.344175,44.8380726],[12.3444507,44.8361966],[12.3444998,44.8350249],[12.3446443,44.834107],[12.3459299,44.830311],[12.3478057,44.8271149],[12.3497208,44.8241864],[12.3508583,44.821637],[12.3512559,44.8204776],[12.3523504,44.8185775],[12.3532478,44.8170703],[12.3539632,44.8162121],[12.3551973,44.8150866],[12.356623,44.8141849],[12.3582331,44.8134897],[12.3600251,44.812937],[12.3620283,44.8120993],[12.3638591,44.8111272],[12.3654601,44.8099547],[12.3690687,44.8075662],[12.3768457,44.8027812],[12.3796672,44.8008419],[12.3826574,44.7999064],[12.3839289,44.7994747],[12.3848292,44.7990609],[12.3857558,44.7983132],[12.386328,44.7978159],[12.387026,44.7974394],[12.388574,44.7967574],[12.3899707,44.7960314],[12.3911522,44.7955466],[12.3959237,44.7935888],[12.3972516,44.7930342],[12.3987088,44.7924256],[12.4012719,44.7932462],[12.4024835,44.7941844],[12.4031648,44.7948214],[12.4039373,44.7955904],[12.404699,44.7961842],[12.4085707,44.7963207],[12.4093907,44.7963071],[12.4100457,44.7964658],[12.41072,44.7969522],[12.411157,44.7972112],[12.4117874,44.7976239],[12.4119968,44.7978241],[12.41259,44.7982754],[12.413045,44.7986183],[12.4133489,44.7990879],[12.413565,44.7994077],[12.4140395,44.7997725],[12.4146777,44.8002211],[12.41487,44.8004089],[12.4151566,44.8006583],[12.4154039,44.8009705],[12.4156954,44.8012278],[12.4173153,44.8025836],[12.4182387,44.8034435],[12.4194574,44.8040281],[12.4204326,44.8047088],[12.4246398,44.8082401],[12.4657001,44.842692],[12.4660952,44.8430235],[12.4666934,44.8430814],[12.4671769,44.8436266],[12.4669622,44.8449848],[12.4668646,44.8459621],[12.4670992,44.8465081],[12.467906,44.8490379],[12.4680188,44.8492816],[12.4684754,44.8499748],[12.4690878,44.8506755],[12.4698204,44.8517029],[12.4705035,44.8527095],[12.4712259,44.8536698],[12.47183,44.8544967],[12.4729074,44.8559076],[12.4735628,44.8567167],[12.4743235,44.8574927],[12.4777972,44.8618516],[12.4792342,44.8636615],[12.4798731,44.8644824],[12.4800614,44.8651208],[12.4801374,44.8661843],[12.4806803,44.8712945],[12.4809879,44.8717014],[12.481297,44.8721102],[12.4819556,44.8722541],[12.4824423,44.8724929],[12.482936,44.8730136],[12.4832309,44.8735916],[12.4836279,44.8743253],[12.4840249,44.875114],[12.4843147,44.8757931],[12.4845378,44.8763915],[12.4850335,44.8769643],[12.4853609,44.8776914],[12.4859692,44.8787501],[12.4865366,44.8799444],[12.4869811,44.8807833],[12.4872999,44.8815773],[12.4877021,44.882272],[12.4880731,44.883102],[12.4887208,44.8842757],[12.489678,44.8860314],[12.4902599,44.8873079],[12.4923193,44.8910857],[12.493292,44.8929812],[12.4939509,44.8940319],[12.4961511,44.8966897],[12.4959157,44.8989609],[12.4962312,44.899678],[12.497372,44.902635],[12.4981352,44.9040664],[12.4992743,44.905908],[12.5001093,44.9075161],[12.5007416,44.9087317],[12.5029816,44.9127331],[12.504065,44.9147194],[12.5051685,44.9166463],[12.5061547,44.9186633],[12.5064818,44.92021],[12.5063972,44.9213895],[12.5077959,44.9244192],[12.5093151,44.9270456],[12.5102794,44.92842],[12.5113457,44.9299842],[12.5115387,44.9309823],[12.5116657,44.9323866],[12.5146811,44.9337339],[12.5183316,44.9360637],[12.5210998,44.9384181],[12.5251173,44.9418318],[12.5330444,44.9487599],[12.5449168,44.9577733],[12.5480862,44.9603068],[12.5495993,44.9613012],[12.5507752,44.9621073],[12.5519948,44.9628301],[12.5529935,44.9635087],[12.5534386,44.9649384],[12.5532315,44.9657685],[12.5519744,44.9671886],[12.5506998,44.9682317],[12.54974,44.9687161],[12.5481659,44.9715856],[12.5443514,44.9746867],[12.5413661,44.9759892],[12.5398449,44.9767525],[12.539035,44.977048],[12.5383507,44.977292],[12.537516,44.9775824],[12.5362537,44.9779321],[12.5351913,44.9782678],[12.5336416,44.9787431],[12.5325005,44.97911],[12.5298409,44.9803662],[12.5289207,44.9811033],[12.5258115,44.9828863],[12.5232197,44.9842845],[12.5197989,44.9864063],[12.5168666,44.9882252],[12.5129163,44.990747],[12.5110584,44.9919121],[12.5096008,44.9931181],[12.5077913,44.993567],[12.5030573,44.9932468],[12.500633,44.9933332],[12.4987535,44.9940221],[12.4956881,44.9941025],[12.4939916,44.9940326],[12.4908493,44.9938471],[12.4896984,44.993552],[12.4851783,44.9931504],[12.482192,44.9940367],[12.4765484,44.9963627],[12.4714251,44.9991681],[12.4693845,45.0005689],[12.4670142,45.0019025],[12.4652066,45.0028158],[12.464134,45.0032038],[12.4631713,45.0038551],[12.4617109,45.0045659],[12.4605926,45.0052294],[12.4592979,45.0059665],[12.4584067,45.0065197],[12.4573023,45.0071971],[12.4555974,45.0083795],[12.4541047,45.0094109],[12.4497964,45.0108509],[12.4481249,45.0116361],[12.4455491,45.0134549],[12.4415799,45.0157809],[12.4395982,45.0173447],[12.4374692,45.01855],[12.4357525,45.0196908],[12.4326601,45.0215068],[12.4294026,45.0235809],[12.4277922,45.02494],[12.4220441,45.0299335],[12.4159722,45.0337143],[12.4141069,45.0347081],[12.4127275,45.0355364],[12.410797,45.0361552],[12.4095386,45.0363228],[12.4066264,45.0374541],[12.4051816,45.0383048],[12.4024155,45.0397846],[12.3992183,45.0418289],[12.3961547,45.0442908],[12.392706,45.0471879],[12.390641,45.0490109],[12.3882675,45.0511458],[12.3857384,45.0531527],[12.3821505,45.056285],[12.3784383,45.0594873],[12.3751085,45.0624949],[12.3707897,45.0671374],[12.3676498,45.0707605],[12.3659908,45.0724566],[12.3670272,45.0766305],[12.3615082,45.076283],[12.3600166,45.0746799],[12.3592562,45.0738379],[12.3571168,45.0746856],[12.3554887,45.0757757],[12.3544408,45.076668],[12.3537736,45.0773588],[12.3528605,45.078476],[12.3520862,45.0793663],[12.3513472,45.0801104],[12.3506214,45.0809106],[12.3498109,45.0818815],[12.3488555,45.0828597],[12.3481809,45.0836154],[12.3473416,45.0843652],[12.3463859,45.0853585],[12.3446947,45.0868998],[12.3423278,45.0879669],[12.3412028,45.088244],[12.338645,45.0883912],[12.3372472,45.0887691],[12.3304638,45.0900783],[12.332055,45.0911261],[12.3334112,45.0925542],[12.3349981,45.0947639],[12.3360411,45.0967076],[12.3360028,45.098209],[12.3355574,45.1000474],[12.3350853,45.101139],[12.3343714,45.1036532],[12.3335492,45.1059755],[12.3322145,45.1086492],[12.3312671,45.1109185],[12.3308719,45.1122219],[12.3302949,45.1136906],[12.3290482,45.1163005],[12.3288449,45.1184853],[12.3283029,45.1198502],[12.3280536,45.121005],[12.3277009,45.1224077],[12.3277208,45.123641],[12.3276061,45.1250864],[12.3273573,45.1261583],[12.3273721,45.1274978],[12.3271459,45.1283781],[12.3270989,45.1297434],[12.3268947,45.1310952],[12.3266748,45.1323114],[12.3264752,45.1334184],[12.3265272,45.1349042],[12.3265579,45.1360222],[12.3268104,45.1376176],[12.3268625,45.1388472],[12.3269188,45.1394678],[12.3268833,45.1399869],[12.32735,45.1410442],[12.327594,45.1416847],[12.3278655,45.1422988],[12.3281607,45.1426141],[12.3282894,45.1430208],[12.3283377,45.1436698],[12.3283029,45.1444397],[12.3284477,45.1447424],[12.3285174,45.1453913],[12.3286059,45.1456108],[12.3283055,45.1461423],[12.328185,45.1469261],[12.3279777,45.1472786],[12.3280722,45.1478241],[12.3281627,45.1483713],[12.3283967,45.1486508],[12.3283826,45.1490057],[12.328254,45.1492115],[12.3282833,45.1495594],[12.3286788,45.1508978],[12.3288071,45.1517625],[12.329088,45.1533329],[12.3294508,45.1538356],[12.3299158,45.1543651],[12.3302851,45.1547418],[12.3307206,45.1552541],[12.3309079,45.1559322],[12.330987,45.1567247],[12.3306374,45.1573117],[12.3308811,45.1581767],[12.3314285,45.1590436],[12.3315781,45.1602795],[12.3325819,45.1607624],[12.3335883,45.1609821],[12.3332574,45.1629498],[12.332941,45.1648476],[12.3320834,45.1644739],[12.3313533,45.1641227],[12.3310086,45.1636395],[12.3308335,45.1629426],[12.3306272,45.1624599],[12.3302454,45.162202],[12.3286883,45.1614402],[12.3230369,45.1607539],[12.3188649,45.1566561],[12.3194149,45.1537114],[12.3190493,45.1529955],[12.3112842,45.1494783],[12.310174,45.1485429],[12.3079859,45.1476778],[12.3051663,45.1465004],[12.3028217,45.1449583],[12.2998591,45.1440795],[12.2974558,45.1439518],[12.2958974,45.1438979],[12.2916145,45.1441013],[12.2890489,45.144664],[12.2872449,45.1448028],[12.2857235,45.1448806],[12.2846685,45.1447719],[12.281863,45.1434554],[12.2805961,45.1425437],[12.280137,45.1418861],[12.2792652,45.1398333],[12.2792267,45.1390401],[12.2798285,45.1368324],[12.2805141,45.1352664],[12.2823076,45.13332],[12.283443,45.1315691],[12.284177,45.1298369],[12.2843908,45.1283219],[12.2839978,45.1269313],[12.282927,45.1253662],[12.2802094,45.1232284],[12.2753276,45.121088],[12.2701379,45.1194678],[12.2684871,45.1184279],[12.2661722,45.1168761],[12.2605909,45.1148389],[12.2580316,45.1132228],[12.2538351,45.111503],[12.2435042,45.1082971],[12.2233762,45.0701218],[12.2158189,45.0569266],[12.2118421,45.0509954],[12.2099807,45.0483972],[12.2087848,45.046443],[12.2081215,45.0459446],[12.2019091,45.0427973],[12.1997149,45.041569],[12.196565,45.0395092],[12.193946,45.0372967],[12.1933926,45.0358309],[12.1937166,45.0337678],[12.1942924,45.0321234],[12.1942953,45.0311142],[12.1938429,45.0301147],[12.1918182,45.0279492],[12.1917184,45.0264978],[12.1902106,45.0272231],[12.1872526,45.0270969],[12.1857674,45.0251077],[12.1844953,45.0253143],[12.1810457,45.026699],[12.1767121,45.0281608],[12.1701617,45.029359],[12.1657207,45.0298952],[12.1639311,45.0300754],[12.1622116,45.0300294],[12.1594543,45.0301658],[12.1571715,45.0300543],[12.1535923,45.029624],[12.1516761,45.0291704],[12.1472037,45.0274524],[12.1442257,45.0262187],[12.1406468,45.0248173],[12.1359062,45.0228383],[12.1328961,45.0218487],[12.1294833,45.0217411],[12.1256042,45.0211408],[12.1236137,45.020732],[12.1202681,45.0207042],[12.1174014,45.0213904],[12.1117074,45.0236856],[12.1036517,45.024242],[12.0993443,45.0247096],[12.098207,45.0246825],[12.0958847,45.0246176],[12.0890361,45.0243394],[12.0871731,45.0238665],[12.0845032,45.0224708],[12.079528,45.0213196],[12.0762835,45.0205048],[12.0722922,45.0190077],[12.0691551,45.0175715],[12.0667098,45.016306],[12.0645038,45.014711],[12.0639049,45.0131779],[12.0639705,45.0103629],[12.0644165,45.0065839],[12.0647511,45.0039624],[12.0650004,45.0018705],[12.0654005,45.000697],[12.065945,44.9998899],[12.0666153,44.9989027],[12.0675789,44.9983285],[12.0684157,44.9980136],[12.0698876,44.9980715],[12.073981,44.9962021],[12.0763819,44.9950052],[12.0777136,44.9937573],[12.078901,44.9897165],[12.0785992,44.9880277],[12.0773528,44.9851789],[12.0756669,44.9829425],[12.0741056,44.9818892],[12.069571,44.9801567],[12.0669224,44.9797362],[12.0638925,44.9796742],[12.0598246,44.9794578],[12.0542945,44.9792861],[12.0517423,44.9790536],[12.0462848,44.9786782],[12.0437723,44.9782699],[12.0432366,44.9782528]]]}}]}