{"type":"FeatureCollection","features":[{"type":"Feature","properties":{},"geometry":{"coordinates":[[11.799512620411434,44.5826826585224],[11.798816741882632,44.582903977736635],[11.809838262869619,44.597499282782366],[11.811694839188078,44.59964636389765],[11.812729037394746,44.600737611547714],[11.812716577151548,44.60104812740903],[11.813202526657733,44.601376385229],[11.81511120316381,44.60467362005457],[11.818959843282073,44.61097954215745],[11.820406165885856,44.613429389145665],[11.821191161242297,44.61402367390687],[11.82243718561719,44.61505257045724],[11.824500157195502,44.616104199518304],[11.826867603507907,44.616068721272995],[11.827278791550953,44.616343677107864],[11.827283562944984,44.61652273407273],[11.827378188636999,44.617510625326815],[11.829546694094859,44.619042946120516],[11.829988280661752,44.61914958965244],[11.834033529025788,44.61799895172766],[11.834982488669283,44.61734325491645],[11.837750290181702,44.61709628296671],[11.83895946552093,44.6167426583109],[11.839613081631171,44.616916662154495],[11.840307003377802,44.6168717579115],[11.843185201532009,44.61547409599916],[11.844072112226513,44.616130681002915],[11.841411380145672,44.61740174113092],[11.84218003607944,44.618049886908636],[11.843274524046734,44.6187224345378],[11.844752708535964,44.61992610070283],[11.846219613151248,44.62060874758197],[11.847697797640507,44.62104643303621],[11.8484546281,44.62142519663183],[11.850831548758691,44.623066476992165],[11.851344410534978,44.62335281853086],[11.853674029290772,44.62405139726317],[11.854790406595924,44.62417610716224],[11.856268591085183,44.62410035822995],[11.858125190804799,44.624470685402486],[11.859228423222277,44.62530766085516],[11.860694782236067,44.626098795039326],[11.860895815326728,44.62630078501769],[11.861652645785057,44.62648594188062],[11.87152892754412,44.62975531197776],[11.87450301714648,44.631073440328436],[11.877021843516275,44.63135956806656],[11.879493367983116,44.631266997482015],[11.881350781857009,44.6304843515276],[11.882367772785528,44.63050959840601],[11.883408414666064,44.63028237610695],[11.887208581276383,44.63047866502083],[11.888568511007776,44.63101726275906],[11.890460587153655,44.631261313213685],[11.891739338082203,44.631144803163664],[11.897072627720547,44.63094283004173],[11.900395586452817,44.63174230286856],[11.903967517482783,44.633707685841216],[11.904014615138237,44.63325186067735],[11.904970829317108,44.631927707909824],[11.91002325829254,44.62984946278789],[11.911134534230342,44.62894825371913],[11.91179422833008,44.62870266045539],[11.919211349127266,44.626688674970495],[11.919573159897254,44.62629322669105],[11.919857439788359,44.625585091645206],[11.920322625065126,44.625244815887726],[11.92113669929904,44.625162045807514],[11.922635629633533,44.62522642254703],[11.923718265413328,44.62563913183175],[11.925708224651203,44.62565752504213],[11.926447211605591,44.62540792300754],[11.926808701488994,44.62499818311446],[11.927250522457086,44.62394046909117],[11.927116637315208,44.623254374014834],[11.926728370403112,44.62233956796629],[11.92700952920191,44.62181545383939],[11.927598623826867,44.62159627743776],[11.929151691475198,44.62119604013435],[11.931770024715178,44.619458956264964],[11.932252011226865,44.6193827179942],[11.932894659909095,44.61962096225747],[11.934661943783965,44.62125052680466],[11.937669194789436,44.62178422724995],[11.940867199243769,44.62094563626866],[11.94240687837845,44.62011656093043],[11.943288330709322,44.61941193701543],[11.943770317221038,44.619059333889766],[11.944694124700789,44.61878296778059],[11.945484047038605,44.61860189961638],[11.946233803834133,44.61837318112876],[11.946943395087345,44.61835412121391],[11.948731663493845,44.61867814971362],[11.950378450740459,44.61912605355471],[11.951047876451355,44.619154643044084],[11.951929620631631,44.61900671751883],[11.95289359365367,44.61849210324203],[11.955035755926957,44.61577600788769],[11.960158710242439,44.6092253490246],[11.960704575032452,44.60910577713838],[11.96237016246883,44.60938477782315],[11.962860041126078,44.6097135983382],[11.96410573256918,44.61146727631271],[11.96911133772926,44.61230484896038],[11.96957322332139,44.61215539198864],[11.97159973046135,44.61048163334999],[11.972117602184966,44.61036206405004],[11.973069366434345,44.610441776944185],[11.977502611209133,44.61062113506523],[11.9794761223732,44.61041188913157],[11.980833786081888,44.61014285753771],[11.983941016424865,44.60900693262454],[11.984668836144351,44.60913646904402],[11.98747509915816,44.611456060649346],[11.988118939679822,44.611705158387736],[11.99002246817858,44.61190443580884],[11.994222251359474,44.61065015072273],[11.995397960137296,44.61060033035565],[11.998491193947729,44.60958398553743],[11.999249607350094,44.60890375509172],[11.999893447871841,44.60866460974901],[12.008380982641512,44.608415511185],[12.009264491078483,44.60840214696569],[12.012177987770286,44.607523555191165],[12.01285785138424,44.60715670452362],[12.015198826891378,44.60595200824039],[12.01575862538229,44.605480992373316],[12.015834961540804,44.605028088899616],[12.016649213890986,44.60399545577647],[12.017395981236348,44.60383479142516],[12.020169528304734,44.603934432539035],[12.021340016058929,44.60330034980623]],"type":"LineString"}},{"type":"Feature","properties":{},"geometry":{"coordinates":[[12.021340275048232,44.603301037204204],[12.021368007700374,44.603287625336066],[12.023559182103526,44.605127013109325],[12.027997395887127,44.608946663232274],[12.028025587269326,44.609194254412586],[12.027787633985099,44.60936697788918],[12.025296123121592,44.60987850209432],[12.024164146235194,44.61012300669563],[12.02232638687616,44.610810153671736],[12.02217369470361,44.611004261514154],[12.02232638687616,44.61123330793441],[12.024747648465052,44.61195926265236],[12.101984033213938,44.63470747720123],[12.102271522965736,44.63470091055575],[12.10321844982866,44.634433050546704],[12.104641780890148,44.637199482646224],[12.10519777284091,44.638146658970896],[12.107215572694884,44.641061427576346],[12.107689598852033,44.64184641446002],[12.107907215583822,44.642319293532125],[12.108029128243203,44.64301343619289],[12.108005602109728,44.64351559843064],[12.107701699718547,44.645428744392376],[12.10726220616516,44.6482102953714],[12.106785413704927,44.651255183976474],[12.106644256601356,44.65224719121622],[12.106903044066968,44.65350657277554],[12.10752753996698,44.65454124113785],[12.10831566543115,44.655394744706655],[12.109817347816033,44.6564664010597],[12.111327225858929,44.65741113946959],[12.111929409792765,44.65782457179833],[12.113446278011565,44.65937588726203],[12.115518127297776,44.66156409227443],[12.115867636103758,44.66225518375418],[12.115723596048099,44.66317507884753],[12.11122185301619,44.66843140521456],[12.110542503558548,44.66955025524311],[12.110006175038848,44.67021138374491],[12.174818647677995,44.68769997055003],[12.175516716828838,44.688017187621654],[12.176142838046502,44.688825607198936],[12.176970445801658,44.69009444040256],[12.177693608508037,44.690664290564996],[12.178909832080365,44.69119125229122],[12.179335135836254,44.690961566765736],[12.17990952971249,44.690896829488906],[12.180497933197643,44.691066142214424],[12.18223512443663,44.69171848955867],[12.182444409612657,44.69184205655719],[12.182393609676723,44.69199762286186],[12.182454178830284,44.692162911602054],[12.182714040039684,44.69242820598981],[12.182854379657641,44.692413549674626],[12.183067348619034,44.692620506284925],[12.183350655953149,44.69279968288717],[12.183270548362799,44.692884409614095],[12.1832021638333,44.692927467411806],[12.183239286863653,44.692987192690936]],"type":"LineString"}}]}