{"type":"FeatureCollection","name":"Percorso Solo Linee","crs":{"type":"name","properties":{"name":"urn:ogc:def:crs:OGC:1.3:CRS84"}},"features":[{"type":"Feature","properties":{"Name":"Percorso","tessellate":1,"extrude":0,"visibility":-1},"geometry":{"type":"LineString","coordinates":[[12.0896347,44.4772833,0],[12.0903643,44.4778038,0],[12.0909436,44.4785234,0],[12.0915659,44.4792583,0],[12.0928963,44.4807893,0],[12.0940121,44.4819835,0],[12.0948275,44.4827642,0],[12.0954497,44.4834991,0],[12.0962803,44.4845472,0],[12.0968382,44.4852973,0],[12.0972889,44.4863383,0],[12.0973747,44.4872721,0],[12.097203,44.4884967,0],[12.097203,44.4898132,0],[12.0974605,44.4901499,0],[12.0978468,44.491696,0],[12.0980828,44.4924766,0],[12.0983403,44.4934103,0],[12.0990484,44.4947113,0],[12.099735,44.4952623,0],[12.1010869,44.4957215,0],[12.1024387,44.4959358,0],[12.1054857,44.4957062,0],[12.1104639,44.4949256,0],[12.1129959,44.494696,0],[12.1159999,44.4945124,0],[12.1206992,44.4942828,0],[12.1229737,44.4941297,0],[12.1269004,44.4939919,0],[12.1280162,44.4939613,0],[12.1297114,44.4941909,0],[12.1331446,44.4950787,0],[12.1346252,44.4957062,0],[12.1381013,44.4965174,0],[12.1420496,44.4975735,0],[12.1446245,44.4980786,0],[12.1489589,44.4991652,0],[12.1514051,44.4997774,0],[12.1555679,44.5007875,0],[12.163357,44.502823,0],[12.1694081,44.5043075,0],[12.171232,44.5046747,0],[12.1733778,44.5051491,0],[12.1744506,44.505547,0],[12.1765106,44.5063122,0],[12.1773689,44.5065417,0],[12.1793001,44.5074446,0],[12.180845,44.5079955,0],[12.182862,44.5087606,0],[12.1852868,44.5098624,0],[12.1874111,44.5108111,0],[12.1888487,44.511362,0],[12.1899645,44.5116221,0],[12.191016,44.5119587,0],[12.1917884,44.5123566,0],[12.1932905,44.5127544,0],[12.1944492,44.5132288,0],[12.1962516,44.5137949,0],[12.1977858,44.5145103,0],[12.1993898,44.5152485,0],[12.2036438,44.5169392,0],[12.2066479,44.5181632,0],[12.2106605,44.5198921,0],[12.2138577,44.5213302,0],[12.2228055,44.525522,0],[12.2272687,44.5274495,0],[12.2299295,44.5290596,0],[12.2318982,44.5297479,0],[12.2334968,44.5301724,0],[12.23509,44.5304631,0],[12.2375469,44.5307001,0],[12.2398752,44.5307118,0],[12.2457814,44.5299986,0],[12.2516446,44.5291628,0],[12.2554212,44.5286733,0],[12.2679954,44.5270824,0],[12.269589,44.5270185,0],[12.2730115,44.5272021,0],[12.2758439,44.5274698,0],[12.2793844,44.5276304,0],[12.2814873,44.5276839,0]]}},{"type":"Feature","properties":{"Name":"Percorso","tessellate":1,"extrude":0,"visibility":-1},"geometry":{"type":"LineString","coordinates":[[12.0897098,44.4772795,0],[12.0885834,44.4765517,0],[12.0870787,44.4756044,0],[12.0863799,44.4751039,0],[12.0854237,44.4743584,0],[12.084957,44.4738991,0],[12.0845869,44.4725631,0],[12.0840719,44.4708788,0],[12.0833853,44.4700519,0],[12.081497,44.469225,0],[12.0799426,44.4682699,0],[12.0795041,44.4679464,0],[12.0781281,44.4664648,0],[12.0775729,44.4657815,0],[12.0770499,44.46501,0],[12.0763042,44.4629886,0],[12.0761916,44.4617366,0],[12.0761111,44.4614361,0],[12.0758536,44.4609747,0],[12.0757222,44.4608273,0],[12.0755961,44.4606952,0],[12.0753841,44.4605699,0],[12.0748717,44.4603834,0],[12.0741258,44.46024,0],[12.0730631,44.4600912,0],[12.0724828,44.4598701,0],[12.0720945,44.4594432,0],[12.0716613,44.457747,0],[12.0711276,44.457165,0],[12.0699688,44.4566289,0],[12.0679357,44.4561465,0],[12.0660045,44.4558708,0],[12.0647171,44.4555338,0],[12.0639017,44.4547986,0],[12.0634725,44.4536346,0],[12.0628158,44.4526041,0],[12.0620004,44.4519302,0],[12.0603267,44.4509499,0],[12.0580951,44.4492343,0],[12.055091,44.4473961,0],[12.0525161,44.4459255,0],[12.051572,44.4451289,0],[12.0505849,44.4434131,0],[12.048997,44.440533,0],[12.0488885,44.4403414,0],[12.0485868,44.4401652,0],[12.0464518,44.4390545,0],[12.0442095,44.4382884,0],[12.0428576,44.4374458,0],[12.0418277,44.4359596,0],[12.0405186,44.4339768,0],[12.0400868,44.4329904,0],[12.0400358,44.432368,0],[12.0400895,44.4317091,0],[12.0396979,44.4302458,0],[12.038861,44.4293705,0],[12.0384892,44.4289965,0],[12.0381839,44.428777,0],[12.0380798,44.4286839,0],[12.037947,44.4285527,0],[12.0378136,44.4284516,0],[12.0376855,44.4283238,0],[12.0373086,44.4277202,0],[12.0372399,44.4274208,0],[12.0372355,44.4271828,0],[12.0370659,44.4265074,0],[12.0371169,44.4256756,0],[12.0370337,44.4252307,0],[12.0369935,44.4248012,0],[12.0368486,44.4243644,0],[12.0361727,44.423217,0],[12.034601,44.4204738,0],[12.0337963,44.4195518,0],[12.0330292,44.4186081,0],[12.0323693,44.4176107,0],[12.0319616,44.4169239,0],[12.0312857,44.4159267,0],[12.0307439,44.4151829,0],[12.0303201,44.4146,0],[12.0298641,44.4141057,0],[12.0289361,44.4131171,0],[12.0282656,44.4124082,0],[12.0277184,44.4117184,0],[12.0271766,44.4108179,0],[12.0267872,44.4100836,0],[12.0263871,44.4090503,0],[12.0258507,44.4074868,0],[12.0253572,44.4063103,0],[12.0250246,44.4055093,0],[12.0248958,44.4049076,0],[12.0253035,44.4043289,0],[12.0258185,44.4037464,0],[12.0258829,44.4034398,0],[12.0256147,44.402497,0],[12.023778,44.4014665,0],[12.0226193,44.4008035,0],[12.021761,44.4001404,0],[12.0206452,44.3988833,0],[12.0196045,44.3975648,0],[12.0184102,44.3967849,0],[12.0169725,44.3950983,0],[12.016023,44.3942167,0],[12.0151057,44.3929825,0],[12.0142367,44.3916178,0],[12.0141187,44.3911808,0],[12.013947,44.3906825,0],[12.0136144,44.3898698,0],[12.0132872,44.3894712,0],[12.0127024,44.3891875,0],[12.0114364,44.3889881,0],[12.0107391,44.3888616,0],[12.0099773,44.3885281,0],[12.0094141,44.3880413,0],[12.0091727,44.3872899,0],[12.0089715,44.3866995,0],[12.0086416,44.3862357,0],[12.0080998,44.385791,0],[12.0069625,44.3853002,0],[12.0052084,44.3849322,0],[12.0038619,44.3844837,0],[12.0036259,44.384246,0],[12.0037814,44.3835904,0],[12.0042159,44.383046,0],[12.004688,44.3826166,0],[12.0049259,44.3822015,0],[12.0050672,44.3816791,0],[12.0047705,44.3806802,0],[12.0041804,44.3802853,0],[12.0019274,44.3795875,0],[11.9987356,44.3788667,0],[11.998073,44.378581,0],[11.9973837,44.3782417,0],[11.9961445,44.3780002,0],[11.9947713,44.3784181,0],[11.9942145,44.3787789,0],[11.9934968,44.3790822,0],[11.9926519,44.3790228,0],[11.9918177,44.3787908,0],[11.9908575,44.3784649,0]]}}]}