{
"type": "FeatureCollection",
"name": "tracks",
"features": [
{ "type": "Feature", "properties": { "name": "11479320-RB | Ravenna - Family - Le pinete di Ravenna" }, "geometry": { "type": "LineString", "coordinates": [ [ 12.33007, 44.27338 ], [ 12.33077, 44.2737 ], [ 12.33365, 44.27469 ], [ 12.3333, 44.27526 ], [ 12.33255, 44.27591 ], [ 12.33196, 44.27663 ], [ 12.3316, 44.27721 ], [ 12.33185, 44.27718 ], [ 12.3328, 44.27728 ], [ 12.33776, 44.27798 ], [ 12.34288, 44.2787 ], [ 12.34303, 44.27892 ], [ 12.34307, 44.27901 ], [ 12.3436, 44.27905 ], [ 12.34463, 44.27918 ], [ 12.34451, 44.27972 ], [ 12.34419, 44.28054 ], [ 12.34382, 44.28084 ], [ 12.34367, 44.28134 ], [ 12.34337, 44.28173 ], [ 12.34338, 44.28243 ], [ 12.34315, 44.28318 ], [ 12.34308, 44.28338 ], [ 12.34318, 44.28356 ], [ 12.34345, 44.28374 ], [ 12.34351, 44.28392 ], [ 12.34314, 44.28563 ], [ 12.34289, 44.28691 ], [ 12.34254, 44.28848 ], [ 12.34241, 44.28887 ], [ 12.34225, 44.28909 ], [ 12.34211, 44.29017 ], [ 12.34176, 44.29145 ], [ 12.34167, 44.29216 ], [ 12.34173, 44.29248 ], [ 12.34168, 44.29278 ], [ 12.34174, 44.29302 ], [ 12.34209, 44.29348 ], [ 12.34198, 44.29365 ], [ 12.34144, 44.29416 ], [ 12.34133, 44.29439 ], [ 12.34163, 44.29475 ], [ 12.34171, 44.29518 ], [ 12.3416, 44.29553 ], [ 12.34149, 44.29586 ], [ 12.34137, 44.29623 ], [ 12.34112, 44.29663 ], [ 12.34093, 44.29717 ], [ 12.34086, 44.29747 ], [ 12.34088, 44.29776 ], [ 12.34088, 44.29799 ], [ 12.34075, 44.29825 ], [ 12.34072, 44.29851 ], [ 12.34046, 44.29907 ], [ 12.3402, 44.29935 ], [ 12.34109, 44.29956 ], [ 12.34196, 44.29971 ], [ 12.34275, 44.29986 ], [ 12.34296, 44.29999 ], [ 12.34292, 44.30021 ], [ 12.34287, 44.30042 ], [ 12.34287, 44.30061 ], [ 12.34305, 44.30093 ], [ 12.3444, 44.30187 ], [ 12.3446, 44.3019 ], [ 12.34476, 44.30184 ], [ 12.34486, 44.30189 ], [ 12.34484, 44.30213 ], [ 12.34479, 44.30345 ], [ 12.34474, 44.30524 ], [ 12.34459, 44.30786 ], [ 12.34454, 44.30879 ], [ 12.34453, 44.30948 ], [ 12.34418, 44.31015 ], [ 12.34363, 44.31135 ], [ 12.34283, 44.31322 ], [ 12.34266, 44.31357 ], [ 12.34248, 44.31415 ], [ 12.34219, 44.31549 ], [ 12.34185, 44.31747 ], [ 12.342, 44.31758 ], [ 12.34204, 44.31771 ], [ 12.34199, 44.31788 ], [ 12.34173, 44.31794 ], [ 12.3415, 44.3181 ], [ 12.3412, 44.31798 ], [ 12.34093, 44.31779 ], [ 12.34042, 44.31726 ], [ 12.33975, 44.31693 ], [ 12.33927, 44.31688 ], [ 12.3385, 44.3169 ], [ 12.33703, 44.31921 ], [ 12.33594, 44.32072 ], [ 12.33424, 44.32328 ], [ 12.33193, 44.32672 ], [ 12.33188, 44.32701 ], [ 12.33092, 44.32852 ], [ 12.33062, 44.32861 ], [ 12.33032, 44.32863 ], [ 12.32992, 44.32876 ], [ 12.32957, 44.32878 ], [ 12.32467, 44.3272 ], [ 12.32451, 44.32734 ], [ 12.31806, 44.3383 ], [ 12.31348, 44.34607 ], [ 12.313, 44.34595 ], [ 12.31242, 44.34685 ], [ 12.31235, 44.34673 ], [ 12.31218, 44.34673 ], [ 12.30864, 44.34184 ], [ 12.3084, 44.34082 ], [ 12.30794, 44.3405 ], [ 12.30687, 44.34008 ], [ 12.31652, 44.32373 ], [ 12.32457, 44.32715 ], [ 12.32956, 44.32877 ], [ 12.32991, 44.32873 ], [ 12.33033, 44.32862 ], [ 12.33061, 44.32858 ], [ 12.33093, 44.32851 ], [ 12.33186, 44.32701 ], [ 12.33193, 44.32671 ], [ 12.33596, 44.32067 ], [ 12.33852, 44.31689 ], [ 12.33828, 44.31695 ], [ 12.3379, 44.31694 ], [ 12.33292, 44.31579 ], [ 12.33262, 44.31566 ], [ 12.33239, 44.31544 ], [ 12.33233, 44.31525 ], [ 12.33234, 44.31497 ], [ 12.33325, 44.31315 ], [ 12.33353, 44.31252 ], [ 12.33354, 44.31212 ], [ 12.33333, 44.31177 ], [ 12.33303, 44.31142 ], [ 12.33204, 44.31093 ], [ 12.33119, 44.31049 ], [ 12.3305, 44.31001 ], [ 12.33006, 44.30946 ], [ 12.32989, 44.30887 ], [ 12.32991, 44.30837 ], [ 12.32997, 44.30795 ], [ 12.33015, 44.30753 ], [ 12.3302, 44.30738 ], [ 12.33042, 44.3072 ], [ 12.33192, 44.30632 ], [ 12.333, 44.30564 ], [ 12.33363, 44.30506 ], [ 12.33416, 44.30445 ], [ 12.33463, 44.3039 ], [ 12.33529, 44.30291 ], [ 12.33545, 44.30206 ], [ 12.33553, 44.30121 ], [ 12.33545, 44.30069 ], [ 12.33489, 44.29998 ], [ 12.33409, 44.2993 ], [ 12.33301, 44.29881 ], [ 12.33196, 44.2985 ], [ 12.33058, 44.29826 ], [ 12.32972, 44.29822 ], [ 12.32913, 44.29821 ], [ 12.32906, 44.29773 ], [ 12.32907, 44.2975 ], [ 12.3293, 44.2973 ], [ 12.3295, 44.29687 ], [ 12.33743, 44.29859 ], [ 12.33771, 44.29874 ], [ 12.3402, 44.29932 ], [ 12.34045, 44.29906 ], [ 12.34072, 44.2985 ], [ 12.34075, 44.29824 ], [ 12.34086, 44.29798 ], [ 12.34086, 44.29775 ], [ 12.34087, 44.29749 ], [ 12.34093, 44.29717 ], [ 12.34111, 44.29661 ], [ 12.34134, 44.29622 ], [ 12.34149, 44.29585 ], [ 12.34161, 44.29553 ], [ 12.34169, 44.29518 ], [ 12.34162, 44.29475 ], [ 12.34134, 44.29439 ], [ 12.34144, 44.29417 ], [ 12.34197, 44.29364 ], [ 12.34211, 44.29348 ], [ 12.34174, 44.29302 ], [ 12.34167, 44.29277 ], [ 12.34173, 44.29248 ], [ 12.34167, 44.29217 ], [ 12.34174, 44.29142 ], [ 12.3421, 44.29016 ], [ 12.34227, 44.2891 ], [ 12.34239, 44.28886 ], [ 12.34255, 44.28847 ], [ 12.3429, 44.2869 ], [ 12.34313, 44.28564 ], [ 12.34351, 44.28392 ], [ 12.34346, 44.28373 ], [ 12.34316, 44.28356 ], [ 12.34307, 44.28336 ], [ 12.34316, 44.2832 ], [ 12.34337, 44.28242 ], [ 12.34338, 44.28175 ], [ 12.34367, 44.28133 ], [ 12.34383, 44.28083 ], [ 12.34419, 44.28053 ], [ 12.3445, 44.27971 ], [ 12.34461, 44.27917 ], [ 12.34356, 44.27905 ], [ 12.34303, 44.27899 ], [ 12.34193, 44.27895 ], [ 12.34106, 44.27872 ], [ 12.33359, 44.27769 ], [ 12.33265, 44.27754 ], [ 12.33186, 44.2775 ], [ 12.33161, 44.2772 ], [ 12.33197, 44.27661 ], [ 12.33255, 44.27591 ], [ 12.3333, 44.27525 ], [ 12.33365, 44.27468 ], [ 12.33079, 44.27372 ], [ 12.33006, 44.2734 ] ] } }
]
}
