{
"type": "FeatureCollection",
"name": "tracks",
"features": [
{ "type": "Feature", "properties": { "name": "GPX Download: Zona umida di Ortazzo – Bei sentieri nel bosco giro ad anello con partenza da Ravenna" }, "geometry": { "type": "LineString", "coordinates": [ [ 12.208039, 44.419114 ], [ 12.207922, 44.419101 ], [ 12.207891, 44.419219 ], [ 12.207828, 44.419214 ], [ 12.207765, 44.419206 ], [ 12.207665, 44.419218 ], [ 12.207531, 44.419256 ], [ 12.20749, 44.419274 ], [ 12.20744, 44.419424 ], [ 12.207423, 44.419421 ], [ 12.207408, 44.419465 ], [ 12.207294, 44.419445 ], [ 12.207303, 44.419347 ], [ 12.207268, 44.419244 ], [ 12.207166, 44.419092 ], [ 12.207091, 44.419046 ], [ 12.206792, 44.418939 ], [ 12.207138, 44.418933 ], [ 12.207353, 44.418895 ], [ 12.207455, 44.4188 ], [ 12.207632, 44.418617 ], [ 12.207674, 44.418498 ], [ 12.207715, 44.418378 ], [ 12.207768, 44.418218 ], [ 12.207783, 44.418176 ], [ 12.207814, 44.418096 ], [ 12.207935, 44.41778 ], [ 12.208336, 44.416724 ], [ 12.208388, 44.41662 ], [ 12.208361, 44.41655 ], [ 12.208303, 44.416517 ], [ 12.208375, 44.416375 ], [ 12.20861, 44.415752 ], [ 12.208884, 44.415039 ], [ 12.209041, 44.414627 ], [ 12.209188, 44.414244 ], [ 12.209273, 44.413983 ], [ 12.209267, 44.413811 ], [ 12.209117, 44.413507 ], [ 12.208944, 44.413335 ], [ 12.20853, 44.413149 ], [ 12.208493, 44.413138 ], [ 12.208443, 44.413123 ], [ 12.208466, 44.413055 ], [ 12.208511, 44.413068 ], [ 12.208528, 44.413009 ], [ 12.208567, 44.413019 ], [ 12.20885, 44.412047 ], [ 12.208944, 44.412058 ], [ 12.208955, 44.412013 ], [ 12.208827, 44.411985 ], [ 12.208647, 44.411842 ], [ 12.208652, 44.411758 ], [ 12.208708, 44.411767 ], [ 12.208898, 44.411209 ], [ 12.209475, 44.410165 ], [ 12.209989, 44.409192 ], [ 12.21024, 44.40873 ], [ 12.210381, 44.408692 ], [ 12.210585, 44.408294 ], [ 12.210624, 44.408039 ], [ 12.210657, 44.407973 ], [ 12.210715, 44.407981 ], [ 12.210738, 44.407952 ], [ 12.210849, 44.407777 ], [ 12.210758, 44.407752 ], [ 12.210507, 44.40769 ], [ 12.210126, 44.406123 ], [ 12.210065, 44.405881 ], [ 12.209863, 44.405013 ], [ 12.209819, 44.404659 ], [ 12.209905, 44.404475 ], [ 12.210045, 44.404321 ], [ 12.210371, 44.403975 ], [ 12.21047, 44.403816 ], [ 12.211069, 44.403383 ], [ 12.211638, 44.402998 ], [ 12.211726, 44.402938 ], [ 12.212598, 44.402343 ], [ 12.212876, 44.402154 ], [ 12.213669, 44.40161 ], [ 12.213891, 44.401256 ], [ 12.213988, 44.401182 ], [ 12.214138, 44.401108 ], [ 12.214351, 44.401081 ], [ 12.214434, 44.401018 ], [ 12.214555, 44.400846 ], [ 12.214638, 44.400922 ], [ 12.21463, 44.400854 ], [ 12.214572, 44.40078 ], [ 12.214483, 44.400596 ], [ 12.214486, 44.400472 ], [ 12.214649, 44.4001 ], [ 12.214722, 44.399951 ], [ 12.214763, 44.399868 ], [ 12.214817, 44.39979 ], [ 12.214851, 44.399728 ], [ 12.214888, 44.399648 ], [ 12.214919, 44.399561 ], [ 12.215275, 44.398443 ], [ 12.215429, 44.39825 ], [ 12.215604, 44.398205 ], [ 12.215604, 44.39815 ], [ 12.215738, 44.397388 ], [ 12.215749, 44.397346 ], [ 12.215569, 44.397276 ], [ 12.215494, 44.396987 ], [ 12.215557, 44.396618 ], [ 12.215655, 44.396362 ], [ 12.215764, 44.396182 ], [ 12.215995, 44.395906 ], [ 12.2161, 44.395847 ], [ 12.216187, 44.395803 ], [ 12.216271, 44.395796 ], [ 12.216403, 44.395821 ], [ 12.216429, 44.395781 ], [ 12.216689, 44.395847 ], [ 12.216973, 44.395919 ], [ 12.217218, 44.395988 ], [ 12.219052, 44.396509 ], [ 12.219179, 44.396545 ], [ 12.220496, 44.39692 ], [ 12.224112, 44.397896 ], [ 12.224955, 44.398062 ], [ 12.225658, 44.398137 ], [ 12.225934, 44.398167 ], [ 12.227669, 44.39834 ], [ 12.228812, 44.398378 ], [ 12.229901, 44.398393 ], [ 12.239899, 44.39856 ], [ 12.241354, 44.39848 ], [ 12.243413, 44.398475 ], [ 12.244462, 44.398472 ], [ 12.248089, 44.398524 ], [ 12.248818, 44.398538 ], [ 12.249263, 44.398491 ], [ 12.249438, 44.398449 ], [ 12.249615, 44.39839 ], [ 12.250052, 44.398188 ], [ 12.25031, 44.398127 ], [ 12.250615, 44.398093 ], [ 12.251335, 44.398019 ], [ 12.252032, 44.39796 ], [ 12.252502, 44.397882 ], [ 12.25708, 44.396829 ], [ 12.258018, 44.396616 ], [ 12.258431, 44.396502 ], [ 12.260769, 44.395855 ], [ 12.263157, 44.395195 ], [ 12.264356, 44.394899 ], [ 12.266981, 44.394381 ], [ 12.267953, 44.394164 ], [ 12.269509, 44.393904 ], [ 12.271434, 44.393533 ], [ 12.271697, 44.39349 ], [ 12.272657, 44.393279 ], [ 12.272942, 44.393209 ], [ 12.273376, 44.393037 ], [ 12.273693, 44.392949 ], [ 12.273902, 44.392914 ], [ 12.274412, 44.392891 ], [ 12.274717, 44.392852 ], [ 12.275643, 44.392666 ], [ 12.275821, 44.392624 ], [ 12.279519, 44.391875 ], [ 12.286001, 44.390544 ], [ 12.289223, 44.390003 ], [ 12.290757, 44.389746 ], [ 12.294096, 44.389274 ], [ 12.294455, 44.38921 ], [ 12.294934, 44.389075 ], [ 12.295332, 44.388936 ], [ 12.295882, 44.388784 ], [ 12.296371, 44.388716 ], [ 12.297307, 44.388707 ], [ 12.302378, 44.389267 ], [ 12.303268, 44.389351 ], [ 12.306354, 44.389062 ], [ 12.31041, 44.388671 ], [ 12.311305, 44.388582 ], [ 12.311343, 44.388516 ], [ 12.311413, 44.388478 ], [ 12.312667, 44.388352 ], [ 12.312932, 44.388231 ], [ 12.313035, 44.388127 ], [ 12.313092, 44.388015 ], [ 12.313104, 44.387899 ], [ 12.312972, 44.38715 ], [ 12.313083, 44.387133 ], [ 12.313007, 44.386665 ], [ 12.31296, 44.386389 ], [ 12.312902, 44.385911 ], [ 12.315467, 44.385693 ], [ 12.315346, 44.385022 ], [ 12.31533, 44.384885 ], [ 12.315219, 44.384053 ], [ 12.31511, 44.381376 ], [ 12.315047, 44.379838 ], [ 12.314979, 44.378485 ], [ 12.314768, 44.374271 ], [ 12.314763, 44.374145 ], [ 12.314569, 44.368383 ], [ 12.314488, 44.368299 ], [ 12.31433, 44.368258 ], [ 12.313006, 44.368011 ], [ 12.313015, 44.367981 ], [ 12.313036, 44.367921 ], [ 12.313033, 44.367902 ], [ 12.31297, 44.367839 ], [ 12.309425, 44.367143 ], [ 12.309618, 44.36035 ], [ 12.309741, 44.356025 ], [ 12.309746, 44.355869 ], [ 12.306989, 44.355526 ], [ 12.304967, 44.354982 ], [ 12.304218, 44.35489 ], [ 12.301292, 44.3551 ], [ 12.290596, 44.356054 ], [ 12.290356, 44.356076 ], [ 12.290161, 44.356104 ], [ 12.289667, 44.356153 ], [ 12.28946, 44.356234 ], [ 12.289103, 44.35633 ], [ 12.288759, 44.356359 ], [ 12.288166, 44.356302 ], [ 12.288051, 44.356322 ], [ 12.287739, 44.356454 ], [ 12.287314, 44.356502 ], [ 12.286999, 44.356421 ], [ 12.286697, 44.356412 ], [ 12.286224, 44.356462 ], [ 12.286208, 44.356406 ], [ 12.286168, 44.356114 ], [ 12.286147, 44.356075 ], [ 12.286059, 44.355912 ], [ 12.286349, 44.355466 ], [ 12.28642, 44.355357 ], [ 12.286622, 44.354733 ], [ 12.28669, 44.354268 ], [ 12.287016, 44.353835 ], [ 12.287079, 44.353751 ], [ 12.287411, 44.352919 ], [ 12.287734, 44.35261 ], [ 12.287753, 44.352225 ], [ 12.287835, 44.352119 ], [ 12.287968, 44.351947 ], [ 12.287928, 44.351523 ], [ 12.288015, 44.35128 ], [ 12.288218, 44.35099 ], [ 12.2887, 44.350692 ], [ 12.288829, 44.350539 ], [ 12.288827, 44.350176 ], [ 12.289183, 44.34963 ], [ 12.289197, 44.349198 ], [ 12.2894, 44.348914 ], [ 12.289393, 44.348838 ], [ 12.289433, 44.348779 ], [ 12.289598, 44.348771 ], [ 12.289819, 44.348832 ], [ 12.290258, 44.349167 ], [ 12.290339, 44.349307 ], [ 12.290438, 44.349364 ], [ 12.290942, 44.349233 ], [ 12.291298, 44.349027 ], [ 12.291482, 44.349007 ], [ 12.291788, 44.349079 ], [ 12.291872, 44.349062 ], [ 12.292156, 44.34906 ], [ 12.292447, 44.349158 ], [ 12.29321, 44.349077 ], [ 12.293447, 44.349276 ], [ 12.2937, 44.349361 ], [ 12.294203, 44.349372 ], [ 12.294517, 44.349289 ], [ 12.29485, 44.349378 ], [ 12.2951, 44.348943 ], [ 12.295507, 44.348357 ], [ 12.29576, 44.348083 ], [ 12.296045, 44.347692 ], [ 12.296286, 44.347415 ], [ 12.296438, 44.347125 ], [ 12.296435, 44.346879 ], [ 12.296501, 44.346733 ], [ 12.297168, 44.346103 ], [ 12.297198, 44.346061 ], [ 12.297811, 44.34519 ], [ 12.298137, 44.344891 ], [ 12.298302, 44.344669 ], [ 12.298563, 44.344418 ], [ 12.298795, 44.344075 ], [ 12.298821, 44.344036 ], [ 12.299001, 44.343852 ], [ 12.299291, 44.343473 ], [ 12.299405, 44.343235 ], [ 12.299543, 44.343054 ], [ 12.299662, 44.342828 ], [ 12.300444, 44.341833 ], [ 12.300573, 44.341702 ], [ 12.300621, 44.341752 ], [ 12.300853, 44.341757 ], [ 12.300621, 44.341752 ], [ 12.300573, 44.341702 ], [ 12.301433, 44.340606 ], [ 12.301647, 44.340252 ], [ 12.301903, 44.339489 ], [ 12.302121, 44.339425 ], [ 12.302194, 44.339451 ], [ 12.30251, 44.339697 ], [ 12.302573, 44.339709 ], [ 12.302646, 44.339646 ], [ 12.302744, 44.339559 ], [ 12.3028, 44.339546 ], [ 12.302935, 44.339602 ], [ 12.303166, 44.339697 ], [ 12.303685, 44.339863 ], [ 12.304021, 44.339959 ], [ 12.306401, 44.340639 ], [ 12.306504, 44.340496 ], [ 12.306755, 44.34016 ], [ 12.306815, 44.340086 ], [ 12.307785, 44.340388 ], [ 12.308169, 44.340617 ], [ 12.30829, 44.340739 ], [ 12.308376, 44.340851 ], [ 12.308504, 44.341156 ], [ 12.308524, 44.34136 ], [ 12.308642, 44.341766 ], [ 12.310737, 44.344714 ], [ 12.312156, 44.34671 ], [ 12.312552, 44.347246 ], [ 12.312642, 44.34731 ], [ 12.312625, 44.347096 ], [ 12.312452, 44.346877 ], [ 12.312446, 44.346809 ], [ 12.312916, 44.345973 ], [ 12.312989, 44.345937 ], [ 12.313339, 44.346046 ], [ 12.313495, 44.346049 ], [ 12.317866, 44.33859 ], [ 12.318002, 44.338359 ], [ 12.318024, 44.338322 ], [ 12.324561, 44.327218 ], [ 12.32458, 44.327179 ], [ 12.325752, 44.325205 ], [ 12.326898, 44.32325 ], [ 12.329134, 44.31937 ], [ 12.329475, 44.318792 ], [ 12.329557, 44.318716 ], [ 12.330307, 44.319005 ], [ 12.330755, 44.319119 ], [ 12.331739, 44.319241 ], [ 12.33224, 44.31924 ], [ 12.332694, 44.319213 ], [ 12.333183, 44.319148 ], [ 12.334895, 44.318662 ], [ 12.335109, 44.318616 ], [ 12.335286, 44.318614 ], [ 12.335597, 44.31865 ], [ 12.335978, 44.318767 ], [ 12.336931, 44.319164 ], [ 12.337049, 44.319237 ], [ 12.337071, 44.319202 ], [ 12.3378, 44.318025 ], [ 12.338526, 44.316919 ], [ 12.338554, 44.316876 ], [ 12.338578, 44.316751 ], [ 12.338558, 44.31659 ], [ 12.338513, 44.316513 ], [ 12.338554, 44.316422 ], [ 12.338619, 44.316386 ], [ 12.338713, 44.316375 ], [ 12.338836, 44.316423 ], [ 12.339225, 44.316466 ], [ 12.339786, 44.316475 ], [ 12.340103, 44.31652 ], [ 12.340359, 44.31655 ], [ 12.341916, 44.316708 ], [ 12.3421, 44.315909 ], [ 12.342118, 44.315816 ], [ 12.342135, 44.315726 ], [ 12.342279, 44.314977 ], [ 12.342392, 44.31441 ], [ 12.342528, 44.313885 ], [ 12.342838, 44.31311 ], [ 12.34317, 44.312367 ], [ 12.343506, 44.311611 ], [ 12.343847, 44.310865 ], [ 12.344181, 44.310109 ], [ 12.344521, 44.309371 ], [ 12.34456, 44.308752 ], [ 12.344563, 44.308674 ], [ 12.344567, 44.308595 ], [ 12.344595, 44.307994 ], [ 12.344623, 44.307342 ], [ 12.344637, 44.30667 ], [ 12.344668, 44.30597 ], [ 12.344688, 44.305326 ], [ 12.344743, 44.304679 ], [ 12.34475, 44.303715 ], [ 12.344733, 44.302842 ], [ 12.344789, 44.302766 ], [ 12.344796, 44.30229 ], [ 12.343468, 44.302261 ], [ 12.343432, 44.302084 ], [ 12.343324, 44.301915 ], [ 12.342297, 44.301145 ], [ 12.342223, 44.30109 ], [ 12.341385, 44.300482 ], [ 12.341006, 44.300183 ], [ 12.340825, 44.300003 ], [ 12.340686, 44.299908 ], [ 12.340457, 44.299799 ], [ 12.3401, 44.299723 ], [ 12.339934, 44.299648 ], [ 12.339843, 44.299534 ], [ 12.339873, 44.299452 ], [ 12.339785, 44.299323 ], [ 12.339738, 44.299296 ], [ 12.338479, 44.298994 ], [ 12.33677, 44.29863 ], [ 12.329368, 44.297056 ], [ 12.329453, 44.296865 ], [ 12.327347, 44.296419 ], [ 12.326874, 44.29627 ], [ 12.32651, 44.296224 ], [ 12.326269, 44.296201 ], [ 12.324105, 44.295739 ], [ 12.322071, 44.295283 ], [ 12.318672, 44.294356 ], [ 12.317401, 44.293986 ], [ 12.316052, 44.293521 ], [ 12.315986, 44.293405 ], [ 12.316033, 44.293268 ], [ 12.315953, 44.29325 ], [ 12.316012, 44.293099 ], [ 12.316035, 44.29293 ], [ 12.316012, 44.29275 ], [ 12.315938, 44.292598 ], [ 12.31578, 44.292389 ], [ 12.315458, 44.292086 ], [ 12.315078, 44.291639 ], [ 12.315002, 44.291585 ], [ 12.31507, 44.291566 ], [ 12.315126, 44.291557 ], [ 12.315154, 44.291379 ], [ 12.315064, 44.291191 ], [ 12.315321, 44.290771 ], [ 12.315581, 44.290447 ], [ 12.315932, 44.290072 ], [ 12.318074, 44.287775 ], [ 12.318395, 44.287492 ], [ 12.318517, 44.287305 ], [ 12.321225, 44.284387 ], [ 12.322415, 44.283104 ], [ 12.322571, 44.282997 ], [ 12.322904, 44.282576 ], [ 12.32294, 44.282539 ], [ 12.32364, 44.281794 ], [ 12.323672, 44.281758 ], [ 12.324059, 44.281341 ], [ 12.324446, 44.280986 ], [ 12.324584, 44.28088 ], [ 12.324892, 44.280644 ], [ 12.325157, 44.280473 ], [ 12.32547, 44.280272 ], [ 12.326057, 44.279957 ], [ 12.326712, 44.279691 ], [ 12.32858, 44.279175 ], [ 12.328975, 44.279234 ], [ 12.329134, 44.279157 ], [ 12.329233, 44.279086 ], [ 12.329231, 44.279049 ], [ 12.329227, 44.27898 ], [ 12.329224, 44.278945 ], [ 12.329343, 44.278971 ], [ 12.330083, 44.278966 ], [ 12.330449, 44.278863 ], [ 12.33066, 44.278754 ], [ 12.330882, 44.278529 ], [ 12.331026, 44.278277 ], [ 12.331287, 44.277784 ], [ 12.331309, 44.277577 ], [ 12.331409, 44.277406 ], [ 12.331586, 44.277356 ], [ 12.331628, 44.277212 ], [ 12.331774, 44.276942 ], [ 12.331794, 44.276917 ], [ 12.33192, 44.276662 ], [ 12.33237, 44.276089 ], [ 12.332707, 44.275753 ], [ 12.333274, 44.275267 ], [ 12.33363, 44.2747 ], [ 12.334197, 44.273652 ], [ 12.334973, 44.272454 ], [ 12.335529, 44.271697 ], [ 12.335866, 44.271287 ], [ 12.335962, 44.271121 ], [ 12.336226, 44.270807 ], [ 12.336767, 44.270345 ], [ 12.337461, 44.269875 ], [ 12.337744, 44.269648 ], [ 12.338039, 44.269189 ], [ 12.338595, 44.268035 ], [ 12.339486, 44.266404 ], [ 12.339445, 44.266392 ], [ 12.339407, 44.266333 ], [ 12.339457, 44.266278 ], [ 12.339519, 44.266271 ], [ 12.339574, 44.266295 ], [ 12.339595, 44.266337 ], [ 12.339533, 44.266401 ], [ 12.33964, 44.266419 ], [ 12.341692, 44.266486 ], [ 12.342356, 44.266512 ], [ 12.342666, 44.266522 ], [ 12.342677, 44.266449 ], [ 12.34361, 44.266473 ], [ 12.344066, 44.266496 ], [ 12.344595, 44.26652 ], [ 12.345023, 44.266525 ], [ 12.345274, 44.266543 ], [ 12.345259, 44.266593 ], [ 12.345239, 44.266656 ], [ 12.345577, 44.266832 ], [ 12.345623, 44.266827 ], [ 12.345712, 44.266813 ], [ 12.345788, 44.266802 ], [ 12.345768, 44.266726 ], [ 12.345834, 44.266664 ], [ 12.345871, 44.26657 ], [ 12.345934, 44.266306 ], [ 12.346365, 44.265634 ], [ 12.346522, 44.265413 ], [ 12.34701, 44.264694 ], [ 12.347461, 44.26406 ], [ 12.347872, 44.263429 ], [ 12.348709, 44.263732 ], [ 12.349328, 44.263943 ], [ 12.349699, 44.264071 ], [ 12.350177, 44.264223 ], [ 12.350336, 44.264279 ], [ 12.350674, 44.263796 ], [ 12.350726, 44.263738 ], [ 12.350822, 44.263608 ], [ 12.350944, 44.263452 ], [ 12.350967, 44.263421 ], [ 12.350996, 44.263432 ], [ 12.351046, 44.263472 ], [ 12.350999, 44.263471 ], [ 12.350881, 44.263627 ], [ 12.350871, 44.263677 ], [ 12.351115, 44.263782 ], [ 12.351357, 44.263947 ], [ 12.351931, 44.264519 ], [ 12.352557, 44.265045 ], [ 12.352914, 44.265341 ], [ 12.353049, 44.265453 ], [ 12.354593, 44.266709 ], [ 12.354935, 44.267067 ], [ 12.354892, 44.267231 ], [ 12.354886, 44.267425 ], [ 12.354717, 44.267823 ], [ 12.354236, 44.269043 ], [ 12.354369, 44.269106 ], [ 12.354396, 44.269182 ], [ 12.354385, 44.26922 ], [ 12.354325, 44.269282 ], [ 12.354174, 44.269309 ], [ 12.353942, 44.26992 ], [ 12.353711, 44.270538 ], [ 12.353342, 44.271516 ], [ 12.353175, 44.271942 ], [ 12.352926, 44.272627 ], [ 12.352836, 44.272858 ], [ 12.352671, 44.273297 ], [ 12.352237, 44.274432 ], [ 12.352016, 44.274951 ], [ 12.352134, 44.274997 ], [ 12.352229, 44.275064 ], [ 12.352294, 44.275148 ], [ 12.352323, 44.275241 ], [ 12.352315, 44.275336 ], [ 12.352222, 44.275477 ], [ 12.352144, 44.275532 ], [ 12.352051, 44.275573 ], [ 12.351838, 44.275604 ], [ 12.351774, 44.275599 ], [ 12.351599, 44.275549 ], [ 12.351525, 44.275507 ], [ 12.350781, 44.275959 ], [ 12.350339, 44.27628 ], [ 12.349951, 44.27652 ], [ 12.348624, 44.277265 ], [ 12.348661, 44.277365 ], [ 12.34865, 44.277467 ], [ 12.348546, 44.277601 ], [ 12.348462, 44.27765 ], [ 12.348257, 44.277695 ], [ 12.34815, 44.277688 ], [ 12.348099, 44.277944 ], [ 12.347895, 44.278936 ], [ 12.347836, 44.279177 ], [ 12.347826, 44.279214 ], [ 12.347823, 44.27923 ], [ 12.347798, 44.27935 ], [ 12.347772, 44.27946 ], [ 12.346816, 44.279339 ], [ 12.346474, 44.279452 ], [ 12.346162, 44.279479 ], [ 12.345924, 44.279453 ], [ 12.345434, 44.279388 ], [ 12.345088, 44.279295 ], [ 12.3449, 44.279231 ], [ 12.344623, 44.279178 ], [ 12.344622, 44.279281 ], [ 12.344489, 44.279718 ], [ 12.344267, 44.280335 ], [ 12.344057, 44.280613 ], [ 12.343849, 44.28081 ], [ 12.343823, 44.280884 ], [ 12.343583, 44.281417 ], [ 12.343386, 44.281708 ], [ 12.343338, 44.282409 ], [ 12.343163, 44.283167 ], [ 12.343102, 44.283264 ], [ 12.343062, 44.28333 ], [ 12.343082, 44.28345 ], [ 12.343455, 44.283811 ], [ 12.343494, 44.28387 ], [ 12.343478, 44.284176 ], [ 12.343127, 44.285626 ], [ 12.343009, 44.286349 ], [ 12.342725, 44.287597 ], [ 12.342645, 44.288108 ], [ 12.342531, 44.288565 ], [ 12.342292, 44.289071 ], [ 12.342179, 44.289542 ], [ 12.342091, 44.290117 ], [ 12.341674, 44.291905 ], [ 12.341652, 44.292171 ], [ 12.3417, 44.292433 ], [ 12.341691, 44.292535 ], [ 12.341672, 44.29274 ], [ 12.341696, 44.292915 ], [ 12.341747, 44.293031 ], [ 12.342008, 44.293417 ], [ 12.342027, 44.293519 ], [ 12.341861, 44.293805 ], [ 12.341469, 44.294131 ], [ 12.34137, 44.294266 ], [ 12.341366, 44.29437 ], [ 12.341406, 44.29447 ], [ 12.341599, 44.294752 ], [ 12.341636, 44.294851 ], [ 12.341669, 44.295179 ], [ 12.341656, 44.295338 ], [ 12.341486, 44.295817 ], [ 12.341407, 44.296192 ], [ 12.341115, 44.296616 ], [ 12.340897, 44.297246 ], [ 12.340856, 44.297472 ], [ 12.340904, 44.297679 ], [ 12.340897, 44.297838 ], [ 12.340746, 44.298291 ], [ 12.34071, 44.298543 ], [ 12.340565, 44.298854 ], [ 12.340231, 44.299303 ], [ 12.340214, 44.299335 ], [ 12.340422, 44.299382 ], [ 12.340731, 44.299538 ], [ 12.340804, 44.299665 ], [ 12.340776, 44.299733 ], [ 12.340633, 44.299793 ], [ 12.340457, 44.299799 ], [ 12.3401, 44.299723 ], [ 12.339878, 44.29974 ], [ 12.339796, 44.299794 ], [ 12.339493, 44.300541 ], [ 12.339369, 44.300869 ], [ 12.339355, 44.30107 ], [ 12.339402, 44.301765 ], [ 12.339531, 44.302661 ], [ 12.339831, 44.304185 ], [ 12.340363, 44.305276 ], [ 12.3404, 44.305927 ], [ 12.340329, 44.30615 ], [ 12.3402, 44.306347 ], [ 12.340081, 44.306393 ], [ 12.339934, 44.306394 ], [ 12.339802, 44.306357 ], [ 12.339495, 44.30899 ], [ 12.339454, 44.309142 ], [ 12.339445, 44.309175 ], [ 12.339373, 44.309305 ], [ 12.339255, 44.309418 ], [ 12.339078, 44.309519 ], [ 12.338786, 44.309607 ], [ 12.338316, 44.309657 ], [ 12.338201, 44.309702 ], [ 12.338092, 44.309856 ], [ 12.336759, 44.312663 ], [ 12.338211, 44.313033 ], [ 12.338175, 44.31309 ], [ 12.338262, 44.313163 ], [ 12.338259, 44.313214 ], [ 12.338208, 44.313281 ], [ 12.338261, 44.313314 ], [ 12.338301, 44.313358 ], [ 12.338099, 44.313496 ], [ 12.337957, 44.313658 ], [ 12.337849, 44.313863 ], [ 12.337791, 44.314053 ], [ 12.337802, 44.314506 ], [ 12.337935, 44.314876 ], [ 12.338519, 44.316168 ], [ 12.338622, 44.316279 ], [ 12.338539, 44.316304 ], [ 12.338472, 44.316322 ], [ 12.338443, 44.316488 ], [ 12.338534, 44.316729 ], [ 12.338503, 44.316864 ], [ 12.338554, 44.316876 ], [ 12.338526, 44.316919 ], [ 12.3378, 44.318025 ], [ 12.337071, 44.319202 ], [ 12.337049, 44.319237 ], [ 12.336931, 44.319164 ], [ 12.335978, 44.318767 ], [ 12.335597, 44.31865 ], [ 12.335286, 44.318614 ], [ 12.335109, 44.318616 ], [ 12.334895, 44.318662 ], [ 12.333183, 44.319148 ], [ 12.332694, 44.319213 ], [ 12.33224, 44.31924 ], [ 12.331739, 44.319241 ], [ 12.330755, 44.319119 ], [ 12.330307, 44.319005 ], [ 12.329557, 44.318716 ], [ 12.329475, 44.318792 ], [ 12.329134, 44.31937 ], [ 12.326898, 44.32325 ], [ 12.325752, 44.325205 ], [ 12.32458, 44.327179 ], [ 12.324561, 44.327218 ], [ 12.318024, 44.338322 ], [ 12.318002, 44.338359 ], [ 12.317866, 44.33859 ], [ 12.313495, 44.346049 ], [ 12.313339, 44.346046 ], [ 12.312989, 44.345937 ], [ 12.312916, 44.345973 ], [ 12.312446, 44.346809 ], [ 12.312422, 44.346832 ], [ 12.312361, 44.346831 ], [ 12.312273, 44.346735 ], [ 12.312156, 44.34671 ], [ 12.310737, 44.344714 ], [ 12.308642, 44.341766 ], [ 12.308524, 44.34136 ], [ 12.308504, 44.341156 ], [ 12.308376, 44.340851 ], [ 12.30829, 44.340739 ], [ 12.308169, 44.340617 ], [ 12.307785, 44.340388 ], [ 12.306815, 44.340086 ], [ 12.306755, 44.34016 ], [ 12.306504, 44.340496 ], [ 12.306401, 44.340639 ], [ 12.303685, 44.339863 ], [ 12.303166, 44.339697 ], [ 12.3028, 44.339546 ], [ 12.302744, 44.339559 ], [ 12.302646, 44.339646 ], [ 12.302573, 44.339709 ], [ 12.30251, 44.339697 ], [ 12.302194, 44.339451 ], [ 12.302121, 44.339425 ], [ 12.301903, 44.339489 ], [ 12.301848, 44.339416 ], [ 12.301169, 44.339006 ], [ 12.30031, 44.338148 ], [ 12.299703, 44.337829 ], [ 12.299503, 44.337518 ], [ 12.299303, 44.337352 ], [ 12.297761, 44.335948 ], [ 12.297771, 44.335725 ], [ 12.297111, 44.334392 ], [ 12.296271, 44.332644 ], [ 12.295846, 44.33222 ], [ 12.29492, 44.33159 ], [ 12.294573, 44.331451 ], [ 12.293841, 44.331156 ], [ 12.293514, 44.331156 ], [ 12.293333, 44.331091 ], [ 12.293285, 44.330852 ], [ 12.293067, 44.330737 ], [ 12.292759, 44.330745 ], [ 12.292088, 44.330457 ], [ 12.291708, 44.330237 ], [ 12.291534, 44.330172 ], [ 12.290556, 44.329805 ], [ 12.290343, 44.329816 ], [ 12.289522, 44.330757 ], [ 12.289419, 44.330803 ], [ 12.28901, 44.330757 ], [ 12.288862, 44.33078 ], [ 12.28872, 44.33091 ], [ 12.288284, 44.331307 ], [ 12.287943, 44.331648 ], [ 12.287599, 44.331991 ], [ 12.287129, 44.332558 ], [ 12.286689, 44.332941 ], [ 12.28602, 44.333745 ], [ 12.286387, 44.334335 ], [ 12.286269, 44.334712 ], [ 12.28595, 44.33488 ], [ 12.285722, 44.335244 ], [ 12.285699, 44.335472 ], [ 12.285236, 44.335944 ], [ 12.285206, 44.336341 ], [ 12.284219, 44.337269 ], [ 12.283761, 44.338132 ], [ 12.282719, 44.338976 ], [ 12.282483, 44.339099 ], [ 12.281892, 44.339921 ], [ 12.281806, 44.340312 ], [ 12.281624, 44.340397 ], [ 12.281323, 44.340827 ], [ 12.281291, 44.340965 ], [ 12.280773, 44.341462 ], [ 12.280741, 44.341654 ], [ 12.280559, 44.341816 ], [ 12.280462, 44.342 ], [ 12.280237, 44.342192 ], [ 12.279238, 44.343643 ], [ 12.278921, 44.344237 ], [ 12.278551, 44.344511 ], [ 12.278476, 44.34481 ], [ 12.278196, 44.345017 ], [ 12.277992, 44.345371 ], [ 12.277713, 44.345624 ], [ 12.277627, 44.345931 ], [ 12.277314, 44.346483 ], [ 12.276528, 44.347408 ], [ 12.276323, 44.34776 ], [ 12.276168, 44.348329 ], [ 12.275795, 44.348589 ], [ 12.274211, 44.350684 ], [ 12.273171, 44.352364 ], [ 12.272821, 44.352928 ], [ 12.272281, 44.353881 ], [ 12.271868, 44.354608 ], [ 12.271721, 44.354783 ], [ 12.271446, 44.355007 ], [ 12.271435, 44.355158 ], [ 12.271408, 44.355298 ], [ 12.271365, 44.355582 ], [ 12.271323, 44.355628 ], [ 12.271243, 44.355646 ], [ 12.271133, 44.35573 ], [ 12.270491, 44.356845 ], [ 12.269979, 44.35764 ], [ 12.269829, 44.358073 ], [ 12.268988, 44.359342 ], [ 12.268822, 44.359784 ], [ 12.268615, 44.359981 ], [ 12.268504, 44.360086 ], [ 12.268433, 44.360153 ], [ 12.268309, 44.360548 ], [ 12.26821, 44.36085 ], [ 12.268133, 44.36106 ], [ 12.268112, 44.361129 ], [ 12.268075, 44.361215 ], [ 12.267441, 44.362327 ], [ 12.267167, 44.362717 ], [ 12.267013, 44.362936 ], [ 12.26541, 44.365979 ], [ 12.265142, 44.366682 ], [ 12.265005, 44.367258 ], [ 12.264664, 44.368084 ], [ 12.264381, 44.368463 ], [ 12.264007, 44.369157 ], [ 12.263596, 44.36969 ], [ 12.263186, 44.370466 ], [ 12.263097, 44.370503 ], [ 12.263039, 44.370527 ], [ 12.262468, 44.370512 ], [ 12.261913, 44.370571 ], [ 12.261788, 44.370659 ], [ 12.261668, 44.370597 ], [ 12.26111, 44.370591 ], [ 12.260705, 44.370459 ], [ 12.26051, 44.370395 ], [ 12.260165, 44.370484 ], [ 12.260065, 44.370555 ], [ 12.26004, 44.370644 ], [ 12.259971, 44.370615 ], [ 12.259797, 44.370472 ], [ 12.259581, 44.37079 ], [ 12.257152, 44.372994 ], [ 12.257102, 44.37304 ], [ 12.257076, 44.373143 ], [ 12.254128, 44.375772 ], [ 12.253999, 44.375862 ], [ 12.253843, 44.37593 ], [ 12.25354, 44.376025 ], [ 12.252784, 44.376176 ], [ 12.252521, 44.37621 ], [ 12.25206, 44.376217 ], [ 12.251617, 44.376165 ], [ 12.251097, 44.376069 ], [ 12.250861, 44.375996 ], [ 12.25049, 44.375831 ], [ 12.250268, 44.375737 ], [ 12.250029, 44.37569 ], [ 12.249625, 44.375687 ], [ 12.245955, 44.375842 ], [ 12.244112, 44.375923 ], [ 12.243076, 44.375977 ], [ 12.241797, 44.376192 ], [ 12.241735, 44.375934 ], [ 12.241649, 44.375818 ], [ 12.241672, 44.375764 ], [ 12.241618, 44.375749 ], [ 12.24149, 44.375979 ], [ 12.241242, 44.376176 ], [ 12.241003, 44.376235 ], [ 12.24094, 44.376426 ], [ 12.239519, 44.37774 ], [ 12.239449, 44.377749 ], [ 12.239088, 44.37756 ], [ 12.237763, 44.378832 ], [ 12.237514, 44.379116 ], [ 12.237364, 44.379395 ], [ 12.237152, 44.379603 ], [ 12.236945, 44.379822 ], [ 12.236529, 44.380058 ], [ 12.235627, 44.380972 ], [ 12.235545, 44.380944 ], [ 12.234911, 44.380731 ], [ 12.234679, 44.380653 ], [ 12.234573, 44.380635 ], [ 12.234247, 44.380651 ], [ 12.234045, 44.380699 ], [ 12.233827, 44.38076 ], [ 12.233441, 44.380853 ], [ 12.233182, 44.38084 ], [ 12.232781, 44.380764 ], [ 12.232577, 44.38073 ], [ 12.232365, 44.380695 ], [ 12.232211, 44.380669 ], [ 12.232188, 44.380719 ], [ 12.231675, 44.380635 ], [ 12.231626, 44.380646 ], [ 12.231488, 44.38078 ], [ 12.231456, 44.380857 ], [ 12.231438, 44.380877 ], [ 12.231418, 44.380905 ], [ 12.231341, 44.381009 ], [ 12.230665, 44.38167 ], [ 12.222708, 44.389412 ], [ 12.21666, 44.395295 ], [ 12.2164, 44.395553 ], [ 12.216422, 44.395634 ], [ 12.216482, 44.395679 ], [ 12.216449, 44.395746 ], [ 12.216429, 44.395781 ], [ 12.216403, 44.395821 ], [ 12.216271, 44.395796 ], [ 12.216187, 44.395803 ], [ 12.2161, 44.395847 ], [ 12.215995, 44.395906 ], [ 12.215764, 44.396182 ], [ 12.215655, 44.396362 ], [ 12.215557, 44.396618 ], [ 12.215494, 44.396987 ], [ 12.215569, 44.397276 ], [ 12.215749, 44.397346 ], [ 12.215738, 44.397388 ], [ 12.215604, 44.39815 ], [ 12.215604, 44.398205 ], [ 12.215429, 44.39825 ], [ 12.215275, 44.398443 ], [ 12.214919, 44.399561 ], [ 12.214888, 44.399648 ], [ 12.214851, 44.399728 ], [ 12.214817, 44.39979 ], [ 12.214763, 44.399868 ], [ 12.214722, 44.399951 ], [ 12.214649, 44.4001 ], [ 12.214486, 44.400472 ], [ 12.214483, 44.400596 ], [ 12.214572, 44.40078 ], [ 12.21463, 44.400854 ], [ 12.214638, 44.400922 ], [ 12.214821, 44.401087 ], [ 12.214434, 44.401018 ], [ 12.214351, 44.401081 ], [ 12.214138, 44.401108 ], [ 12.213988, 44.401182 ], [ 12.213891, 44.401256 ], [ 12.213669, 44.40161 ], [ 12.212876, 44.402154 ], [ 12.212598, 44.402343 ], [ 12.211726, 44.402938 ], [ 12.211638, 44.402998 ], [ 12.211069, 44.403383 ], [ 12.21047, 44.403816 ], [ 12.210371, 44.403975 ], [ 12.210045, 44.404321 ], [ 12.209905, 44.404475 ], [ 12.209819, 44.404659 ], [ 12.209863, 44.405013 ], [ 12.210065, 44.405881 ], [ 12.210126, 44.406123 ], [ 12.210507, 44.40769 ], [ 12.210758, 44.407752 ], [ 12.210849, 44.407777 ], [ 12.210738, 44.407952 ], [ 12.210715, 44.407981 ], [ 12.210657, 44.407973 ], [ 12.210624, 44.408039 ], [ 12.210585, 44.408294 ], [ 12.210381, 44.408692 ], [ 12.21024, 44.40873 ], [ 12.209989, 44.409192 ], [ 12.209475, 44.410165 ], [ 12.208898, 44.411209 ], [ 12.208708, 44.411767 ], [ 12.20873, 44.411815 ], [ 12.208987, 44.411855 ], [ 12.208979, 44.411889 ], [ 12.208955, 44.412013 ], [ 12.208944, 44.412058 ], [ 12.20885, 44.412047 ], [ 12.208567, 44.413019 ], [ 12.20855, 44.413081 ], [ 12.20853, 44.413149 ], [ 12.208944, 44.413335 ], [ 12.209117, 44.413507 ], [ 12.209267, 44.413811 ], [ 12.209273, 44.413983 ], [ 12.209188, 44.414244 ], [ 12.209041, 44.414627 ], [ 12.208884, 44.415039 ], [ 12.20861, 44.415752 ], [ 12.208375, 44.416375 ], [ 12.208441, 44.416387 ], [ 12.208495, 44.416397 ], [ 12.208457, 44.416517 ], [ 12.208388, 44.41662 ], [ 12.208336, 44.416724 ], [ 12.207935, 44.41778 ], [ 12.207814, 44.418096 ], [ 12.207783, 44.418176 ], [ 12.207768, 44.418218 ], [ 12.207715, 44.418378 ], [ 12.207674, 44.418498 ], [ 12.207632, 44.418617 ], [ 12.207617, 44.418779 ], [ 12.20761, 44.418845 ], [ 12.207613, 44.418909 ], [ 12.207678, 44.418985 ], [ 12.207674, 44.419074 ], [ 12.207602, 44.419146 ], [ 12.207485, 44.419178 ], [ 12.207415, 44.419254 ], [ 12.207294, 44.419445 ], [ 12.207408, 44.419465 ], [ 12.207423, 44.419421 ], [ 12.20744, 44.419424 ], [ 12.20749, 44.419274 ], [ 12.207531, 44.419256 ], [ 12.207665, 44.419218 ], [ 12.207765, 44.419206 ], [ 12.207828, 44.419214 ], [ 12.207891, 44.419219 ], [ 12.207922, 44.419101 ], [ 12.208039, 44.419114 ] ] } }
]
}
