{"type":"FeatureCollection","features":[{"type":"Feature","geometry":{"type":"LineString","coordinates":[[12.24147,44.13741],[12.24078,44.13756],[12.24009,44.13753],[12.23959,44.13743],[12.2393,44.13733],[12.23893,44.13771],[12.23864,44.13784],[12.23749,44.13807],[12.23784,44.13911],[12.23718,44.13922],[12.23457,44.13976],[12.23464,44.13982],[12.23488,44.14045],[12.23505,44.14116],[12.23507,44.14147],[12.23503,44.14171],[12.23487,44.1421],[12.23493,44.14228],[12.23465,44.14316],[12.23459,44.14353],[12.23451,44.14363],[12.23418,44.14435],[12.23341,44.14687],[12.23302,44.14791],[12.23261,44.14864],[12.23241,44.14867],[12.23001,44.14878],[12.22962,44.14884],[12.22814,44.14918],[12.22682,44.14955],[12.22654,44.14969],[12.22625,44.14978],[12.22632,44.14998],[12.22618,44.15003],[12.2261,44.15018],[12.22608,44.15031],[12.22597,44.15046],[12.22614,44.15105],[12.22602,44.15118],[12.22588,44.15126],[12.22565,44.15131],[12.22539,44.15132],[12.22517,44.15138],[12.22509,44.15154],[12.2249,44.15163],[12.22517,44.15215],[12.22538,44.15262],[12.22582,44.15447],[12.22596,44.15496],[12.22597,44.15528],[12.22588,44.15567],[12.22591,44.15605],[12.22674,44.15714],[12.22796,44.15942],[12.22853,44.16147],[12.22866,44.16201],[12.22881,44.16216],[12.22913,44.16224],[12.22998,44.1623],[12.23023,44.16242],[12.23042,44.16399],[12.23032,44.16443],[12.23019,44.16468],[12.23006,44.16503],[12.23001,44.16533],[12.23,44.16572],[12.23002,44.16596],[12.2304,44.16703],[12.23251,44.16713],[12.23329,44.16709],[12.23377,44.16709],[12.23392,44.16718],[12.23409,44.16747],[12.23412,44.16762],[12.23414,44.1686],[12.23426,44.17019],[12.23433,44.17163],[12.23438,44.17195],[12.23435,44.17265],[12.23438,44.17284],[12.23452,44.17309],[12.2345,44.17321],[12.23365,44.17333],[12.23234,44.17341],[12.23137,44.17341],[12.22905,44.1737],[12.22621,44.17416],[12.22296,44.17511],[12.22319,44.17566],[12.22317,44.17577],[12.22306,44.17583],[12.22236,44.17595],[12.22202,44.17595],[12.22169,44.17587],[12.22142,44.17586],[12.21835,44.17672],[12.21819,44.17673],[12.21805,44.17686],[12.21802,44.1774],[12.21793,44.17754],[12.21789,44.17778],[12.21792,44.17854],[12.21801,44.17855],[12.21798,44.17919],[12.21788,44.1794],[12.21781,44.1814],[12.21776,44.18216],[12.21776,44.18257],[12.21765,44.18271],[12.21769,44.18281],[12.21783,44.18286],[12.21782,44.183],[12.21797,44.18307],[12.21787,44.18456],[12.21844,44.18461],[12.22235,44.1846],[12.22248,44.18453],[12.22248,44.1844],[12.22242,44.18419],[12.22246,44.18408],[12.22366,44.18401],[12.22546,44.18373],[12.22595,44.18363],[12.2264,44.18353],[12.22819,44.1829],[12.22858,44.1828],[12.22887,44.18279],[12.22999,44.18286],[12.23158,44.18304],[12.2319,44.18309],[12.23218,44.18332],[12.23287,44.18344],[12.23326,44.18355],[12.23351,44.18366],[12.23366,44.18376],[12.23408,44.18414],[12.23433,44.18455],[12.23451,44.18497],[12.23463,44.18549],[12.23501,44.18643],[12.23511,44.18685],[12.23506,44.18723],[12.23496,44.18748],[12.23478,44.1877],[12.2336,44.18833],[12.23267,44.18876],[12.23244,44.18895],[12.23219,44.18925],[12.23208,44.18958],[12.23205,44.18996],[12.23221,44.19036],[12.23232,44.1905],[12.23249,44.19066],[12.23247,44.19082],[12.23228,44.19109],[12.23209,44.19123],[12.23194,44.19138],[12.2316,44.19212],[12.23103,44.19236],[12.23138,44.19276],[12.23131,44.19283],[12.23086,44.19301],[12.23058,44.19336],[12.23023,44.19369],[12.22945,44.19421],[12.2284,44.19473],[12.22819,44.19481],[12.228,44.19477],[12.22733,44.19455],[12.22712,44.19452],[12.22689,44.19458],[12.22677,44.19469],[12.22664,44.19485],[12.22594,44.19677],[12.22573,44.19718],[12.22562,44.19726],[12.2254,44.19806],[12.22516,44.19841],[12.22502,44.19875],[12.22496,44.19908],[12.2251,44.19989],[12.2252,44.20071],[12.22537,44.20178],[12.22533,44.20189],[12.22466,44.20192],[12.22466,44.20205],[12.22479,44.20279],[12.22486,44.20353],[12.22487,44.20464],[12.22517,44.2054],[12.22528,44.20588],[12.22466,44.20596],[12.22447,44.20603],[12.22443,44.20632],[12.22447,44.20657],[12.22461,44.20686],[12.2248,44.20805],[12.22481,44.20825],[12.22473,44.20902],[12.22479,44.20946],[12.22476,44.21007],[12.22483,44.211],[12.22491,44.21113],[12.2249,44.21136],[12.22439,44.21222],[12.22405,44.21261],[12.22381,44.21307],[12.22385,44.21315],[12.22399,44.21319],[12.2244,44.21319],[12.2245,44.21328],[12.2246,44.21378],[12.22491,44.21493],[12.22491,44.21524],[12.22499,44.21601],[12.22455,44.21724],[12.22434,44.21821],[12.22432,44.21919],[12.22435,44.21961],[12.22474,44.22158],[12.22474,44.22193],[12.22482,44.22213],[12.22492,44.22252],[12.22571,44.22418],[12.22631,44.22509],[12.22701,44.22631],[12.22897,44.23187],[12.23022,44.23375],[12.23046,44.23386],[12.23068,44.23388],[12.23195,44.2334],[12.23233,44.23329],[12.23328,44.23322],[12.23427,44.2332],[12.2344,44.23311],[12.23445,44.23293],[12.23441,44.23281],[12.2338,44.2316],[12.23375,44.23141],[12.23376,44.23128],[12.23386,44.23107],[12.23397,44.23095],[12.23421,44.23121],[12.23435,44.23128],[12.23531,44.23121],[12.23628,44.23125],[12.23723,44.23125],[12.23772,44.23131],[12.23819,44.23133],[12.23882,44.23143],[12.23914,44.23153],[12.23928,44.23163],[12.23941,44.23174],[12.23952,44.23192],[12.23954,44.23209],[12.23951,44.23245],[12.23935,44.23288],[12.23925,44.23301],[12.23906,44.23322],[12.23886,44.23337],[12.23874,44.2335],[12.23844,44.23371],[12.23846,44.23384],[12.23862,44.23403],[12.23867,44.23423],[12.23829,44.23481],[12.23821,44.23503],[12.23824,44.23516],[12.23834,44.23532],[12.23934,44.23622],[12.23987,44.23666],[12.24007,44.23686],[12.24026,44.23722],[12.24048,44.23785],[12.24106,44.23929],[12.24149,44.24048],[12.24176,44.24129],[12.24177,44.24153],[12.24173,44.24194],[12.24154,44.24236],[12.24109,44.24287],[12.24103,44.24297],[12.24097,44.24317],[12.24098,44.24343],[12.24104,44.2436],[12.24114,44.24371],[12.24126,44.24382],[12.24148,44.24395],[12.24173,44.24406],[12.2432,44.24444],[12.24365,44.24462],[12.24413,44.24505],[12.24422,44.24523],[12.24438,44.24632],[12.24442,44.24687],[12.24445,44.24707],[12.24452,44.24726],[12.24464,44.2475],[12.24481,44.24774],[12.24508,44.248],[12.24552,44.24829],[12.24662,44.24864],[12.24711,44.24882],[12.24748,44.24901],[12.24942,44.25021],[12.24992,44.25041],[12.2508,44.25066],[12.25202,44.25077],[12.2526,44.25072],[12.25378,44.25045],[12.2542,44.25032],[12.25459,44.25031],[12.25485,44.25033],[12.2553,44.25047],[12.25551,44.2506],[12.25679,44.25222],[12.25714,44.25258],[12.2575,44.25269],[12.258,44.25268],[12.25823,44.25273],[12.25844,44.25285],[12.25896,44.25324],[12.25908,44.25338],[12.25932,44.25382],[12.25941,44.25442],[12.25931,44.25482],[12.25919,44.25494],[12.25876,44.25565],[12.25805,44.25627],[12.25812,44.25648],[12.25822,44.25657],[12.2585,44.2566],[12.25899,44.25658],[12.25923,44.25661],[12.25949,44.25668],[12.25987,44.25688],[12.26025,44.25721],[12.26053,44.2576],[12.26056,44.25774],[12.26074,44.25793],[12.26128,44.25872],[12.2614,44.25894],[12.26144,44.25908],[12.26157,44.25931],[12.26163,44.26008],[12.2616,44.26027],[12.26132,44.26075],[12.26043,44.26144],[12.25978,44.26179],[12.25929,44.26213],[12.2591,44.26235],[12.25914,44.26263],[12.25938,44.26281],[12.25993,44.26316],[12.26109,44.26387],[12.26129,44.26397],[12.26147,44.26411],[12.26165,44.26434],[12.26189,44.26477],[12.26202,44.26487],[12.26254,44.26561],[12.2631,44.26634],[12.26335,44.26654],[12.26373,44.26668],[12.26507,44.26689],[12.26523,44.26696],[12.26549,44.26716],[12.26561,44.26734],[12.26562,44.26754],[12.26559,44.26774],[12.26547,44.26805],[12.2652,44.26898],[12.26522,44.26962],[12.26527,44.26974],[12.26543,44.26985],[12.26616,44.27013],[12.2668,44.27027],[12.26742,44.27025],[12.26765,44.2703],[12.26791,44.2704],[12.26812,44.27052],[12.26846,44.27084],[12.2686,44.27103],[12.26867,44.27121],[12.26871,44.27167],[12.26864,44.27182],[12.26831,44.27218],[12.26722,44.27314],[12.26628,44.2742],[12.26615,44.27445],[12.26606,44.27478],[12.26606,44.27496],[12.26636,44.27566],[12.26668,44.27623],[12.26887,44.27835],[12.27004,44.27892],[12.27038,44.27898],[12.27065,44.27897],[12.2713,44.27879],[12.27173,44.27878],[12.27164,44.27845],[12.27167,44.27832],[12.27181,44.27825],[12.27256,44.27811],[12.27283,44.27801],[12.27328,44.27826],[12.274,44.27923],[12.27449,44.28011],[12.27493,44.28118],[12.27529,44.28267],[12.27539,44.28354],[12.27562,44.28399],[12.27626,44.28485],[12.27787,44.28735],[12.27865,44.28852],[12.28277,44.29494],[12.28453,44.29752],[12.28667,44.30076],[12.28675,44.30096],[12.28674,44.30123],[12.28668,44.30158],[12.28678,44.30173],[12.28809,44.30193],[12.28846,44.30201],[12.2888,44.30211],[12.29086,44.30283],[12.2912,44.30298],[12.29211,44.30345],[12.29307,44.30404],[12.29354,44.3043],[12.29519,44.30514],[12.29557,44.30525],[12.29584,44.30536],[12.29651,44.30555],[12.29668,44.30551],[12.29772,44.30456],[12.29848,44.30378],[12.2992,44.30315],[12.30053,44.30146],[12.3007,44.30119],[12.30147,44.30039],[12.30293,44.29869],[12.30412,44.29721],[12.3046,44.29716],[12.30524,44.29745],[12.30728,44.29805],[12.30782,44.29827],[12.30824,44.29837],[12.30858,44.29837],[12.30892,44.29843],[12.31144,44.29903],[12.31314,44.29939],[12.31523,44.2945],[12.31545,44.29384],[12.31534,44.29371],[12.31503,44.29358],[12.31335,44.29314],[12.3132,44.293],[12.31322,44.29282],[12.31339,44.2927],[12.31352,44.29256],[12.31454,44.29288],[12.3152,44.29319],[12.31567,44.29336],[12.31586,44.29325],[12.31606,44.29329],[12.31598,44.29338],[12.31606,44.29352],[12.31744,44.29402],[12.32209,44.2953],[12.32634,44.29622],[12.32692,44.29628],[12.32736,44.29643],[12.33749,44.29861],[12.33769,44.29877],[12.34025,44.2993],[12.3405,44.29898],[12.34069,44.2986],[12.34073,44.2983],[12.34087,44.2979],[12.34088,44.29768],[12.34082,44.29746],[12.34107,44.29671],[12.34128,44.29644],[12.3414,44.29619],[12.34148,44.2958],[12.34167,44.29528],[12.34166,44.29498],[12.34161,44.29471],[12.3414,44.29446],[12.34138,44.29427],[12.34148,44.29412],[12.34183,44.29387],[12.34202,44.2936],[12.34201,44.29342],[12.3419,44.29322],[12.34172,44.29299],[12.34166,44.29272],[12.3417,44.29242],[12.34166,44.29204],[12.34233,44.28896],[12.34257,44.28852],[12.34268,44.28783],[12.3432,44.28535],[12.34348,44.28425],[12.34353,44.28385],[12.34301,44.28339],[12.34318,44.28317],[12.34334,44.28235],[12.34338,44.2817],[12.34352,44.28152],[12.34368,44.28122],[12.34386,44.2808],[12.34407,44.28063],[12.34431,44.28022],[12.34463,44.27921],[12.34307,44.27906],[12.34303,44.27894],[12.3429,44.2787],[12.34302,44.27872],[12.34308,44.27849],[12.33179,44.27694],[12.33195,44.27661],[12.33237,44.27608],[12.33318,44.27534],[12.33364,44.27472],[12.33098,44.2738],[12.33056,44.27362],[12.33089,44.27313],[12.33095,44.27292],[12.33109,44.27281],[12.33129,44.27277],[12.33147,44.27264],[12.33311,44.27093],[12.33314,44.27082],[12.33377,44.27023],[12.33438,44.26971],[12.33487,44.26921],[12.33572,44.26846],[12.33619,44.26811],[12.33684,44.26755],[12.33711,44.26736],[12.33793,44.26658],[12.33795,44.26647],[12.33814,44.26637],[12.33822,44.26629],[12.3394,44.26633],[12.33959,44.26616],[12.34032,44.26471],[12.34018,44.26453],[12.34014,44.26444],[12.34069,44.26396],[12.34103,44.26317],[12.34184,44.26155],[12.34224,44.26081],[12.34151,44.26042],[12.34073,44.25987],[12.34018,44.25942],[12.33993,44.25915],[12.33981,44.25911],[12.33974,44.25903],[12.33982,44.25894],[12.34131,44.25953],[12.34195,44.25965],[12.34335,44.25796],[12.34362,44.25808],[12.34475,44.25757],[12.34437,44.25706],[12.34354,44.2562],[12.34241,44.2547],[12.34215,44.25458],[12.34136,44.2544],[12.34047,44.254],[12.34003,44.25372],[12.33962,44.25326],[12.33943,44.2529],[12.33935,44.25281],[12.33951,44.25275],[12.34008,44.25229],[12.34017,44.2522],[12.34013,44.25205],[12.33976,44.25177],[12.33943,44.25141],[12.33876,44.25078],[12.33753,44.24954],[12.33699,44.24904],[12.33643,44.24844],[12.33455,44.24664],[12.3342,44.2464],[12.33392,44.24629],[12.33365,44.24594],[12.33359,44.24574],[12.33313,44.2453],[12.33288,44.2451],[12.33178,44.24467],[12.32971,44.24399],[12.32912,44.24375],[12.32917,44.2436],[12.32916,44.24335],[12.32908,44.24316],[12.32894,44.24296],[12.32869,44.24276],[12.32577,44.24113],[12.32258,44.23965],[12.32213,44.23936],[12.32166,44.23904],[12.32118,44.23861],[12.32042,44.23774],[12.31957,44.23702],[12.31776,44.2353],[12.31476,44.23722],[12.30935,44.24153],[12.30483,44.24389],[12.30096,44.24574],[12.29863,44.24666],[12.29576,44.24759],[12.2901,44.25093],[12.28769,44.2489],[12.28752,44.2488],[12.28724,44.24877],[12.287,44.24885],[12.28411,44.25026],[12.2839,44.25029],[12.28357,44.25024],[12.2833,44.25013],[12.28213,44.24925],[12.27503,44.24322],[12.27449,44.24279],[12.27399,44.24234],[12.27343,44.24202],[12.27307,44.24178],[12.27148,44.24036],[12.27033,44.23929],[12.26977,44.2388],[12.26969,44.23878],[12.26966,44.23871],[12.2694,44.23864],[12.26655,44.23836],[12.26173,44.23811],[12.2552,44.23765],[12.24953,44.23719],[12.24432,44.23669],[12.24154,44.23637],[12.24141,44.23638],[12.24133,44.23643],[12.24115,44.23642],[12.24104,44.23629],[12.24096,44.23612],[12.24068,44.2354],[12.24043,44.23484],[12.23983,44.23375],[12.23979,44.23362],[12.23975,44.23336],[12.23981,44.23309],[12.24004,44.23235],[12.24009,44.23213],[12.2401,44.23192],[12.24007,44.23169],[12.23994,44.23134],[12.2397,44.23094],[12.23953,44.23077],[12.23938,44.23067],[12.23894,44.2305],[12.2387,44.23049],[12.23849,44.23052],[12.23821,44.23046],[12.23704,44.23035],[12.23615,44.23032],[12.23574,44.22939],[12.23546,44.22843],[12.23441,44.22731],[12.23388,44.22642],[12.23371,44.22599],[12.23347,44.22282],[12.23317,44.22169],[12.23304,44.22141],[12.23263,44.2196],[12.23251,44.21918],[12.23248,44.21889],[12.23278,44.21848],[12.23291,44.2182],[12.23289,44.21797],[12.23277,44.21776],[12.23255,44.21751],[12.23222,44.21722],[12.23213,44.21699],[12.23219,44.21658],[12.23212,44.2158],[12.23213,44.21566],[12.23235,44.21457],[12.23236,44.21417],[12.23234,44.21399],[12.23243,44.21386],[12.23272,44.2136],[12.23297,44.21331],[12.23313,44.21304],[12.23317,44.21279],[12.2331,44.2124],[12.23287,44.21217],[12.23282,44.212],[12.2329,44.21125],[12.23298,44.2108],[12.2336,44.20917],[12.23361,44.20901],[12.23355,44.20869],[12.2335,44.20791],[12.23339,44.20713],[12.23339,44.20697],[12.23343,44.20619],[12.23354,44.20526],[12.23361,44.20487],[12.23368,44.20472],[12.23383,44.20464],[12.23403,44.20459],[12.2344,44.20458],[12.2345,44.20441],[12.23528,44.20419],[12.23542,44.20412],[12.23578,44.2038],[12.23589,44.20341],[12.23592,44.20321],[12.23592,44.20308],[12.23583,44.20244],[12.2358,44.20232],[12.23571,44.20222],[12.23544,44.20205],[12.23525,44.20188],[12.23442,44.20148],[12.23357,44.20121],[12.23173,44.20091],[12.23132,44.20082],[12.23108,44.20065],[12.23103,44.20043],[12.23117,44.19961],[12.23119,44.19778],[12.23121,44.19749],[12.23124,44.19738],[12.23136,44.19735],[12.23259,44.19745],[12.23269,44.19735],[12.23379,44.19372],[12.23395,44.19333],[12.23407,44.19316],[12.23432,44.19308],[12.23482,44.19309],[12.23494,44.19301],[12.23503,44.19262],[12.23513,44.1924],[12.2355,44.19193],[12.23558,44.19171],[12.23548,44.19115],[12.23519,44.1908],[12.23524,44.19064],[12.23535,44.1905],[12.23536,44.19036],[12.23521,44.18904],[12.23532,44.1886],[12.23544,44.18836],[12.2359,44.18789],[12.23603,44.18769],[12.23609,44.18748],[12.23618,44.18653],[12.23623,44.18632],[12.23642,44.18592],[12.23683,44.18521],[12.237,44.18508],[12.23715,44.18506],[12.23745,44.18509],[12.2374,44.18484],[12.23753,44.184],[12.23776,44.18202],[12.23777,44.18169],[12.23775,44.18141],[12.23779,44.18108],[12.23772,44.18079],[12.23753,44.18056],[12.23714,44.18034],[12.23474,44.1793],[12.23394,44.17893],[12.23364,44.17871],[12.23345,44.17845],[12.23341,44.17831],[12.23361,44.1781],[12.23393,44.17801],[12.23424,44.17801],[12.23459,44.17808],[12.23595,44.17843],[12.23632,44.1784],[12.23656,44.17844],[12.23685,44.17844],[12.23716,44.17851],[12.23805,44.17846],[12.23952,44.17853],[12.23981,44.17771],[12.23995,44.17692],[12.23995,44.17656],[12.23984,44.17584],[12.23981,44.17539],[12.23985,44.17523],[12.2401,44.17477],[12.24027,44.1747],[12.24127,44.17476],[12.24117,44.17457],[12.24119,44.17294],[12.24127,44.17278],[12.24193,44.17274],[12.24216,44.17268],[12.24233,44.17249],[12.24273,44.17195],[12.24298,44.17139],[12.24291,44.17124],[12.24214,44.17068],[12.24133,44.17043],[12.24108,44.17038],[12.2407,44.17039],[12.24054,44.17037],[12.24027,44.17012],[12.23996,44.16998],[12.23846,44.16948],[12.23816,44.16928],[12.23798,44.16905],[12.23787,44.16874],[12.23765,44.16789],[12.23785,44.16726],[12.23801,44.1669],[12.23835,44.16639],[12.23845,44.16607],[12.23846,44.16554],[12.23851,44.16528],[12.23882,44.16478],[12.23903,44.16186],[12.23899,44.1617],[12.23853,44.16128],[12.23834,44.16091],[12.23819,44.16077],[12.23799,44.16063],[12.23664,44.15998],[12.23633,44.15989],[12.23604,44.15987],[12.23551,44.1599],[12.23536,44.15984],[12.23488,44.15822],[12.23473,44.1579],[12.23488,44.15772],[12.23549,44.1571],[12.23571,44.15674],[12.23598,44.15552],[12.23604,44.15487],[12.23555,44.15183],[12.23545,44.15138],[12.23535,44.15119],[12.23505,44.15087],[12.23475,44.15019],[12.23474,44.15004],[12.23463,44.1499],[12.23456,44.14975],[12.23456,44.14964],[12.23479,44.14977],[12.23455,44.14881],[12.23455,44.14812],[12.23465,44.14728],[12.23477,44.14644],[12.23497,44.1456],[12.23515,44.14499],[12.23557,44.14377],[12.2357,44.14359],[12.23583,44.14316],[12.2363,44.14262],[12.23656,44.14244],[12.23673,44.14251],[12.23683,44.14243],[12.2365,44.14211],[12.23626,44.14167],[12.23611,44.14092],[12.23602,44.13975],[12.23585,44.13957],[12.23584,44.13948],[12.239,44.13889],[12.23865,44.13787],[12.23892,44.13771],[12.23929,44.13731],[12.23959,44.13744],[12.24008,44.13755],[12.24077,44.13755],[12.24148,44.13742]]},"properties":{"name":"10545390-RB | Ravenna - Segreti Locali - Lamone","ele":"49","time":"2019-09-24T05:56:19Z"}}]}