{"type":"FeatureCollection","features":[{"type":"Feature","properties":{},"geometry":{"coordinates":[[12.229589925970146,44.50889763242836],[12.229738034292097,44.50868198669474],[12.228992921461355,44.50729706093392],[12.228911217355517,44.507156113129696],[12.228733960179,44.50668932694998],[12.229689166681254,44.5062857380631],[12.230735859332327,44.5060055424602],[12.230963792402804,44.50594137533878],[12.23218212923436,44.5057580159866],[12.232498061683742,44.50567243925806],[12.232939609614021,44.50536305085447],[12.233437489440206,44.505255760292556],[12.234053570950493,44.50536815992422],[12.235009470752516,44.50560786256503],[12.236175393419842,44.50599175497379],[12.23628353578934,44.50604918820744],[12.236261671262326,44.50616401438248],[12.236300018235568,44.50707624427869],[12.23643157637099,44.507582103928826],[12.236641462800776,44.507423495523085],[12.236832991200117,44.50716886362525],[12.236955947703024,44.506897367462585],[12.237497429226693,44.50649265033877],[12.237856134743879,44.50639654348578],[12.23844904394008,44.50639350737984],[12.23846464696075,44.506739390544],[12.238480249982416,44.506773700558256],[12.238524458542543,44.50677926434261],[12.238651828792172,44.50675793570667],[12.23906587135508,44.50666242371233],[12.239608687833709,44.506594902486],[12.239846209284735,44.50659026616057],[12.240147867696606,44.50663384925966],[12.240601691245075,44.50673956130427],[12.241026101246689,44.50677572540462],[12.241290652598593,44.506808740340176],[12.241910179267364,44.50703792656509],[12.242372936421646,44.50718873442065],[12.242543269404734,44.50719893461914],[12.242812711364394,44.50718224244312],[12.24321969016961,44.50718224244312],[12.243563028511886,44.507252295529526],[12.243966359775243,44.50736883669134],[12.244333246000963,44.50741168838229],[12.244697316497508,44.50742281582865],[12.24476492959019,44.50744414342779],[12.24480019912815,44.50750743584766],[12.244788944938307,44.50766178223509],[12.244698861627995,44.507881984772155],[12.244678950367842,44.50799620040448],[12.244662501936062,44.508241300221584],[12.244734691441067,44.508392613245775],[12.244812605068233,44.508450646654495],[12.245035957463159,44.508490776104935],[12.245118181822363,44.50852266891454],[12.245219265874368,44.508888779763936],[12.24527391235739,44.509113131983526],[12.245476636822843,44.50944835402865],[12.245542168206413,44.509573922790025],[12.245609693348399,44.509801729837704],[12.245606402255731,44.510116248885254],[12.245593542922705,44.51049108709779],[12.245578804195901,44.51103082228943],[12.245567645484812,44.511245102847056],[12.245578281924907,44.51165062500033],[12.245561538867321,44.51186595738389],[12.245479339938385,44.51227133437354],[12.245433457385673,44.512510446001926],[12.245277660492604,44.5129436110015],[12.245158625408408,44.513295687874404],[12.245038859781005,44.51363712730776],[12.244972545346286,44.5138307656095],[12.244913752363004,44.514260294314454],[12.244999185644389,44.51467329664999],[12.245018936652855,44.51495708551147],[12.245056535302325,44.51533332124316],[12.245090078040903,44.515692206908625],[12.24511550973034,44.51598722128983],[12.245117234318656,44.51607941396401],[12.245088666131323,44.516439733563146],[12.244967869465597,44.51684223212385],[12.244935814782735,44.516952120858406],[12.24492109776449,44.51710520766571],[12.244765137429567,44.51745985266413],[12.24457399290057,44.51790052779279],[12.244450444594179,44.51818568231292],[12.24435314622221,44.518412364449375],[12.24425816706605,44.518717936558716],[12.24422080544386,44.51882860267162],[12.244179320932034,44.51920846996745],[12.244138632659656,44.51951069760062],[12.24416923721708,44.519726125960005],[12.24434794156403,44.52006401737137],[12.24448238508512,44.520319895530776],[12.244547409391146,44.520446366842776],[12.244697176696121,44.520597592726034],[12.245027615743425,44.52084576487394],[12.245309159011981,44.521063669838526],[12.245549565941957,44.5213158149742],[12.245699299759849,44.52147010781084],[12.24594102970687,44.52182117607737],[12.246066875598558,44.52215621371815],[12.246147470343658,44.52237734945891],[12.246292668855517,44.52275598554863],[12.246339594692785,44.52289947038955],[12.246426165388868,44.52321795675064],[12.246461133267928,44.52336667916404],[12.246488400084274,44.52375363933075],[12.246443518752699,44.52427307030226],[12.246417629145157,44.52456623393931],[12.246387674285671,44.524921306399165],[12.246369908266672,44.525211487687386],[12.246359906301223,44.525361944817604],[12.246366802522118,44.525788674187936],[12.246329269370221,44.52613398172522],[12.246328064726924,44.52634694367879],[12.246266464126109,44.527101545872654],[12.246235926818002,44.5274874887495],[12.246078291449322,44.52772130037516],[12.245790145121532,44.527808319247896],[12.244866783095404,44.52778486669149],[12.243925346332219,44.52778795258439],[12.243335980595702,44.52779474147127],[12.243020989288368,44.5277963994061],[12.242274749887173,44.52787231144288],[12.241902635000287,44.527338907856176],[12.241806358218497,44.52709084989374],[12.241711770502661,44.52681148237991],[12.241831106462143,44.52622688872947],[12.242108845687198,44.525821716040895],[12.242090265725267,44.524449206420684],[12.241735796538762,44.52301494768881],[12.241582589765898,44.52272278665873],[12.241641707087439,44.522456645093456],[12.241915335896124,44.52217571074371],[12.24164490895086,44.521625436265765],[12.241253005486072,44.520691321780305],[12.24104454804879,44.520003239794136],[12.240806716523593,44.51923636750777],[12.240601824429831,44.51856963183829],[12.240479819106866,44.51818182137387],[12.240427919711038,44.51789832956382],[12.24025715379068,44.5169781259296],[12.240133264160164,44.516313559731486],[12.239998537101883,44.515605518553485],[12.239928469426559,44.51524256048407],[12.239875412501902,44.51499493729935],[12.239769001321747,44.51456254982824],[12.239594853099902,44.51385528273815],[12.239450789055041,44.51327531035281],[12.239243945420554,44.51245008330923],[12.23922708739201,44.51239293108341],[12.239166898745424,44.51158303177999],[12.239061568117876,44.51094126689955],[12.238948795382981,44.51024407222144],[12.238810630657241,44.509408562661235],[12.238704360787125,44.508657646260275],[12.238645153454684,44.50823946549997],[12.23861306119366,44.507851596832325],[12.238511836206584,44.5075703076032],[12.238514746120956,44.50677844050833]],"type":"LineString"}}]}