{"type":"FeatureCollection","features":[{"type":"Feature","properties":{},"geometry":{"coordinates":[[11.836754523847958,44.614319654791984],[11.835797127297496,44.614639306410055],[11.83379869302982,44.61532317449095],[11.832124147086375,44.61588841283884],[11.830801180622302,44.61602515788212],[11.829208350665226,44.616129412287364],[11.82878417731527,44.61601390764051],[11.827303601676192,44.61641647571082],[11.827038967047173,44.616279376052915],[11.826973624728254,44.61609332617462],[11.826834417179157,44.616034679893744],[11.82451009010336,44.61609332309385],[11.824300794636969,44.6160604010806],[11.82250246038626,44.615113963673735],[11.820495187689033,44.61350861719097],[11.813124739349291,44.60134053125191],[11.798805669710504,44.582888719031445],[11.80444869795673,44.58117535400851],[11.804767964996955,44.58129230250822],[11.804923037559064,44.581272811108164],[11.805005134797227,44.58119484544184],[11.805023378628192,44.58099343365333],[11.80786941623873,44.58013580145351],[11.808646959701917,44.580080774956286],[11.820028177634072,44.57962966979795]],"type":"LineString"}},{"type":"Feature","properties":{},"geometry":{"coordinates":[[11.82002920251071,44.57963194964694],[11.820148750991706,44.579563017465915],[11.82015823896711,44.579444075471486]],"type":"LineString"}},{"type":"Feature","properties":{},"geometry":{"coordinates":[[11.820157618455994,44.57944456355932],[11.820035988232064,44.57817874139886],[11.820083443205135,44.57808296937026],[11.820207353412911,44.57803226646806],[11.8208014741937,44.578066887206404],[11.821497178654937,44.57804752033343],[11.822253165456516,44.578009541485415],[11.823471337745758,44.57797306755069],[11.82459528023955,44.57792419003516],[11.82554581541288,44.57787594781303],[11.82569251948641,44.577918083639986],[11.825739843380859,44.57799729891238],[11.825952617746736,44.58011514665594],[11.826019661554199,44.58045898523386],[11.82622527328084,44.5808060073424],[11.826493462488685,44.58090470132569],[11.83962476158905,44.582188206377054],[11.839707589870528,44.582231000333195],[11.83969270824943,44.58244746452476],[11.839256652699106,44.584755593326065],[11.839210810162598,44.58507676624231],[11.83936755778143,44.58521138723452],[11.839708714363496,44.58534929134288],[11.844905997368585,44.58649922901384],[11.845452593322477,44.58671121331875],[11.846069543210263,44.587031115442926],[11.847121181366788,44.58806542570599],[11.847124313484784,44.588141266355905],[11.846902316894187,44.588343802699114],[11.846513939714526,44.58882995267166],[11.845981719138933,44.589553857038595],[11.843021898489866,44.59303208999282],[11.841418427203394,44.5945344170928],[11.839233774257025,44.59655641619585],[11.838793915069488,44.59692704656388],[11.83818149250456,44.597555769674386],[11.837565689641735,44.598171735010624],[11.837316436101844,44.59840141532911],[11.836788605075952,44.59874593410453],[11.836126126451802,44.599396346460594],[11.83551765457517,44.60009580986002],[11.834318260179998,44.60126102759526],[11.828296779131392,44.60688157283127]],"type":"LineString"}},{"type":"Feature","properties":{},"geometry":{"coordinates":[[11.828297095419003,44.60688185205976],[11.823708231152551,44.611196283621354],[11.823352446385087,44.61153840598516],[11.822460621933573,44.61224736715596],[11.822219602407245,44.61243669209057],[11.820507532669495,44.613519382203776]],"type":"LineString"}}]}