{"type":"FeatureCollection","features":[{"type":"Feature","properties":{},"geometry":{"coordinates":[[12.302731326191264,44.85367960480002],[12.303117709432343,44.853632719106514],[12.303159480593223,44.85385110740634],[12.303119449898304,44.85395721667635],[12.303289346717207,44.854269945913956],[12.303609695407744,44.854844662878946],[12.304587669053404,44.85460168986805],[12.304884717124281,44.85456605373969],[12.30527773457058,44.8546794413426],[12.304793291860818,44.85469922633749],[12.304593298878046,44.85474175869217],[12.304593298878046,44.854775784553055],[12.305711259653776,44.854758771625114],[12.30643123439171,44.85470347957448],[12.307195255148741,44.854639681759295],[12.307567242098628,44.85456312336228],[12.308504384259379,44.85435954319692],[12.309828337805925,44.854104346903426],[12.311680080959547,44.8538538404253],[12.312376098339342,44.85377497715547],[12.312503181509669,44.85375927958111],[12.313096236303892,44.85372515440477],[12.313796906138862,44.853689964844534],[12.314453777132798,44.85365945116553],[12.314895679974939,44.85364238855004],[12.315295084240745,44.853625940146856],[12.316077219157137,44.85360807521204],[12.316555318633192,44.853657755108856],[12.31711604340353,44.8537588227712],[12.317420719663744,44.85378953492577],[12.317715321557955,44.85378885242295],[12.318094016078959,44.85374080597617],[12.318485554161754,44.85368594861933],[12.319129891425462,44.853589803200606],[12.319622469406596,44.85350104482703],[12.320092498894354,44.8534099863634],[12.320733151694498,44.85328116940187],[12.321280333882925,44.85316974503377],[12.321899969790081,44.85304328289379],[12.322500521774003,44.852922082093045],[12.3230211301466,44.85281449596806],[12.32342458765848,44.85272978309712],[12.323964356608968,44.852622315252745],[12.32457624389636,44.85249777596795],[12.325137306080563,44.852383529715354],[12.325654744075166,44.85227862678033],[12.326160208404758,44.852176280370855],[12.326382603952027,44.85211690091893],[12.326934417335366,44.85196799508205],[12.32714591461712,44.85191153868243],[12.32741548497927,44.85182349286126],[12.327672538513667,44.85175387529634],[12.32793996949195,44.851666329476814],[12.328282843414883,44.851569990780774],[12.328567633095503,44.85147453068765],[12.328826613192206,44.85139399204422],[12.329016267453227,44.85133004656228],[12.329361895166585,44.851179206767284],[12.329648710412414,44.85105461061326],[12.329978618900299,44.850913495354774],[12.330450586920307,44.85070780399943],[12.330898434485334,44.850667689693324],[12.331209403151433,44.850656086512856],[12.33151364901633,44.850603484328786],[12.332069818202996,44.85030564222211],[12.332364800174332,44.850117776150654],[12.33267087009196,44.849918562451364],[12.333135245468128,44.849621266697426],[12.333577071796583,44.84933501426252],[12.33386994487779,44.849131317452986],[12.334390732919559,44.84876866677325],[12.335018633628124,44.848337179484105],[12.335414496281686,44.84806298446128],[12.336001498546523,44.84765599713205],[12.33657906417784,44.84725931007412],[12.337168174667852,44.84685858382551],[12.337595808239314,44.8465630529316],[12.338329400880411,44.84605960745651],[12.33863765871871,44.845775484680274],[12.338848294860583,44.84557798440301],[12.339193692875028,44.84505460305954],[12.339310352207036,44.844876628194015],[12.339509972306416,44.84435340694097],[12.33966587166978,44.84395473698689],[12.339796832668867,44.84361329137519],[12.339956466817881,44.84319371485017],[12.340019334409135,44.843030220724046],[12.3401427378584,44.842673585547715],[12.340272044755835,44.842286000695395],[12.34039292646736,44.84192873990813],[12.34042952757818,44.84182054066687],[12.340536106527367,44.84141366678173],[12.340663980945209,44.84092917591951],[12.34077275841102,44.84051164967303],[12.3408668428508,44.840184719795474],[12.340985388069925,44.83977035580807],[12.341106835084105,44.83933963260125],[12.341200954726617,44.83901699698754],[12.341280524867358,44.8387399194979],[12.341409283314107,44.838298774837654],[12.341516236343978,44.83794821113017],[12.341619698991224,44.83760662113417],[12.341716093310254,44.83729746648365],[12.341815624507035,44.83699078530748],[12.341918142452528,44.83667419500486],[12.342042890607587,44.8362655695218],[12.34215922966601,44.836056003268254],[12.342550169375187,44.83567631940494],[12.342887384492087,44.83533966859562],[12.342944455580437,44.83522838835688],[12.343144568379074,44.834874733881236],[12.343412765975614,44.83432307237524],[12.34358603430178,44.83395444677254],[12.34380359088604,44.833484204676836],[12.343947091722583,44.83316070280185],[12.344052345976081,44.83276407910549],[12.3441490688964,44.83236227005324],[12.344253437827575,44.83196004053653],[12.3443423076653,44.8315605590746],[12.344474808762527,44.8310034659188],[12.344599993428915,44.830459545454346],[12.34466613988431,44.83016638675943],[12.344980517006434,44.82950839200552],[12.34521653414916,44.829022257344064],[12.345398889709799,44.82865602877126],[12.345606771102979,44.82828057014146],[12.345830920603788,44.82787690770752],[12.345922153786034,44.827697329530935],[12.346071551261133,44.82738244185302],[12.34625649246982,44.826992194266666],[12.346385260349422,44.82670901508445],[12.346425717431345,44.826613961344066],[12.346661386688396,44.82640129642607],[12.347294104290484,44.82595572819619],[12.34746113244509,44.82581766775468],[12.347630059188646,44.825666887420226],[12.34773170155239,44.82555367499086],[12.347788466614844,44.82548613132832],[12.347982446053692,44.825174414874],[12.348162669446424,44.824910396101075],[12.348356442731813,44.82459555932644],[12.348532253219446,44.824321173103016],[12.34872860529373,44.82401880379123],[12.348980831913252,44.82362387855949],[12.3491918770234,44.823298969354965],[12.349457783151678,44.822794474244546],[12.349712136051096,44.82215765488499],[12.349897268975951,44.82169432066087],[12.350095180182421,44.8212135701589],[12.350316591389031,44.820682629193925],[12.35050593148432,44.820235391480594],[12.350728965735868,44.81970208634121],[12.350879140655138,44.819346822898154],[12.350876131116792,44.819275661681445],[12.350841720592626,44.81926217274838],[12.350806965110138,44.819239361393954],[12.350572053339022,44.81920644663336],[12.350519850723117,44.81916941750583],[12.350486499051868,44.81905935856861],[12.35064310689964,44.819045986907696],[12.350753312421887,44.818943127874405],[12.350717060604865,44.81880015351314],[12.350895020995495,44.81868044496787],[12.350904797433657,44.81864750452414],[12.350919462091838,44.81809791644508],[12.351195646480846,44.81768182103946],[12.351359401826187,44.81767661982775],[12.35136331939708,44.81740382971407],[12.351619490767064,44.81682660853335],[12.352583900629952,44.81565878690114],[12.353985255980206,44.814285425759294],[12.355006886575865,44.81335615019134],[12.356012735925646,44.81253836108141],[12.356382971955355,44.81224993134768],[12.35665044500368,44.81209225093312],[12.356898168754867,44.81203035882197],[12.357475176732947,44.81194309579914],[12.358470265615779,44.81180735701105],[12.359232042126393,44.81168476937896],[12.359701699783699,44.81157212004939],[12.360235908589857,44.811379683273174],[12.360457318628448,44.81127496644885],[12.360799497778288,44.81110837110799],[12.361738227705615,44.810589958066146],[12.362798124472079,44.810013898972755],[12.363675605930979,44.80951387638373],[12.364503064864664,44.809023687944034],[12.365338007408383,44.80851561983553],[12.366064413618204,44.808058963701626],[12.366778910596935,44.80760857381509],[12.367550512598513,44.80712682079704],[12.368235766018984,44.80669276708167],[12.368589164089798,44.80646384253433],[12.369148280347503,44.806030657517624],[12.369734743044035,44.80555997756022],[12.370419367254271,44.805021915103225],[12.37092500843599,44.80458942143545],[12.370958555411477,44.8045529249346],[12.371224694750623,44.80440852550694],[12.371300734561373,44.80430379602555],[12.371443868323837,44.80418002457529],[12.371920121330362,44.80382576265205],[12.372222044110345,44.80357980426666],[12.372761043216656,44.80313273202319],[12.37300705437005,44.80293913673381],[12.373347576957912,44.8026690617298],[12.373497420114774,44.80258178454386],[12.373649499736985,44.802440553908355],[12.373768032383822,44.80232312592622],[12.373895510891288,44.802208871443185],[12.373977147657342,44.802126979229115],[12.374185138905375,44.80200320310857],[12.374370765503102,44.801858797299474],[12.374498244009743,44.80175247630714],[12.374941284990228,44.801384155286655],[12.375595066534913,44.800837270923466],[12.3762703491212,44.8002691101762],[12.376677749371964,44.79995984001775],[12.376782863228215,44.799763060207624],[12.376937179315888,44.799580562203545],[12.377046141526534,44.799377937538736],[12.377122181338166,44.799114503693886]],"type":"LineString"}}]}