{"type":"FeatureCollection","features":[{"type":"Feature","properties":{},"geometry":{"coordinates":[[12.230972714088551,44.92317045413077],[12.231773212720128,44.923080752350955],[12.23185395866841,44.92311229584979],[12.233716192446991,44.92289153003355],[12.23388046868817,44.92282745703696]],"type":"LineString"},"id":0},{"type":"Feature","properties":{},"geometry":{"coordinates":[[12.233880520926846,44.92282742167194],[12.235977573391466,44.92259165288462],[12.23838635782613,44.92232170203653],[12.242092356085692,44.92189646965181],[12.246175525669855,44.92143970815491],[12.249687404537895,44.92106430382185],[12.25249733870902,44.9207237090219],[12.255125224638363,44.9204003856936],[12.25768889245441,44.92014672006144],[12.261504826384737,44.91970332894812],[12.263862788529934,44.91942519963948],[12.27176062794058,44.918537838379905],[12.272426030404688,44.91842605667162],[12.272354855875932,44.91825798135926],[12.272344304309172,44.91818575467616],[12.272339028525806,44.91809360325891],[12.272288029288518,44.917866959955575],[12.27229430690224,44.91777039829083],[12.272229238908807,44.91745284657026],[12.272212991560735,44.91717276600272],[12.27222002593814,44.91705446139545],[12.272204198587929,44.916893815801586],[12.272182419745178,44.916746231631066],[12.272161164137742,44.91662262098589],[12.27214357819355,44.91629883627661],[12.272157647335206,44.91618184515855],[12.272117199663342,44.91591036217358],[12.272104889502572,44.91570239039601],[12.271967792116016,44.91526762123249],[12.271936138002815,44.91504435649452],[12.271879565645406,44.9148259965842],[12.271842635163011,44.91469523350605],[12.271821532029406,44.914527109110765],[12.271805705642663,44.91444939758455],[12.271853187691818,44.91422398528209],[12.271820026877464,44.91418372855318],[12.271807716716637,44.91390725460431],[12.271785428111997,44.91385350663134],[12.271787186707343,44.91381116361748],[12.271750256223555,44.913751385191574],[12.27169573979694,44.913588239587654],[12.27168167104216,44.91352970631888],[12.271588465537718,44.913415130386966],[12.27154801786591,44.913269419360915],[12.271823341199308,44.9131799228646],[12.271208591535526,44.91230921257704],[12.271001775794275,44.911846150617464],[12.270885471804093,44.91143667359532],[12.27071790383718,44.9109547243589],[12.270665326395147,44.910747246512244],[12.269786832818369,44.91088742339048],[12.269744370104604,44.910860697442075],[12.269695311392269,44.91085763182346],[12.269566892997261,44.91047749385817],[12.269582737288033,44.910250064953686],[12.269499048895284,44.91003546898136],[12.269505191532062,44.909767936644414],[12.269565793471543,44.90954925128776],[12.26969709767252,44.909487937487114],[12.270121311246783,44.909486915589696],[12.270246843834713,44.90942355792592],[12.270234907187785,44.9093010101015],[12.269965084267653,44.90875940025933],[12.269927067851256,44.90865064204195],[12.269701974934492,44.908268445642136],[12.269706304134104,44.90812853902196],[12.269677446067874,44.90800079870604],[12.269727947684345,44.907824005640435],[12.269587986063272,44.90771159358184],[12.269598087380473,44.90762501333026],[12.269687547385075,44.90752282020503],[12.269650031899857,44.90742267076595],[12.269600973186414,44.90736237663157],[12.26948950679926,44.90703044479116],[12.269480561307915,44.9069371878727],[12.26943727420857,44.90680535712946],[12.26934492839581,44.906722579531504],[12.269272545087432,44.9064941363624],[12.269093625075982,44.90623762622721],[12.269059095937422,44.90608257229559],[12.269112483359834,44.90593949802991],[12.26903023787122,44.90575145702516],[12.268608482055498,44.90579319999205],[12.268517452757266,44.9057234576139],[12.268460968139692,44.90555454178502],[12.268110223365142,44.90499491191301],[12.267757529213014,44.90438254125536],[12.26687977150786,44.90468721603807],[12.266230509417028,44.90478869135609],[12.264894935780177,44.904946749472515],[12.264499401382011,44.904911287605216],[12.264007126379767,44.904711766184874],[12.26346295444813,44.90443257502221],[12.263365237488415,44.90466950956616],[12.2632031161682,44.9048519751519],[12.262269998584003,44.90577536880417],[12.261849216329523,44.90620300984199],[12.26118955536063,44.906845884563666],[12.260875838065942,44.9071355356848],[12.260726834295241,44.907237008871874],[12.260433857054863,44.907318321482705],[12.260045914683076,44.90738236253341],[12.259585487058644,44.907412811847934],[12.258289665519499,44.90745857061796],[12.256958933058797,44.90747539657505],[12.256057153314686,44.90750501881294],[12.255643088355185,44.907516677471904],[12.254773899688587,44.907605973294125],[12.253137860133393,44.907812455662],[12.252210568398766,44.90791937838759],[12.251423044681701,44.907869318933336],[12.25058750222155,44.90792449043818],[12.249849698624843,44.90802764680504],[12.249167698156782,44.90815562483047],[12.248644525547803,44.90834427253344],[12.24832550465149,44.90843762590933],[12.247915832610431,44.90851004530279],[12.247235764115516,44.90860610429422],[12.246733500007736,44.90866596858123],[12.245734298545415,44.90897604312906],[12.245070807407927,44.90924044719611],[12.244500115209632,44.90946891480414],[12.243895082921881,44.90967528466061],[12.243335363052068,44.910060992968994],[12.243626515656302,44.91031500553947],[12.24341694204432,44.9104325482314],[12.243163862571691,44.91057707128431],[12.242931784411695,44.91080617865393],[12.24266447459405,44.9110739111309],[12.242384574266708,44.911295047652544],[12.241922831907658,44.9116294417704],[12.241490085026413,44.91194025518047],[12.241030992933446,44.9124269868737],[12.240835179522719,44.91263753423564],[12.240501830892214,44.91306983361858],[12.240416096504589,44.913187870359906],[12.240169458127895,44.913679223684426],[12.239836342744582,44.91416951114431],[12.239354886761902,44.91481891250291],[12.239160355545522,44.915019192628165],[12.238677828795971,44.91559266689458],[12.238488062475824,44.91631551724171],[12.238358170571331,44.9168701486775],[12.238321587396229,44.917024579273004],[12.238228672969115,44.91726481268586],[12.238052337897187,44.917684172758555],[12.237987591586034,44.91803593762566],[12.237666493392908,44.918695250468005],[12.23759145555809,44.918805862580285],[12.237498624293579,44.918917412047904],[12.23745220866138,44.91900704985605],[12.237426891044294,44.91918632505332],[12.237363239909143,44.91928232161604],[12.237316824276974,44.91932415234524],[12.237202894998461,44.91934008785276],[12.236901896656036,44.91932216040655],[12.236784232060387,44.91932522696473],[12.236200520322654,44.91954533577058],[12.235548588148276,44.9196738629374],[12.234893218586706,44.91993642570941],[12.234232191963741,44.920121982562335],[12.232886766439663,44.920174839541744],[12.232646174331734,44.9202865817021],[12.232211556329503,44.92061997505485],[12.231007075399503,44.921421141576246],[12.230854019765417,44.92157516952719],[12.230892824944135,44.921756517028456],[12.22984221099341,44.92188145802112],[12.229743472498598,44.92199278660405],[12.229245431543234,44.92220549409433],[12.229548472335807,44.92238274973428],[12.229566918296854,44.92245924936813],[12.229381648557847,44.92303279943306],[12.229338720050777,44.923140068851666],[12.229370341699536,44.923240823117595],[12.22933608491411,44.9232949318166],[12.229520544526991,44.923341577206116],[12.229718179826477,44.923309858345476],[12.229762977160789,44.92314939795773],[12.229910544851549,44.92303371693541],[12.230893451075673,44.922865792456065],[12.230972655249843,44.923170190681645]],"type":"LineString"}}]}