{"type":"FeatureCollection","features":[{"type":"Feature","properties":{},"geometry":{"coordinates":[[12.264866492538005,44.3550805827405],[12.26628345251848,44.35517769490673],[12.268419768590917,44.35538591292922],[12.271237197066483,44.35565704735703],[12.2713679024275,44.355595442212575],[12.271456297057341,44.35499698139546],[12.271577839671778,44.354917976210515],[12.271757879226442,44.35474207439685],[12.271870575742554,44.35460449719193],[12.272254906192302,44.353914460713554],[12.272291442199275,44.35387378762053],[12.272569376399048,44.353809301990196],[12.273172232591804,44.35349072109682],[12.273247406332729,44.35341845930688],[12.27326462349589,44.35332876494121],[12.27320231376325,44.35320448232514],[12.272821872728883,44.352926797781095],[12.274182040483367,44.3507235348016],[12.27460654292264,44.35014926674373],[12.275196355834993,44.34937470160898],[12.27580293023118,44.34858106385573],[12.276465062715062,44.34811618976133],[12.277247911113363,44.347499247175165],[12.277785843518842,44.347368513478784]],"type":"LineString"},"id":0},{"type":"Feature","properties":{},"geometry":{"coordinates":[[12.277785079650982,44.34736888226638],[12.278276537550198,44.34750950975078],[12.278819923667896,44.34780260044536],[12.280169924616843,44.3482071675424],[12.280816488263923,44.34822001089688],[12.28138995084717,44.348110837604395],[12.281761126273437,44.348095853662755],[12.282386736469249,44.34799096596572],[12.28323599360354,44.348127109843404],[12.283589208929214,44.34814637489956],[12.28471333281496,44.34796253503342],[12.285246149154801,44.347812695068114],[12.286141160870017,44.34797751900916],[12.286344456871205,44.34793050977851],[12.287126573685327,44.34827604375474],[12.287678839559248,44.34836539487213],[12.28815179501484,44.34839614139412],[12.288493715193084,44.34860551013725],[12.28876580390704,44.34865602623353],[12.289115913789828,44.348677987927545],[12.289433264852931,44.348779011613715],[12.289590916671955,44.34877315517309],[12.289816801851856,44.34883506334859],[12.290254951061996,44.34916448688887],[12.29034299038932,44.34931382495074],[12.29043887251052,44.34936443204103],[12.290576988419929,44.34934239347504],[12.290944536543691,44.349231384275384],[12.291299132499034,44.349023407586515],[12.291485189468432,44.34900463388442],[12.291788801024438,44.34907927047905],[12.291882400236318,44.34905968054781],[12.292160914963176,44.34906049679492],[12.292448322644987,44.3491587809761],[12.293213502347214,44.34907726373373],[12.293272857945112,44.34911481108537],[12.293392710593594,44.34924459413705],[12.293565070117893,44.34932866728124],[12.29370090312031,44.349364581985526],[12.29420424902409,44.349371749302634],[12.294520310672226,44.34928912304969],[12.294599070984674,44.34930218295301],[12.294737186894963,44.349360136241785],[12.294850190820483,44.34937727734405],[12.294850190820483,44.349369931157725],[12.294877585712385,44.34935360629629],[12.294917536594909,44.3492523920541],[12.29508760059636,44.348961898232204],[12.29528736781495,44.34868676154389],[12.295396759006621,44.348538569443974],[12.295512045841008,44.348345933056976],[12.295762393162903,44.34807961874128],[12.296017392538062,44.34772905215726],[12.296289255744654,44.34740836409071],[12.296440402407228,44.34712142754293],[12.296435836245905,44.346878076701756],[12.296503182020274,44.346731146538986],[12.296736045552933,44.34652705822927],[12.296991573296538,44.34625986276751],[12.297174205904355,44.34609578899759],[12.297486277912554,44.345673957923054],[12.297589552767988,44.345482569114836],[12.297816683921155,44.345180863380136],[12.298145523648685,44.34488142968044],[12.298317897119233,44.34465109296298],[12.298568623614017,44.34441177129972],[12.298792961615788,44.34407541999849],[12.298851175760234,44.34399950249744],[12.298999659939284,44.34385327737698],[12.29929245014111,44.343468042079024],[12.299415634467096,44.343214648811],[12.299545760200942,44.34304811752477],[12.29966401502304,44.34282275603425],[12.300122425667638,44.34226280190265],[12.30043526133366,44.3418396180067],[12.300506744903402,44.341788790412124],[12.30071867325347,44.341512082262994],[12.301229805554954,44.34086365869862],[12.301434964106335,44.34060209480367],[12.301647677074982,44.340249531166876],[12.30190697108884,44.33948661719933],[12.302118999355173,44.33942553793324],[12.302198509955218,44.339455024484266],[12.302509190264601,44.339696181790856],[12.302576834026155,44.339705660275825],[12.302631313512649,44.33967828002446],[12.302646037697826,44.33964142197382],[12.302746162157035,44.33955506873599],[12.30281719295337,44.33954664875628],[12.302877688427884,44.33963068652062],[12.303299107580443,44.3398599176046],[12.304261734232398,44.34030322818282],[12.305186309420378,44.34074707586697],[12.305741152862794,44.341011644070846],[12.30605061048081,44.34109235159201],[12.3068152423794,44.34008236054504],[12.30777566184969,44.34038668194876],[12.308177863800836,44.34061971839796],[12.308381510358231,44.34086549802427],[12.3085069093475,44.341164682918844],[12.30851709167598,44.34136130487482],[12.30864691635577,44.34177457294777],[12.309132941899065,44.34245099747133],[12.311083019845626,44.345185884741994],[12.312466864486595,44.34712325672365],[12.312558388725733,44.34725153983396],[12.312638930055869,44.34731437227461],[12.312650894125369,44.347204370370946],[12.312626965983583,44.34709925724778],[12.312498779508502,44.34691591995383],[12.31244750491689,44.346878030175304],[12.312444086611691,44.34680836180803],[12.312543217485683,44.34663480165679],[12.312778562886535,44.34619118967825],[12.312910167668065,44.34597484825926],[12.312988788706804,44.34593451333012],[12.31333745592039,44.34604818442281],[12.313509595946044,44.34604594791884],[12.314085037543947,44.3450219783509],[12.314774088527258,44.34386327998794],[12.316033531542644,44.341707514658424],[12.317176032384822,44.339756041972805],[12.322016513967753,44.331539759774245],[12.326824019784368,44.32339318914288],[12.327657575316778,44.321952036026545],[12.32846797652968,44.320552261465025],[12.329405726504064,44.31888739735194],[12.329565661103913,44.31871462110297],[12.329948505451682,44.318875519985],[12.330307254701125,44.319009602049306],[12.330748998180155,44.31911878293232],[12.33126000839485,44.31918965364204],[12.331733878672111,44.319241370768964],[12.33224220945985,44.319241369076565],[12.332683952938936,44.31921455279445],[12.333181918314551,44.31915134293723],[12.333549055952886,44.31905402478782],[12.334898381487335,44.318657524382786],[12.335100766347665,44.318621239419855],[12.33528549543908,44.318615493013766],[12.33560408618942,44.31864997144109],[12.336005671170454,44.31877830763142],[12.336470272207293,44.318961621093365],[12.33692004738512,44.31916082832856],[12.337040522879107,44.31924127721331],[12.338549534802127,44.31687323866336],[12.338504438052553,44.31686439929493],[12.338283155260683,44.31693877661877],[12.338201810648059,44.31691305991464],[12.337896295415987,44.316938099863705],[12.335035175069692,44.31627529947619],[12.338093905375331,44.30984839444989],[12.338204375427466,44.30969869480009],[12.338331497848344,44.30965003878117],[12.3388192931844,44.30960561368545],[12.339070581690237,44.309520994362316],[12.339262743488831,44.3094088735711],[12.339380996903316,44.30930309904355],[12.339458980244217,44.30913788822082],[12.339485587263226,44.30900884267598],[12.339631991211633,44.307872065673024],[12.33979823392562,44.306360590337476],[12.340079818342588,44.30639775161791],[12.340219178795394,44.306321317397334],[12.34034769176617,44.30611985906367],[12.34040030573982,44.30591654053876],[12.340373998753023,44.30526516348556],[12.339816290631802,44.30416571298801],[12.339470077311177,44.30213683699304],[12.33935634641955,44.30089849415441],[12.339756212619989,44.299723650693096],[12.340029805283393,44.29971235400768],[12.340613820390502,44.29979143076278],[12.340829537683163,44.29963704271319],[12.34050333104608,44.29940357708591],[12.340237435791494,44.299299547126026],[12.340279182224123,44.29921445722783],[12.340565872813727,44.29885321471312],[12.340713040916086,44.298537761524784],[12.340746749576596,44.29829093710157],[12.340894549092354,44.2978473928612],[12.340907513962094,44.29767851111893],[12.340858247456481,44.297466944295564],[12.340899735040068,44.29723681811265],[12.341115668136098,44.29661782006718],[12.341333390583856,44.29633187640874],[12.341415829180193,44.296176044093414],[12.341489299892487,44.29581233009205],[12.341571405494676,44.295616156976564],[12.341658071711151,44.29534079915172],[12.341674982192728,44.29517286050378],[12.341632705847701,44.29484434316325],[12.341594657264466,44.294741461016656],[12.341395959107928,44.29444945629544],[12.341364251955355,44.29436321628154],[12.341372707195688,44.29425882030526],[12.341476283894565,44.294119625382194],[12.341864395470168,44.29380943233639],[12.341990403481418,44.29360810402173],[12.342032679684792,44.293518836761336],[12.342005200152386,44.29341292627552],[12.341755196037582,44.29304258376678],[12.341696009352631,44.29292608127787],[12.341679098871083,44.29277023992455],[12.34169600997626,44.29253150505113],[12.341698123957087,44.292448288273505],[12.341653733943133,44.292163837352035],[12.341679100016705,44.291876851534255],[12.341742514321822,44.291602989230995],[12.342080603618712,44.290141267462246],[12.342160094949747,44.28970184449821],[12.34218761314807,44.28949501482495],[12.34229080639696,44.28906904189452],[12.342363010862414,44.28888697591566],[12.342531559715127,44.28856567346455],[12.342645921055237,44.28811985908561],[12.342689890410668,44.287770782650966],[12.342728363517779,44.28759504676003],[12.342980238280347,44.28648733029172],[12.343015728803095,44.28632631429369],[12.343096972169377,44.28582579377505],[12.343131438673993,44.28561901678222],[12.343335475462624,44.284783460721144],[12.343478916048952,44.28417516039576],[12.343494971098522,44.28387194238948],[12.343452317089827,44.2838010159017],[12.343246367246678,44.28361721023845],[12.343080234373502,44.283444216147416],[12.343061012387295,44.28332724826305],[12.343106321352849,44.28326040936784],[12.343068417277522,44.28325866003294],[12.342884207589094,44.28319108761758],[12.342821789430474,44.283179098954946],[12.342576683975977,44.28318890786062],[12.342244802056655,44.28310171752909],[12.342260616799308,44.28300455269911],[12.34231846777547,44.2828617780155],[12.342333833723387,44.28276963990379],[12.342346012875907,44.282377279592424],[12.342204181405236,44.28197982426954],[12.342228540163433,44.28185121573071],[12.342353376481924,44.281444680448175],[12.342531572772714,44.28102608295629],[12.342688379367416,44.280736163930385],[12.342723394432369,44.2806031930719],[12.342720349651529,44.2803999727974],[12.342785812598919,44.27994982995207],[12.342821118049557,44.279518229171174],[12.34292970670549,44.27930418959744],[12.343045408659009,44.2791232575521],[12.343045919709652,44.27897506953883],[12.342984779583958,44.27887078620964],[12.342900262351094,44.278770365051116],[12.342896665872502,44.27870727987636],[12.343017147885348,44.27871371714218]],"type":"LineString"},"id":1},{"type":"Feature","properties":{},"geometry":{"coordinates":[[12.343017347121588,44.27871400697964],[12.343063840761829,44.27849506104599],[12.342379108133713,44.278401774164735],[12.341692239016623,44.278311966129365],[12.341398469469425,44.278267563876966],[12.339386653178508,44.277991349268234],[12.339404158980471,44.277940438105816],[12.339457135645603,44.27758643064314],[12.339534192613684,44.277458849508605],[12.33955345685601,44.27731057919337],[12.339683490487943,44.277039324005216],[12.339769425673381,44.27668596945355],[12.339818295424038,44.276620972077126],[12.339863245321112,44.27650948044007],[12.339922643399944,44.276171556042556],[12.339956355822807,44.27606351177738],[12.340022107774644,44.2759230443981],[12.340100770095859,44.275616150892006],[12.340187298766892,44.27524672873051],[12.340264498907231,44.27506833283502],[12.340286162072857,44.27484945847306],[12.340306621729553,44.27476931923127],[12.340426703804468,44.274558534169785],[12.340425500295538,44.27448442655074],[12.340473640664442,44.274309497730826],[12.340530485490518,44.274190642045966],[12.340578625859422,44.27403208510319],[12.340634185335318,44.273931207899665],[12.340679918686249,44.273794193440295],[12.3407039888707,44.27356325010706],[12.340827412892907,44.273393372174866],[12.340891574095053,44.273264206333664],[12.34098339526787,44.27301968954512],[12.341041163711083,44.272878364257366],[12.341054730094044,44.27277068577041],[12.341097327864588,44.27266562650328],[12.341125726377982,44.27253853842976],[12.341232220804784,44.2723216408161],[12.341229854261627,44.27213863283188],[12.341194356119644,44.27195392975122],[12.341175423777088,44.27189801035544],[12.341189623034268,44.27181158936634],[12.341989514499858,44.2718319237286],[12.342361061719714,44.27184039637726],[12.342938498162795,44.27187598148788],[12.343260916067067,44.271878835571755],[12.34364902908635,44.271912726131944],[12.343779188940175,44.27190764254908],[12.34454121572162,44.27209573481966],[12.344538255825455,44.27173360234468],[12.344607609213398,44.27148309668465],[12.34475710429652,44.27149854640405],[12.345270319371991,44.27163869724225],[12.34536741411614,44.27163428304789],[12.345506120893248,44.271555931039586],[12.345723181245262,44.27160228061891],[12.346025253782358,44.271629869344736],[12.346339655810311,44.2716442154765],[12.346553144345393,44.27170753287689],[12.346844428577725,44.27176822794698],[12.347165826124836,44.27183762254151],[12.347265135813586,44.271842701777615],[12.347425922929204,44.27186809795066],[12.34790828427623,44.27188841488112],[12.348156558498601,44.271917197187264],[12.34821803592547,44.271940900252844],[12.348383552073784,44.27190873180453],[12.348492319828694,44.27180545403667],[12.348588703089405,44.27167311060006],[12.348709293426339,44.27145300933847],[12.348822790213006,44.27136327551054],[12.348875648760782,44.27124746302843],[12.348721593856709,44.271197478808205],[12.34878899287662,44.271114746213556],[12.348815471063716,44.27103890789854],[12.348892498515767,44.27085275889323],[12.349041739205177,44.27063903153018],[12.34933781347479,44.270266730396884],[12.349788841991767,44.269329119156225],[12.349929266168061,44.26917430783405],[12.35000629362105,44.26904158633775],[12.35014590587835,44.268745116457524],[12.350516599563093,44.26802461855675],[12.35053104220978,44.267955671013624],[12.350839327188936,44.26728098881517],[12.351030904900568,44.266976410932585],[12.351286058336427,44.26651617634283],[12.351391971083814,44.26641619981319],[12.351585322973989,44.26663625415341],[12.351624602819953,44.26664136838389],[12.351756725936099,44.26663113992248],[12.352349494513021,44.266715524678915],[12.352413770624025,44.266720638902996],[12.353142233212765,44.265598056110065],[12.352099401197052,44.26473232312267],[12.35141330726043,44.26406106931114],[12.351104081824332,44.2638015619176],[12.350790024740917,44.26367699796123],[12.350963579820302,44.26341570571006],[12.350425950225116,44.26319513607942],[12.350371276029051,44.263110301385865],[12.350240057957933,44.26312074258564],[12.349204893178467,44.26269004155972],[12.348502288779287,44.26237253805476],[12.347678530890107,44.2620057851376],[12.34738632384267,44.26186277268883],[12.346979912318545,44.26167613197151],[12.346706377870532,44.261545831444835],[12.346560580014398,44.261467520304365],[12.346183328061784,44.26120909280016],[12.346083092035002,44.26108770979263],[12.345736282823879,44.26130047282035],[12.345390805780113,44.26147791397818],[12.345108142745772,44.2614229322684],[12.345055797739235,44.261245490944106],[12.345111632412056,44.26113552703788],[12.345038349403751,44.26095558565717],[12.344867627140019,44.26087032530711],[12.344928600248522,44.26081355807105],[12.344748119846713,44.26070526350031],[12.34464533457708,44.26066943747469],[12.344333152261271,44.26049302159046],[12.343999107688745,44.260312254717405],[12.343641805272682,44.26015854492411],[12.34306903626711,44.25994532967243],[12.342855630386794,44.25987196777268],[12.341923591050346,44.2596466691997],[12.341271171003115,44.25951500837098],[12.340772946838598,44.25934471538511],[12.339937804275735,44.25899587730453],[12.339453687519324,44.25878015713491],[12.33891885740752,44.258507019249265],[12.337977236850918,44.258049544244585],[12.3378504127854,44.25797268644081],[12.337511546916602,44.25779438742899],[12.337366524783448,44.257687788151685],[12.337076480517283,44.257594855290705],[12.336675761466068,44.25760305525512],[12.3364391464076,44.25745545572403],[12.336259776926283,44.25712472209602],[12.336015529124296,44.256936121095265],[12.33565862737396,44.25679642169189],[12.335272126222577,44.256349631178836],[12.33463801095914,44.255345042976074],[12.33399408636771,44.25361063610063],[12.333026434408879,44.25106765743206],[12.332427543115614,44.24948483511233],[12.332228017184946,44.249160011345054],[12.331647578116701,44.24872474468367],[12.330931098641855,44.24841290987183],[12.33062274038673,44.24827648162136],[12.330587893222827,44.24812583825033],[12.330465531296198,44.24799037764592],[12.330576769411039,44.24791335088838],[12.33069542340138,44.24775664096697],[12.331018013934198,44.24736353627614]],"type":"LineString"}}]}