{"type":"FeatureCollection","features":[{"type":"Feature","properties":{},"geometry":{"coordinates":[[12.264736042200155,44.35506273574046],[12.265671414296094,44.35513781152156],[12.265824309785557,44.355253208306266],[12.26464610304103,44.357656273415245],[12.26460537212148,44.3578539409051],[12.264691930723131,44.35796679591007],[12.264905781387654,44.35806144832793],[12.265486233190018,44.358232550386305],[12.265822284234105,44.35754813915358],[12.265944484613726,44.35707123085547],[12.266046318263193,44.356707176106795],[12.266148151912716,44.35633219735149],[12.266158335277282,44.35593173195369],[12.26621166071962,44.355381867003956],[12.266293127639983,44.35518527205315],[12.271261307871669,44.3556471438653],[12.273732132672876,44.355994827051546],[12.274540338245458,44.35599920489204],[12.276695553105668,44.356248741244826],[12.277448653752629,44.35650703214],[12.277885048583755,44.35660151970447],[12.278656517539673,44.356671564384015],[12.280352524688595,44.356513963737626],[12.281987883672343,44.356536173469465],[12.283881868539765,44.35662690179407],[12.285465351201765,44.3565644281185],[12.28622200520573,44.3564568981223],[12.286665660780699,44.35641586521518],[12.28699710642033,44.35641586521518],[12.287318803657342,44.35650415374852],[12.287591758889931,44.35648789008155],[12.287728236505586,44.356455362733584],[12.288059682145217,44.35631595960962],[12.288169087246615,44.35630148216808],[12.288294796766394,44.35629971975459],[12.288750801886863,44.35635964177442],[12.28910265653721,44.35633053756476],[12.289472711138728,44.35623012852378],[12.289670073594465,44.35614871566179],[12.289873821458855,44.35612198494593],[12.290150887981895,44.35610841611842],[12.290612032949412,44.35605549766129],[12.301932936449418,44.35506613445739],[12.304212251897354,44.35488291401916],[12.304956786056295,44.354987484511895],[12.306990399569486,44.35554124807186],[12.310241088887722,44.35592625236674],[12.31059480374904,44.35608835889454],[12.312214357544008,44.35796852695452],[12.31359187820587,44.35968148440625],[12.313585230579719,44.359767035090044],[12.313445630425292,44.35993813608246],[12.31346557330508,44.36001418080727],[12.314993154092377,44.36062510115363],[12.31808446421627,44.36101189596269],[12.319450459626808,44.3611555429506],[12.321353562340107,44.361364531134285],[12.322250852119055,44.36138478941203],[12.322295745871031,44.360849906861915],[12.322277139254538,44.36070091518431],[12.322158056909387,44.36054926255147],[12.322165499555638,44.36048008753568],[12.322288303224724,44.36024595610817],[12.322284581900874,44.359804296550124],[12.322437543471636,44.35968659651189],[12.322727806688988,44.359351358048116],[12.322731528012866,44.359239611466904],[12.322653380223073,44.35908795505168]],"type":"LineString"}},{"type":"Feature","properties":{},"geometry":{"coordinates":[[12.271259402485299,44.35564704280961],[12.27135042995448,44.35561132345282],[12.271368055709814,44.355577074930125],[12.271446855419242,44.355007052952175],[12.271325866971267,44.35483993495873],[12.270735758828181,44.35443768273697],[12.270662978822486,44.35439267532317],[12.270144554138199,44.35372333491247],[12.270056745159621,44.35328768686162],[12.269716966666465,44.352850655287796],[12.26963238449909,44.35266499445734],[12.269605882228916,44.35238805599539],[12.269930438929293,44.351561026960155],[12.270476401676689,44.35055730992525],[12.270555557008919,44.35039838845063],[12.271106599896257,44.34925109323976],[12.27144582101775,44.348968334365225],[12.272559753835196,44.34705203477267],[12.278715265902719,44.33625826049362],[12.280222874280412,44.3337164562607],[12.28143762828401,44.33151099973486],[12.282025446863031,44.330661827920125],[12.28207097814601,44.33042298526502],[12.282268280376002,44.33026375628697],[12.282273339408363,44.33007195717272],[12.282470641638298,44.32982587437087],[12.282536409047623,44.329626836054786],[12.282809330444508,44.32927980255306],[12.283436650355753,44.32811450323993],[12.284212954844463,44.326946535294866],[12.285664896895895,44.32756538957631],[12.286418692595419,44.32810823883375],[12.288483544225357,44.32909326599625],[12.289935486275766,44.329469632211925],[12.290553892418103,44.32980453851658],[12.29171246666212,44.33023851875575],[12.292154774325269,44.330487677952505],[12.29276294736053,44.33074474585533],[12.293055976187077,44.33074079097324],[12.293299245401414,44.330859437325586],[12.293332418475813,44.331096729310616],[12.293503812695718,44.33116000701088],[12.293852129980053,44.33115605215676],[12.294925590447008,44.33159594005144],[12.295848907692204,44.33222079903348],[12.296152994209848,44.3325411355504],[12.296280157663091,44.332643959246724],[12.297766791596644,44.33572259694628],[12.297755733904467,44.33595196019306],[12.299305280466854,44.33735209357269],[12.299502651431794,44.33751976096406],[12.299702164534807,44.3378251356005],[12.300324645416879,44.33815619415739],[12.301163303298267,44.33900199805581],[12.301849628373901,44.33941581265407],[12.301909482304836,44.33948715970328],[12.301650115270917,44.34026340998909],[12.3014523888952,44.34058540413989],[12.300566506180928,44.341714955416734],[12.300498671726189,44.34180342227555],[12.300429356291431,44.34185659197837],[12.300057258787263,44.342349752606395],[12.299662326404672,44.3428283871701],[12.29954122229637,44.34306202010666],[12.299403077724122,44.343238442206086],[12.299288483942519,44.34348078691178],[12.29898741284697,44.34386690786209],[12.298819665867086,44.344038623021646],[12.298558740831197,44.34442474639144],[12.298305493996935,44.34466986051194],[12.298150903643688,44.3448780328232],[12.29781416545427,44.34518922188724],[12.297598323376576,44.34546738897856],[12.297492990192097,44.34567135745377],[12.297164074545066,44.346106511636094],[12.296880880402085,44.346368775775176],[12.296668729810136,44.346593407151374],[12.296503106877509,44.346733137527195],[12.296434034592636,44.34688249891846],[12.29644061335793,44.347127473111215],[12.296286512050813,44.34741976152051],[12.296058821836994,44.34767724803848],[12.295762455125157,44.34808368977099],[12.295508052515146,44.34835840413723],[12.29539397513625,44.34854714470711],[12.295095379710858,44.348952045644154],[12.294924725747705,44.349242584487826],[12.294878677556596,44.34935430676549],[12.29483262936671,44.349377827217836],[12.294725160405164,44.34935323772882],[12.294598527881675,44.349300316675084],[12.294513009813244,44.34929090848317],[12.294202184527563,44.349374406136405],[12.293701364284999,44.34936313000759],[12.293566508869702,44.34932784931661],[12.293425075141812,44.349265520043986],[12.293255683584107,44.349109108558594],[12.293207370847,44.349081191224826],[12.292445931126935,44.34915880904367],[12.292154924104466,44.34906461427644],[12.29187863496253,44.349061086190716],[12.291779564690358,44.34908225851217],[12.291478483666396,44.349008248648175],[12.291299716807686,44.34903247006861],[12.290940301334302,44.3492316235897],[12.290579004104927,44.34934465636849],[12.29044351764503,44.34936618639651],[12.290340021042311,44.34930967005539],[12.290257223760989,44.34916434207048],[12.289816712793595,44.348831594971244],[12.289596547294963,44.348773732474314],[12.28943471624433,44.34878180631472],[12.289395199358893,44.34884236008074],[12.289402726385646,44.348913678880564],[12.289194839674536,44.34920226446954],[12.289182603283905,44.34963344253413],[12.288822495616927,44.35018272164953],[12.288827326998245,44.35054358948426],[12.288688077024972,44.35070237000937],[12.288222754266627,44.350986927364204],[12.288011399644802,44.35128548029206],[12.287926720607544,44.35152768463473],[12.287968122117718,44.351948559615494],[12.28774965976558,44.35222676517162],[12.287733499480623,44.3526127286498],[12.287406940917037,44.35292325238271],[12.287076519046167,44.353757496523684],[12.287012976569969,44.353836641709705],[12.286683036701874,44.35427489874692],[12.286620397439265,44.354743636245246],[12.286423443893028,44.355351167349426],[12.286053226055998,44.35590999580714],[12.28540627001874,44.35609166749336],[12.284346982158155,44.35619461848589],[12.283053643265845,44.35619183553385],[12.275420656138124,44.355583948686615],[12.273273877770407,44.355466251777216],[12.272213734791649,44.355241121629405],[12.271425569279558,44.35516091773209]],"type":"LineString"}},{"type":"Feature","properties":{},"geometry":{"coordinates":[[12.265486198265734,44.35823258658871],[12.265454282814034,44.358306628368894],[12.267200944880443,44.358737977396174],[12.267350037538392,44.3588367991905],[12.267996392554181,44.35940699068283],[12.268133712436025,44.35955612368028],[12.26823048717597,44.35974034528169],[12.2684077862626,44.35998641312409],[12.268505126938322,44.360084591419024],[12.26842903525423,44.36015829799146],[12.268207228694877,44.36087031216408],[12.268078347847563,44.36121582265443],[12.267864662740323,44.36158984463523],[12.267441469176646,44.362337938535006],[12.266999183772498,44.36294888357432],[12.265401802929631,44.36598882850677],[12.265133497601909,44.366691196061765],[12.265001326974158,44.36727471582461],[12.264662048700018,44.368098841604024],[12.264377534058866,44.3684684121626],[12.26400257776362,44.369167122136645],[12.263593974392762,44.36969018549419],[12.263182381668372,44.37047497864259],[12.26240824484833,44.37218994115469],[12.2626621490881,44.3723702027053],[12.262933684458943,44.372665127352434],[12.263246006674166,44.372901476075356],[12.263641865192426,44.37320169207072],[12.263968235949534,44.37359919667156],[12.264262603767492,44.37384099633658],[12.264486364317975,44.37403057919073],[12.265346844035832,44.37442549840392],[12.26589431345542,44.37486658477803],[12.266554757601483,44.37573732699997],[12.266789942947327,44.375937449479636],[12.267200374697182,44.37602222986055],[12.267795804263045,44.37595285424507],[12.268055254763794,44.37598887620919],[12.268165381235548,44.37605691763696],[12.268245642901292,44.37620233924673],[12.268733772571608,44.37641107802864],[12.2690184076462,44.376679109391034],[12.26921268237976,44.376775987894746],[12.269483763402832,44.376801822135576],[12.27045202822191,44.376656771185395],[12.271323303100274,44.3743759132289],[12.271906613314115,44.37309166842408],[12.272979776288281,44.370247732428595],[12.273795153235909,44.36813997123613],[12.274418304203834,44.36649777137379],[12.275204009182659,44.364797083187625],[12.276449873826238,44.36208663377343],[12.276371695844034,44.362013180653264],[12.2764014152566,44.36180070537375],[12.276479766433738,44.361551528836486],[12.276471661140363,44.361379615724616],[12.275628710539905,44.361228949885486],[12.27431143083436,44.360996408310314],[12.274087184360553,44.36099447668644],[12.273488927655393,44.36079067115702],[12.272227203519861,44.36086214143265],[12.271169344535963,44.36063500406732],[12.270304779817309,44.36086873148312],[12.26949124285531,44.36079146657477],[12.268986012847677,44.36056546540169],[12.268307882590221,44.3605474050824]],"type":"LineString"}}]}