{"type":"FeatureCollection","features":[{"type":"Feature","properties":{},"geometry":{"coordinates":[[12.344619715952518,44.27921120446234],[12.344623484634127,44.27928810232632],[12.34455941705616,44.27953498426291],[12.344266599939544,44.28034175814673],[12.344055798478934,44.28062383185909],[12.343849875294552,44.28081707793419],[12.343575384012354,44.28143489708049],[12.343385828302672,44.281713361053875],[12.343338894748598,44.28241197481836],[12.343161983196751,44.28316302297816],[12.343059237000858,44.2833342747783],[12.343084908847516,44.28345161347508],[12.343294233134628,44.28366649819199],[12.3434561632439,44.28380786928727],[12.343497491624731,44.283877302898446],[12.343477757169126,44.2841814628471],[12.343453379173638,44.2842877676419],[12.343143967138417,44.28556487328365],[12.343126887308415,44.285639335719225],[12.343037357277609,44.286194360249766],[12.34301126465266,44.2863566311658],[12.342950925458211,44.286607624864814],[12.34283187988126,44.287122564011526],[12.342727882762517,44.287602752260966],[12.342667886783119,44.2879104435637],[12.342643424948108,44.28811940495817],[12.342530572445497,44.28856659460726],[12.342382897977558,44.288867193007945],[12.342330712728966,44.28896291687232],[12.342296466158189,44.289076150998255],[12.342245466594562,44.2892508113097],[12.34215414278529,44.289705798440195],[12.342088127338343,44.29015716678771],[12.342025631996393,44.290378772525884],[12.341895379519912,44.290887922427714],[12.34181020660725,44.29131944752223],[12.341779221616349,44.2914980466619],[12.341736134848503,44.29162209326145],[12.341675692589149,44.29190830586441],[12.3416495999642,44.29217094883663],[12.3417038513536,44.29243042905148],[12.341692435830424,44.292541321908686],[12.34167246615516,44.292758509231106],[12.341714866669292,44.29296044967563],[12.341802929278572,44.293102858126076],[12.342006844504255,44.29341951972435],[12.342031306340516,44.29351640344228],[12.341988709799466,44.29362280248074],[12.341850092730255,44.29382123815276],[12.34169376348973,44.29395787659797],[12.341460560655293,44.29413646771411],[12.341372498047292,44.29427186976707],[12.341368176648842,44.29437540028297],[12.341462762412789,44.294553990129316],[12.34160627184923,44.294761760640085],[12.341638183694215,44.294872723990636],[12.341670799475025,44.29518087607016],[12.341656122668041,44.29534560641858],[12.34157974418585,44.29560361207868],[12.341486789210535,44.295817215010686],[12.341404274891005,44.29620410021653],[12.34133180622976,44.29633694967674],[12.341113280498377,44.29661941543483],[12.341085636947355,44.296714094087406],[12.340894241563575,44.29725182471691],[12.340856733415478,44.29747475920675],[12.340906088363084,44.297676490406076],[12.340896304143058,44.29785217620747],[12.34074822363803,44.29829040237104],[12.340712309472082,44.298551969177595],[12.340563907669576,44.2988601019496],[12.340270971733986,44.29923450106324],[12.34023276139638,44.29930888544902]],"type":"LineString"},"id":0},{"type":"Feature","properties":{},"geometry":{"coordinates":[[12.343386846605313,44.2817105812193],[12.343245031495542,44.28170906588093],[12.343225981704961,44.281700731520544],[12.342992092605158,44.28176286036188],[12.342912718476043,44.281809078115515],[12.342714812315165,44.28187878351173],[12.342650254690767,44.28191590917817],[12.342466266792144,44.28188109556939],[12.34221544454465,44.28191897890059],[12.34212654552067,44.2819318592276],[12.342079979365337,44.281921251899746],[12.34192228942942,44.2819288285628],[12.341851207707322,44.28191679484766],[12.34158239399082,44.28191831018009],[12.341274970505026,44.28193671558543],[12.341150088542065,44.28192913892343],[12.341033673153305,44.28193292725484],[12.340934020173222,44.28189337761194]],"type":"LineString"}},{"type":"Feature","properties":{},"geometry":{"coordinates":[[12.344493002903562,44.27971840771974],[12.344410873236086,44.279691983464005],[12.344349691621062,44.27970793324161],[12.344223638900502,44.279700780142804],[12.343728255230047,44.279623026771276],[12.343338076502732,44.27960411945597],[12.343098681410567,44.27964545448816],[12.342808811225268,44.27966429411012],[12.342819061834547,44.27952110160871],[12.34292125669154,44.27932035156638],[12.343039198543806,44.27912938053316],[12.343044909700438,44.27905169165672]],"type":"LineString"}},{"type":"Feature","properties":{},"geometry":{"coordinates":[[12.34382014889377,44.2808839632564],[12.3436933314143,44.28084851709528],[12.343577805901504,44.28083856729171],[12.343483127098267,44.28082053326901],[12.34324773301006,44.280803742966725],[12.343083198528461,44.280771905159696],[12.342681728326312,44.28074033285117]],"type":"LineString"}},{"type":"Feature","properties":{},"geometry":{"coordinates":[[12.34280873593545,44.27966441806595],[12.342779869604016,44.27998332120981],[12.342723838976127,44.28037325908247],[12.342721439770031,44.28060742787699],[12.342681725017684,44.28074054585343],[12.342522040279334,44.28105356786733],[12.342342232612253,44.28147912891012],[12.34223197808393,44.28183272358095],[12.34220388430984,44.28198607421666],[12.342348998534987,44.28238621598777],[12.342333182627613,44.282774259166274],[12.342308575553233,44.282883871417226],[12.342265741014273,44.28299609327166],[12.342237886685638,44.28310413029152],[12.342216925103003,44.283203955182415],[12.342258255715564,44.28366647973334],[12.342199450150162,44.28403742825853],[12.342115603819593,44.28433037329205],[12.342046551856726,44.284545894045664],[12.34200666973237,44.28483947116152],[12.341985143134707,44.285165337666825],[12.341989700000113,44.28533235897851],[12.341884893471644,44.28553069633978],[12.34178622686548,44.28577479698768],[12.341665148821704,44.28613152930524],[12.34157744498458,44.28638850900458],[12.341564156745193,44.286504358546296],[12.341495803758164,44.286734659902976],[12.341377244423455,44.286938965243394],[12.341315729578753,44.28734926833914],[12.34123845460266,44.28758555139325],[12.34092267701351,44.287904118473534],[12.340788446124009,44.288215648765316],[12.340721984887182,44.288415667112616],[12.34071195978268,44.28860812238608],[12.340660198460995,44.28881734293128],[12.34057734912139,44.28909873197844],[12.340457959238279,44.28928727072096],[12.340375797139387,44.289356602833806],[12.340051106807607,44.289714511968526],[12.34004002564106,44.28995497916668],[12.340042759760593,44.29006588276576],[12.339767410676899,44.29046778288773],[12.33976408000791,44.29062432510969],[12.339776840029714,44.290929374975974],[12.33970316831423,44.29109683946669],[12.339657599657187,44.29132125158131],[12.339711806393836,44.29160374307085],[12.339756737490887,44.29214537666627],[12.33984587920395,44.29258096885633],[12.339936440819798,44.293125087945754],[12.339936441454483,44.29343216245525],[12.340202619239335,44.29379774233513],[12.340094011492084,44.294069982298055],[12.339930774639583,44.294251034299236],[12.339904171280239,44.29452781033592],[12.339994327847705,44.29476293406242],[12.340024486295135,44.29496970525466],[12.340067718890907,44.29514480221275],[12.340121231147947,44.29555668274472],[12.34008398471613,44.29576042649717],[12.339984866083313,44.29608646429932],[12.339914294557218,44.29622059547481],[12.33984470280609,44.29696184073913],[12.339730102311393,44.29735605820221],[12.3396777954203,44.29753299443527],[12.339660940563704,44.29789299489647],[12.33975221887178,44.29833572914262],[12.340000015454677,44.29846628969793],[12.340086605882306,44.298619624488],[12.340390288502988,44.2986649054194],[12.340566588913987,44.298855029512424]],"type":"LineString"}},{"type":"Feature","properties":{},"geometry":{"coordinates":[[12.345077199542288,44.27932164790204],[12.345031356619842,44.27940714451785],[12.34504607163197,44.2796008283332],[12.34506718274642,44.2796351236706],[12.345130570490852,44.27984217813608],[12.34513623011037,44.279928079187385],[12.344978942158832,44.28014964278128],[12.344887912287192,44.28024289927899],[12.344879988819258,44.28028341838203],[12.34476737567502,44.2803872264175],[12.344621002096744,44.28055117269466],[12.344504782695537,44.280714117849385],[12.344437683063177,44.280873521163215],[12.344426069821395,44.281145508886425],[12.344295898561398,44.28103124662093],[12.344142555635955,44.28078299456769],[12.34406142774128,44.280616182544435]],"type":"LineString"},"id":5},{"type":"Feature","properties":{},"geometry":{"coordinates":[[12.346215933232173,44.28187083634322],[12.345972277952285,44.2818344034651],[12.34586895577658,44.28184544373357],[12.34554511014963,44.28201215153527],[12.344905129507652,44.28208612107042],[12.34482802340625,44.28211151357604],[12.344593620857609,44.28188408465681],[12.344423987434567,44.28149105008029],[12.34442552420333,44.281145264618544]],"type":"LineString"}},{"type":"Feature","properties":{},"geometry":{"coordinates":[[12.344461745407216,44.28158151302219],[12.344415961514414,44.281693254312756],[12.34440347499887,44.2817919589431],[12.344340336360943,44.28193238569776],[12.34425449156251,44.282014701311],[12.34413691020302,44.282077275998404],[12.344463025856783,44.28225061386078],[12.344595979140934,44.28234360814514],[12.34471670683621,44.28214120863191],[12.34482788520981,44.28211140737071]],"type":"LineString"},"id":7},{"type":"Feature","properties":{},"geometry":{"coordinates":[[12.343194566482055,44.29575829262549],[12.342548889173713,44.29575263376867],[12.342071878591241,44.2958450616926],[12.341666024283285,44.295858265670546],[12.341486591686902,44.295818217021036]],"type":"LineString"}},{"type":"Feature","properties":{},"geometry":{"coordinates":[[12.33966012921178,44.29789221713102],[12.339802601226154,44.29801489947312],[12.339863819669091,44.29808102036952],[12.340029665997918,44.298134395014586],[12.340325740651792,44.298167853722845],[12.34074981750598,44.29829133212348]],"type":"LineString"}},{"type":"Feature","properties":{},"geometry":{"coordinates":[[12.344136726643967,44.28207888084083],[12.343983103112151,44.28214194672012],[12.343928314300342,44.28221501076342],[12.343888565554465,44.28248573148039],[12.344217298426798,44.28259032778698],[12.344350510440165,44.28265416220606],[12.34449124248735,44.28266262218452],[12.344518099747717,44.28255879509672],[12.3445309912332,44.282471887837886],[12.3445471055893,44.282428049614396],[12.344596411906878,44.282343226006304]],"type":"LineString"}},{"type":"Feature","properties":{},"geometry":{"coordinates":[[12.344529142726515,44.28248210515872],[12.344433578982802,44.28243867335169],[12.344211312748143,44.282409846913026],[12.344077630882168,44.28241176867587],[12.343907445216416,44.28235752587392]],"type":"LineString"}},{"type":"Feature","properties":{},"geometry":{"coordinates":[[12.344490529492191,44.282663449445835],[12.344425055958112,44.28289670992888],[12.344415812635418,44.28314485836256],[12.343985227862703,44.28308916291624],[12.343893564913827,44.28289119550732],[12.34384965913199,44.28281675076576],[12.34382655082635,44.28271032219385],[12.343881120209915,44.28257854773156],[12.343888541900554,44.28248628309149]],"type":"LineString"},"id":12},{"type":"Feature","properties":{},"geometry":{"coordinates":[[12.34224425523891,44.28310269230616],[12.342286511800552,44.283105019338024],[12.34258068247783,44.283187628913765],[12.342852099622263,44.28317948431254],[12.342895981437152,44.28318995594228],[12.343080214482995,44.283260389084575],[12.343164246508053,44.283258314662135],[12.343205393223712,44.28324918720142],[12.343275154051497,44.28325717793439],[12.343424150392707,44.28333056544628],[12.343791138004946,44.283382186642],[12.343945083835905,44.283437312304756],[12.34407161890553,44.28344615547212],[12.344137044012484,44.28346435517318],[12.344331565262536,44.28347880756897],[12.34456087406329,44.28353424798766],[12.344671535958014,44.28354120668723],[12.344636262853697,44.283408093581784],[12.344415476383915,44.28314466296723]],"type":"LineString"},"id":13},{"type":"Feature","properties":{},"geometry":{"coordinates":[[12.343985807324486,44.283089255687315],[12.34396008046869,44.28321590769636],[12.344004815489086,44.283378449471144],[12.343986990396331,44.28345193898164],[12.343886606425656,44.28353700109815],[12.343797995182456,44.2835671511784],[12.343754145331019,44.283618194737215],[12.343456530545694,44.2838088123105]],"type":"LineString"}},{"type":"Feature","properties":{},"geometry":{"coordinates":[[12.343059229118978,44.2833342078404],[12.342356294215904,44.284192653913664],[12.342114479089759,44.28433369826959]],"type":"LineString"}},{"type":"Feature","properties":{},"geometry":{"coordinates":[[12.339844279241902,44.292577537384375],[12.339885805658895,44.29259066222707],[12.340178108491102,44.292589504153426],[12.340709791144121,44.29250652085196],[12.341187080252553,44.29252239207739],[12.341451350669388,44.292513912467996],[12.34197569214382,44.29255881688795],[12.342848199376817,44.29270276542505],[12.343085691526795,44.292740508323135],[12.343437288085426,44.29279419316734],[12.343476246697406,44.292564312147704],[12.343469106535252,44.29227401748406],[12.343514803569946,44.291972477493516],[12.343682767977896,44.291556839933804],[12.34373654126523,44.29142413938868],[12.343756533717482,44.291216636152],[12.343806790002617,44.29105504535383],[12.343879619650608,44.2908966059924],[12.343921032588241,44.29071976671605],[12.344029518439214,44.29024453987046],[12.344042641866878,44.290032763721996],[12.3440491661475,44.289953824230764],[12.344229584756334,44.28926481998934],[12.344262384984034,44.28912707121148],[12.344272381210118,44.288832670651146],[12.344414023734714,44.28836939653178],[12.34448213212545,44.288042113832944],[12.344563529967616,44.287865265962466],[12.344661169091182,44.28729662939679],[12.344695181314336,44.28708665228686],[12.34478086325359,44.28684846589607],[12.344843789594819,44.28636168732214],[12.344952825873321,44.28613267744282],[12.345058500264855,44.28572274425136],[12.345141216088336,44.28550267601034],[12.345164064605683,44.285329909644986],[12.345145835688868,44.28520762119322],[12.345145835688868,44.285092102330424],[12.34517725240039,44.2849684048891],[12.345273779092366,44.2845389620619],[12.345498878306273,44.28388130554393],[12.345537893972903,44.283700473264474],[12.345610534109568,44.28334743085455],[12.34563075367231,44.283256553867574],[12.345716435611564,44.28292940935037],[12.34580190911214,44.282572228283385],[12.345855697349464,44.28233407550843],[12.345879973898775,44.28224104251089],[12.345969359152406,44.28183491503856]],"type":"LineString"},"id":16},{"type":"Feature","properties":{},"geometry":{"coordinates":[[12.33965779210456,44.288662311081794],[12.339732082655587,44.28865101632576],[12.340391089515805,44.28876017525397],[12.340524390257656,44.28879792786935],[12.34130493176582,44.28891362884252],[12.34159418979408,44.28898034224801],[12.342319474048026,44.28907399845258],[12.342610348968634,44.2890882901209],[12.342790487118549,44.28914005735186],[12.342982459160652,44.28914617529395],[12.343576943865088,44.28923494665574],[12.343759836402882,44.28927765836448],[12.343829524884,44.289279540803534],[12.344230021542302,44.2892630954737],[12.344270648978494,44.289274121095616],[12.344398341825467,44.28934390664514]],"type":"LineString"}},{"type":"Feature","properties":{},"geometry":{"coordinates":[[12.344671309895489,44.28354125989392],[12.344867733258894,44.28365829630823],[12.344964824272381,44.2837491477612],[12.344792231519989,44.28400600517702],[12.3446678215806,44.28447822025473],[12.344631081121577,44.28465763270222],[12.344624312174858,44.285131434299814],[12.34451517538588,44.28535074828241],[12.344344776103611,44.285530098497645],[12.344307865449252,44.2856779030667],[12.34431709319702,44.285815412306164],[12.344287103290526,44.28605404515494],[12.344248496299201,44.28616954807279],[12.344225427140486,44.28631817674713],[12.344098473749597,44.28673448665856],[12.344004160474384,44.2871516543469],[12.343961482530887,44.28737954768263],[12.343887642785205,44.288019824908986],[12.343909558561876,44.288252671034],[12.343693387095584,44.28866869263581],[12.343681852516227,44.288818140665114],[12.34356078914064,44.2889723078311],[12.3435743222918,44.28923477014564],[12.343363370714656,44.28976953310743],[12.343350265413477,44.29003810786938],[12.343438285505187,44.290308261228205],[12.343486369616386,44.290499346425975],[12.343410301416554,44.29095112336407],[12.343402270848117,44.291145578244056],[12.343328128986144,44.291273008917585],[12.343257947613068,44.29163217662611],[12.343279678575868,44.291991487681884],[12.343206966601514,44.29218464532843],[12.343160540562678,44.29222796455622],[12.343092105459732,44.2924974841269],[12.343112831665735,44.29261588525725],[12.343075152198509,44.292739045945495]],"type":"LineString"},"id":18},{"type":"Feature","properties":{},"geometry":{"coordinates":[[12.344660400893531,44.287300291577594],[12.344634845305052,44.28727628082376],[12.344360764013288,44.28735370333297],[12.344131841606355,44.28740012128543],[12.34396205743812,44.28737544237063],[12.343784942652917,44.28741019113616],[12.343369328595742,44.28747368794458],[12.343090992482672,44.28763677701403],[12.342728888466382,44.28759794262996]],"type":"LineString"}}]}