{"type":"FeatureCollection","features":[{"type":"Feature","properties":{},"geometry":{"coordinates":[[12.226052347550336,44.51438394222296],[12.217923816667508,44.51676018516886],[12.217753789904549,44.516809335202026],[12.217376973833893,44.516825718537206],[12.21726668620343,44.51696989168806],[12.214577351118862,44.517297213889776],[12.213768575161907,44.51731032044867],[12.213593953081187,44.5174675989241],[12.213309140242075,44.51863640871866],[12.21333611264319,44.51870852839983],[12.213703611605297,44.518989794301916],[12.214037395066327,44.51911480093335],[12.214226201871384,44.519153264458765],[12.21441500867769,44.51923259539859],[12.21463753098513,44.51937202527429],[12.21502708460261,44.51950369092049],[12.215617105872042,44.519655139892706],[12.215868561339022,44.51981306276841],[12.216183857118978,44.52023953316882],[12.216305232923219,44.52048473297265],[12.216411125047586,44.52095467252386],[12.216515643100024,44.52119265766217],[12.216431354347407,44.521365737152365],[12.21629986389388,44.52152679677124]],"type":"LineString"},"id":0},{"type":"Feature","properties":{},"geometry":{"coordinates":[[12.217375414987771,44.51682634970484],[12.217352912107344,44.51676445966467],[12.216191540899672,44.515598417249635],[12.215654547332662,44.51500578605976],[12.214731667550865,44.51386003474616],[12.214434824160236,44.51347872123122],[12.213959995564267,44.51292639700969],[12.213814731777035,44.51278828152908],[12.213606309821671,44.51255408496564],[12.213605428960392,44.51244297912075],[12.213517260366444,44.51233866722481],[12.213445122425355,44.51197571752934],[12.213176608977847,44.51167278140767],[12.213163145593313,44.51155054860334],[12.213225264376774,44.51139050590683],[12.213165149426118,44.51131334230729],[12.213197210731892,44.51126189985041],[12.213301409980318,44.5111947387972],[12.213335475210272,44.51108382576314],[12.213377555676885,44.51088662865621],[12.213455705113205,44.51079803263747],[12.21350980856863,44.51065942246643],[12.213537862179749,44.510458846316425],[12.213603988625636,44.51028451080663],[12.213571927318299,44.51020734574274],[12.213567919655844,44.51007302112791],[12.213591965635175,44.51002443555302],[12.21358395024231,44.5099713045972],[12.213614007718462,44.50995129874184],[12.213666107341083,44.50994844076209],[12.213712195470066,44.50991986095585],[12.21369215715319,44.50985412734809],[12.213708187807669,44.50982126051696],[12.213808379392049,44.50976124277628],[12.213750268272634,44.50971694392862],[12.213788341075173,44.5096855060157],[12.213800364065577,44.509665500062766],[12.21394864761021,44.50962263014006],[12.214068877511522,44.50960691116023],[12.21416906909593,44.50961405615146],[12.214433990745192,44.50956214909607],[12.21461834325956,44.50948498307588],[12.21469248503189,44.50947640906705],[12.214810711101961,44.50950927609318],[12.214862810726146,44.50950784709278],[12.214993059786678,44.50947069306088],[12.21503914791569,44.50947640906705],[12.215187431460265,44.509577868087945],[12.215247915351028,44.509588792002376],[12.21541042002346,44.50951415082341],[12.215719010103157,44.50940554667622],[12.215907370281514,44.509332667463525],[12.215967485233733,44.509282652265],[12.216103745787905,44.50924549808954],[12.216201933541129,44.50923549503844],[12.21635422474975,44.50918119273024],[12.216382131254022,44.50913774821609],[12.216374115925959,44.50910202295924],[12.216528410967385,44.509050578550614],[12.216620587223815,44.50904914953895],[12.216849024037572,44.50907487174956],[12.216947207940166,44.50900519712826],[12.217149594940253,44.50894517854783],[12.21720970989091,44.50890230809529],[12.217308351501401,44.50876079629691],[12.217470661867708,44.50859788789381],[12.217580872611364,44.508573594496596],[12.217703106343833,44.50857502352051],[12.218113722143414,44.508660766806116],[12.21823395204467,44.5086421895231],[12.218404932328582,44.50870649717908],[12.21852716606108,44.508739364639354],[12.218707510912992,44.50874508071726],[12.21877363735888,44.50876651600532],[12.219129608629743,44.50875794261418],[12.219428179551755,44.50873650732302],[12.219728754305066,44.50877223280395],[12.219858667993975,44.50874222464651],[12.219922790608592,44.50876508895428],[12.220016970697799,44.50876651797347],[12.220083097143686,44.508722218369286],[12.220161246580005,44.50870078306497],[12.22027746881733,44.508713644248246],[12.220363633580035,44.508735079548416],[12.220435771521153,44.508775092086125],[12.220497890303022,44.50878652423495],[12.220690149019703,44.50868707995909],[12.220836428733122,44.508592764504044],[12.220884520693318,44.50854417769466],[12.2211148041267,44.5085241363183],[12.221210988047119,44.50850270094108],[12.221349252434095,44.50825833708399],[12.221471820724503,44.508197886335296],[12.22179042996342,44.50815072823107],[12.221715474477833,44.50798983390246]],"type":"LineString"},"id":1},{"type":"Feature","properties":{},"geometry":{"coordinates":[[12.22179000011397,44.50815107173466],[12.22197076932099,44.50813890987584],[12.222356731652553,44.50803561885732],[12.22249383331129,44.5082956354409],[12.222857744059354,44.50869992409537],[12.22306268557071,44.50907600580743],[12.223252606287303,44.5093360342602],[12.223309834885242,44.50951989349656],[12.22342390822601,44.50972727725784],[12.223594214904608,44.509888829842396],[12.223629481539348,44.510087014516756],[12.223789649498997,44.51033890410483],[12.223921799836091,44.51049455205546],[12.224104227029926,44.51082254487403],[12.224249643994426,44.511134948323274],[12.224470349302209,44.511432089252935],[12.224704381203026,44.511844370499205],[12.224834297372496,44.51213938465784],[12.225026377300026,44.512441346044795],[12.225235627456328,44.51272733555521],[12.225384746839751,44.512996812962285],[12.225503640180989,44.51315491939249],[12.225595220188325,44.51323168105523],[12.225586184224,44.51333355263486],[12.225770967193597,44.513651899647755],[12.2259182981864,44.51394725902742],[12.226006664858517,44.51416150110029],[12.226051403059813,44.51438424396753]],"type":"LineString"}}]}