{"type":"FeatureCollection","features":[{"type":"Feature","properties":{},"geometry":{"coordinates":[[12.316972297425451,44.251153869583646],[12.319409481298237,44.24985195834401],[12.32072308209726,44.24935485735935],[12.3218561839968,44.24915489327239],[12.323244139558312,44.24901878109267],[12.324508170515458,44.24901878109267],[12.326721344310698,44.248879554405704],[12.330240184226625,44.24831332490416],[12.331537261745012,44.24865064986079],[12.332337586989269,44.24935198385242],[12.332601969454942,44.250081884791086],[12.333948616814439,44.253502285708436],[12.334737994325792,44.25556646382208],[12.335348762504225,44.25646257237523],[12.335910554041078,44.256841270591565]],"type":"LineString"}},{"type":"Feature","properties":{},"geometry":{"coordinates":[[12.330096593525866,44.248334880834136],[12.330337160215464,44.248084571325364],[12.330056206418845,44.2477072182937],[12.328249298159307,44.24673237949395],[12.328077870567114,44.246554025769456],[12.328012564818067,44.24641368147459],[12.328044140783817,44.246225311767745],[12.328174753347753,44.245813241012655],[12.328511320446722,44.24508115360831],[12.329101660774626,44.24374444947665],[12.329140445092463,44.2435731353963],[12.329134322678328,44.24330705223673],[12.329052690491778,44.24310968208303],[12.328928935824422,44.24294831330005],[12.328643223171554,44.24274363187985],[12.326681432970076,44.241629259278426],[12.32577963244816,44.24114889605593],[12.322467212100463,44.23958946820949]],"type":"LineString"}}]}