{"type":"FeatureCollection","features":[{"type":"Feature","properties":{},"geometry":{"coordinates":[[12.183241638368429,44.69298652623743],[12.183189484943739,44.69303208841123],[12.183027369479078,44.69312991295831],[12.182936258074847,44.69317100815181],[12.182766862013835,44.69317718607769],[12.18226388129358,44.69335388381188],[12.18221024324157,44.69340456772329],[12.182087517510439,44.69344374077369],[12.182096818648603,44.69341178280112],[12.181978487504239,44.693247951996455],[12.181915426502911,44.69318410037852],[12.181484726944603,44.69258767452544],[12.181356919481942,44.692476891570294],[12.180942873767549,44.692362244347265],[12.180825376594129,44.69231679529969],[12.180709607318477,44.6922553776117],[12.18041759228268,44.6919458314722],[12.18028307573283,44.69202023806932],[12.18043375519622,44.69217448727093],[12.180444604117895,44.6922670365951],[12.180591667274996,44.69235358721755],[12.18056710167832,44.692373462383955],[12.180542992964092,44.69236489302409],[12.180509240764565,44.692529424512315],[12.180527322299753,44.69265967827505],[12.180639511804799,44.69302265920044],[12.180698101657214,44.69321234045367],[12.18080131375973,44.69339178185308],[12.181307272170244,44.693208402863604],[12.181382437505476,44.693158159168746],[12.181657295821424,44.69305767164826],[12.181858504201386,44.693361816558564],[12.181947709071494,44.69350023911255],[12.182134160903416,44.69385345339023],[12.18227177773366,44.69410471724916],[12.182427602039354,44.69430872713127],[12.18251162073497,44.694406554633446],[12.18290772606187,44.69478116451424],[12.18307552095348,44.69469949650332],[12.183165925121386,44.69471259318448],[12.183068237206072,44.69481066591186],[12.183108940504383,44.694867316542144],[12.183183320418152,44.69490087652267],[12.183240788531805,44.695030844320144],[12.183315078742908,44.695285905248824],[12.183417886206087,44.69561695558522],[12.183446918551198,44.6956860401954],[12.183527217794932,44.695754187775236],[12.183787780646156,44.69588873532598],[12.184159896690488,44.696024553357546],[12.184209878872991,44.69601756389832],[12.184474003788864,44.695834916663244],[12.184942382032744,44.69546035012459],[12.18500483246467,44.695420581189296],[12.18500223036395,44.69539283540436],[12.184767289718081,44.69516329796636],[12.184698909615918,44.69507376906651],[12.184476555135944,44.69483233168657],[12.184205095242902,44.69458949155646],[12.183668782747333,44.69421624416654],[12.183401046480412,44.69401026348922],[12.183464793263795,44.69379074838119],[12.183414954910944,44.693633378053676],[12.18325974946191,44.69343838761074],[12.18293985677883,44.69317143292622]],"type":"LineString"}}]}