{"type":"FeatureCollection","features":[{"type":"Feature","properties":{},"geometry":{"coordinates":[[12.303609695407744,44.854844662878946],[12.304587669053404,44.85460168986805],[12.304884717124281,44.85456605373969],[12.30527773457058,44.8546794413426],[12.304793291860818,44.85469922633749],[12.304593298878046,44.85474175869217],[12.304593298878046,44.854775784553055],[12.305711259653776,44.854758771625114],[12.30643123439171,44.85470347957448],[12.307195255148741,44.854639681759295],[12.307567242098628,44.85456312336228],[12.308504384259379,44.85435954319692],[12.309828337805925,44.854104346903426],[12.311680080959547,44.8538538404253],[12.312376098339342,44.85377497715547],[12.312503181509669,44.85375927958111],[12.313096236303892,44.85372515440477],[12.313796906138862,44.853689964844534],[12.314453777132798,44.85365945116553],[12.314895679974939,44.85364238855004],[12.315295084240745,44.853625940146856],[12.316077219157137,44.85360807521204],[12.316555318633192,44.853657755108856],[12.31711604340353,44.8537588227712],[12.317420719663744,44.85378953492577],[12.317715321557955,44.85378885242295],[12.318094016078959,44.85374080597617],[12.318485554161754,44.85368594861933],[12.319129891425462,44.853589803200606],[12.319622469406596,44.85350104482703],[12.320092498894354,44.8534099863634],[12.320733151694498,44.85328116940187],[12.321280333882925,44.85316974503377],[12.321899969790081,44.85304328289379],[12.322500521774003,44.852922082093045],[12.3230211301466,44.85281449596806],[12.32342458765848,44.85272978309712],[12.323964356608968,44.852622315252745],[12.32457624389636,44.85249777596795],[12.325137306080563,44.852383529715354],[12.325654744075166,44.85227862678033],[12.326160208404758,44.852176280370855],[12.326382603952027,44.85211690091893],[12.326934417335366,44.85196799508205],[12.32714591461712,44.85191153868243],[12.32741548497927,44.85182349286126],[12.327672538513667,44.85175387529634],[12.32793996949195,44.851666329476814],[12.328282843414883,44.851569990780774],[12.328567633095503,44.85147453068765],[12.328826613192206,44.85139399204422],[12.329016267453227,44.85133004656228],[12.329361895166585,44.851179206767284],[12.329648710412414,44.85105461061326],[12.329978618900299,44.850913495354774],[12.330450586920307,44.85070780399943],[12.330898434485334,44.850667689693324],[12.331209403151433,44.850656086512856],[12.33151364901633,44.850603484328786],[12.332069818202996,44.85030564222211],[12.332364800174332,44.850117776150654],[12.33267087009196,44.849918562451364],[12.333135245468128,44.849621266697426],[12.333577071796583,44.84933501426252],[12.33386994487779,44.849131317452986],[12.334390732919559,44.84876866677325],[12.335018633628124,44.848337179484105],[12.335414496281686,44.84806298446128],[12.336001498546523,44.84765599713205],[12.33657906417784,44.84725931007412],[12.337168174667852,44.84685858382551],[12.337595808239314,44.8465630529316],[12.338329400880411,44.84605960745651],[12.33863765871871,44.845775484680274],[12.338848294860583,44.84557798440301],[12.339193692875028,44.84505460305954],[12.339310352207036,44.844876628194015],[12.339509972306416,44.84435340694097],[12.33966587166978,44.84395473698689],[12.339796832668867,44.84361329137519],[12.339956466817881,44.84319371485017],[12.340019334409135,44.843030220724046],[12.3401427378584,44.842673585547715],[12.340272044755835,44.842286000695395],[12.34039292646736,44.84192873990813],[12.34042952757818,44.84182054066687],[12.340536106527367,44.84141366678173],[12.340663980945209,44.84092917591951],[12.34077275841102,44.84051164967303],[12.3408668428508,44.840184719795474],[12.340985388069925,44.83977035580807],[12.341106835084105,44.83933963260125],[12.341200954726617,44.83901699698754],[12.341280524867358,44.8387399194979],[12.341409283314107,44.838298774837654],[12.341516236343978,44.83794821113017],[12.341619698991224,44.83760662113417],[12.341716093310254,44.83729746648365],[12.341815624507035,44.83699078530748],[12.341918142452528,44.83667419500486],[12.342042890607587,44.8362655695218],[12.34215922966601,44.836056003268254],[12.342550169375187,44.83567631940494],[12.342887384492087,44.83533966859562],[12.342944455580437,44.83522838835688],[12.343144568379074,44.834874733881236],[12.343412765975614,44.83432307237524],[12.34358603430178,44.83395444677254],[12.34380359088604,44.833484204676836],[12.343947091722583,44.83316070280185],[12.344052345976081,44.83276407910549],[12.3441490688964,44.83236227005324],[12.344253437827575,44.83196004053653],[12.3443423076653,44.8315605590746],[12.344474808762527,44.8310034659188],[12.344599993428915,44.830459545454346],[12.34466613988431,44.83016638675943],[12.344980517006434,44.82950839200552],[12.34521653414916,44.829022257344064],[12.345398889709799,44.82865602877126],[12.345606771102979,44.82828057014146],[12.345830920603788,44.82787690770752],[12.345922153786034,44.827697329530935],[12.346071551261133,44.82738244185302],[12.34625649246982,44.826992194266666],[12.346385260349422,44.82670901508445],[12.346425717431345,44.826613961344066],[12.346661386688396,44.82640129642607],[12.347294104290484,44.82595572819619],[12.34746113244509,44.82581766775468],[12.347630059188646,44.825666887420226],[12.34773170155239,44.82555367499086],[12.347788466614844,44.82548613132832],[12.347982446053692,44.825174414874],[12.348162669446424,44.824910396101075],[12.348356442731813,44.82459555932644],[12.348532253219446,44.824321173103016],[12.34872860529373,44.82401880379123],[12.348980831913252,44.82362387855949],[12.3491918770234,44.823298969354965],[12.349457783151678,44.822794474244546],[12.349712136051096,44.82215765488499],[12.349897268975951,44.82169432066087],[12.350095180182421,44.8212135701589],[12.350316591389031,44.820682629193925],[12.35050593148432,44.820235391480594],[12.350728965735868,44.81970208634121],[12.350879140655138,44.819346822898154],[12.350876131116792,44.819275661681445],[12.350841720592626,44.81926217274838],[12.350806965110138,44.819239361393954],[12.350572053339022,44.81920644663336],[12.350519850723117,44.81916941750583],[12.350486499051868,44.81905935856861],[12.35064310689964,44.819045986907696],[12.350753312421887,44.818943127874405],[12.350717060604865,44.81880015351314],[12.350895020995495,44.81868044496787],[12.350904797433657,44.81864750452414],[12.350919462091838,44.81809791644508],[12.351195646480846,44.81768182103946],[12.351359401826187,44.81767661982775],[12.35136331939708,44.81740382971407],[12.351619490767064,44.81682660853335],[12.352583900629952,44.81565878690114],[12.353985255980206,44.814285425759294],[12.355006886575865,44.81335615019134],[12.356012735925646,44.81253836108141],[12.356382971955355,44.81224993134768],[12.35665044500368,44.81209225093312],[12.356898168754867,44.81203035882197],[12.357475176732947,44.81194309579914],[12.358470265615779,44.81180735701105],[12.359232042126393,44.81168476937896],[12.359701699783699,44.81157212004939],[12.360235908589857,44.811379683273174],[12.360457318628448,44.81127496644885],[12.360799497778288,44.81110837110799],[12.361738227705615,44.810589958066146],[12.362798124472079,44.810013898972755],[12.363675605930979,44.80951387638373],[12.364503064864664,44.809023687944034],[12.365338007408383,44.80851561983553],[12.366064413618204,44.808058963701626],[12.366778910596935,44.80760857381509],[12.367550512598513,44.80712682079704],[12.368235766018984,44.80669276708167],[12.368589164089798,44.80646384253433],[12.369148280347503,44.806030657517624],[12.369734743044035,44.80555997756022],[12.370419367254271,44.805021915103225],[12.37092500843599,44.80458942143545],[12.370958555411477,44.8045529249346],[12.371224694750623,44.80440852550694],[12.371300734561373,44.80430379602555],[12.371443868323837,44.80418002457529],[12.371920121330362,44.80382576265205],[12.372222044110345,44.80357980426666],[12.372761043216656,44.80313273202319],[12.37300705437005,44.80293913673381],[12.373347576957912,44.8026690617298],[12.373497420114774,44.80258178454386],[12.373649499736985,44.802440553908355],[12.373768032383822,44.80232312592622],[12.373895510891288,44.802208871443185],[12.373977147657342,44.802126979229115],[12.374185138905375,44.80200320310857],[12.374370765503102,44.801858797299474],[12.374498244009743,44.80175247630714],[12.374941284990228,44.801384155286655],[12.375595066534913,44.800837270923466],[12.3762703491212,44.8002691101762],[12.376677749371964,44.79995984001775],[12.376782863228215,44.799763060207624],[12.376937179315888,44.799580562203545],[12.377046141526534,44.799377937538736],[12.377122181338166,44.799114503693886]],"type":"LineString"}},{"type":"Feature","properties":{"name":"10571791-RB | Ferrara - RBC - Mesola"},"geometry":{"type":"LineString","coordinates":[[12.26908,44.79988],[12.26891,44.80005],[12.26666,44.80297],[12.26658,44.80314],[12.26622,44.80324],[12.26475,44.80348],[12.26457,44.80349],[12.26429,44.80346],[12.26168,44.80294],[12.26143,44.80292],[12.26089,44.80333],[12.25902,44.80449],[12.25867,44.80467],[12.25833,44.8048],[12.25803,44.80488],[12.25747,44.80496],[12.25672,44.805],[12.25596,44.80499],[12.2553,44.80492],[12.25479,44.80491],[12.25213,44.80507],[12.25072,44.80524],[12.24974,44.80541],[12.24923,44.80547],[12.24564,44.80579],[12.24529,44.80587],[12.24413,44.80628],[12.24365,44.80648],[12.24151,44.80725],[12.24105,44.80738],[12.24031,44.80746],[12.23983,44.80746],[12.23917,44.80742],[12.23828,44.80726],[12.23751,44.807],[12.23641,44.80653],[12.23614,44.80639],[12.23584,44.80618],[12.23497,44.80513],[12.23447,44.80458],[12.23349,44.80361],[12.23278,44.80306],[12.23212,44.80264],[12.23154,44.80235],[12.23107,44.80219],[12.2304,44.80202],[12.22943,44.80183],[12.22903,44.80179],[12.22854,44.80176],[12.22787,44.80177],[12.22734,44.80184],[12.2266,44.80202],[12.22503,44.80258],[12.22451,44.80283],[12.22328,44.80359],[12.22279,44.80394],[12.22126,44.80547],[12.22095,44.80584],[12.21978,44.8074],[12.21929,44.80797],[12.21877,44.80847],[12.21764,44.80944],[12.21713,44.80974],[12.21391,44.81072],[12.21316,44.81097],[12.21267,44.81117],[12.21155,44.81171],[12.21121,44.81184],[12.2107,44.81195],[12.21018,44.81199],[12.20609,44.81193],[12.19529,44.81308],[12.19478,44.81315],[12.1945,44.81322],[12.19433,44.81328],[12.19404,44.81344],[12.19146,44.81512],[12.19128,44.8153],[12.18928,44.8181],[12.1872,44.81996],[12.18683,44.82027],[12.18609,44.82081],[12.18581,44.82098],[12.185,44.82138],[12.18473,44.8215],[12.18393,44.82179],[12.18302,44.82205],[12.17999,44.82279],[12.18016,44.82384],[12.18011,44.82394],[12.17996,44.82407],[12.17992,44.82414],[12.17983,44.82497],[12.17979,44.82508],[12.17808,44.82758],[12.17809,44.82762],[12.17822,44.82767],[12.17844,44.82785],[12.17845,44.82795],[12.17768,44.82832],[12.1771,44.82856],[12.17593,44.82891],[12.17604,44.82928],[12.17603,44.82947],[12.17588,44.83],[12.17599,44.83014],[12.17697,44.83026],[12.17738,44.83037],[12.17795,44.83032],[12.17809,44.83039],[12.17807,44.83058],[12.17835,44.83291],[12.17752,44.83306],[12.17548,44.83321],[12.17546,44.83257],[12.17533,44.83231],[12.17492,44.83213],[12.17451,44.8321],[12.17452,44.83226],[12.1742,44.83229],[12.17331,44.83211],[12.16838,44.83206],[12.16755,44.83416],[12.16686,44.83428],[12.16686,44.83448],[12.16559,44.83465],[12.15519,44.8351],[12.15334,44.83521],[12.15286,44.83534],[12.15251,44.83534],[12.15251,44.83556],[12.15281,44.83559],[12.15355,44.83896],[12.15373,44.83962],[12.15717,44.83927],[12.1599,44.83892],[12.16137,44.84472],[12.16459,44.8579],[12.16496,44.85923],[12.16546,44.85897],[12.16554,44.8589],[12.16573,44.85888],[12.16581,44.8588],[12.16599,44.85879],[12.16612,44.85888],[12.16605,44.85902],[12.16606,44.85916],[12.16624,44.85955],[12.16627,44.85988],[12.16637,44.86034],[12.16677,44.86169],[12.16714,44.86306],[12.16749,44.86394],[12.16777,44.86474],[12.16851,44.86766],[12.16868,44.86867],[12.16872,44.86935],[12.1688,44.8698],[12.16904,44.87062],[12.16939,44.87203],[12.16956,44.87262],[12.16999,44.87387],[12.17011,44.87413],[12.17019,44.87423],[12.17038,44.87437],[12.17068,44.87478],[12.17115,44.87647],[12.17134,44.87644],[12.17137,44.87647],[12.17143,44.8768],[12.17207,44.87891],[12.17246,44.88001],[12.17258,44.88029],[12.17273,44.88075],[12.17421,44.88437],[12.17463,44.88512],[12.17494,44.88555],[12.17527,44.88623],[12.17577,44.88713],[12.1758,44.88727],[12.17576,44.8874],[12.17562,44.88762],[12.17503,44.88826],[12.17498,44.88838],[12.17499,44.88852],[12.17507,44.88874],[12.17746,44.89376],[12.17766,44.89429],[12.17795,44.89524],[12.17838,44.89633],[12.17881,44.89722],[12.1789,44.89747],[12.17962,44.89887],[12.17995,44.89946],[12.18012,44.89987],[12.1805,44.90056],[12.18112,44.90159],[12.1812,44.90179],[12.18223,44.90363],[12.18226,44.90377],[12.18224,44.90386],[12.18184,44.90425],[12.1818,44.90433],[12.1818,44.90441],[12.18188,44.90458],[12.18394,44.90833],[12.18514,44.91021],[12.18623,44.91179],[12.18641,44.91209],[12.1877,44.91394],[12.18848,44.91572],[12.18982,44.91815],[12.18864,44.91884],[12.1881,44.91919],[12.18804,44.91925],[12.18787,44.91934],[12.18785,44.91939],[12.18789,44.91953],[12.18772,44.91995],[12.18751,44.92064],[12.18744,44.92101],[12.18768,44.92177],[12.18779,44.92225],[12.18783,44.92259],[12.18778,44.92286],[12.18751,44.92323],[12.18706,44.92419],[12.18736,44.92442],[12.18792,44.92476],[12.18823,44.92501],[12.18843,44.92526],[12.18899,44.92513],[12.18963,44.92503],[12.19267,44.92474],[12.19402,44.9248],[12.19767,44.92481],[12.1987,44.92485],[12.20041,44.92498],[12.20302,44.9254],[12.20428,44.92556],[12.20547,44.92563],[12.20655,44.92565],[12.2081,44.92559],[12.21243,44.92497],[12.21272,44.92488],[12.21317,44.92465],[12.21344,44.92455],[12.21368,44.92451],[12.21397,44.92453],[12.21451,44.92465],[12.21538,44.92454],[12.2164,44.92433],[12.21685,44.9242],[12.21761,44.92381],[12.21906,44.92354],[12.22076,44.92312],[12.22388,44.92223],[12.22468,44.92191],[12.22514,44.92178],[12.2256,44.92181],[12.22631,44.92198],[12.22685,44.92214],[12.22738,44.92236],[12.22786,44.92261],[12.22804,44.92267],[12.22819,44.92264],[12.2285,44.92284],[12.22929,44.92326],[12.22944,44.92333],[12.22964,44.92335],[12.22977,44.92332],[12.22981,44.92316],[12.22995,44.92303],[12.23083,44.92287],[12.23093,44.92288],[12.23101,44.92317],[12.23384,44.92284],[12.23563,44.92267],[12.23595,44.92274],[12.2363,44.92277],[12.23661,44.92276],[12.23706,44.92266],[12.23774,44.92242],[12.24618,44.92143],[12.24391,44.91149],[12.2437,44.91045],[12.24361,44.91034],[12.24388,44.91005],[12.24405,44.90993],[12.24511,44.90955],[12.24569,44.9093],[12.24643,44.90905],[12.24673,44.90897],[12.24851,44.90869],[12.24919,44.90845],[12.25004,44.90827],[12.25105,44.90815],[12.25163,44.90814],[12.2532,44.90829],[12.25461,44.90822],[12.25479,44.90824],[12.25502,44.90834],[12.25516,44.90834],[12.25532,44.90831],[12.25575,44.90807],[12.25708,44.90787],[12.25753,44.90782],[12.25774,44.90782],[12.25827,44.90795],[12.25862,44.90796],[12.25892,44.90794],[12.26094,44.90764],[12.2612,44.90756],[12.26144,44.90742],[12.26164,44.90725],[12.26367,44.90506],[12.26405,44.90472],[12.26888,44.89953],[12.26905,44.89942],[12.26914,44.8993],[12.26939,44.89914],[12.27222,44.89801],[12.27339,44.89751],[12.27405,44.89717],[12.27436,44.89695],[12.27461,44.8967],[12.27691,44.89411],[12.277,44.8939],[12.27713,44.89332],[12.27732,44.89314],[12.27763,44.8931],[12.28129,44.89357],[12.28267,44.89371],[12.28288,44.89366],[12.28272,44.89231],[12.28255,44.89131],[12.28252,44.89096],[12.28253,44.89056],[12.28268,44.88895],[12.28312,44.88677],[12.2832,44.88612],[12.28328,44.88511],[12.28342,44.88407],[12.28349,44.88333],[12.28351,44.88287],[12.28348,44.88148],[12.28349,44.88006],[12.28356,44.87933],[12.28363,44.87805],[12.28397,44.87625],[12.28409,44.8759],[12.28448,44.87512],[12.28471,44.87396],[12.28508,44.87229],[12.28343,44.872],[12.28031,44.8714],[12.28014,44.87132],[12.28002,44.87133],[12.27997,44.87129],[12.27918,44.87119],[12.26913,44.86936],[12.27035,44.8492],[12.27045,44.84575],[12.27086,44.84579],[12.27124,44.84531],[12.27385,44.84335],[12.2774,44.84568],[12.28029,44.84352],[12.28115,44.84283],[12.28138,44.84256],[12.28151,44.84236],[12.28176,44.84209],[12.28205,44.84196],[12.28224,44.84174],[12.28294,44.84133],[12.28366,44.84078],[12.2851,44.83954],[12.28509,44.83918],[12.28472,44.83763],[12.28392,44.83684],[12.28327,44.8363],[12.28258,44.83586],[12.2818,44.83558],[12.27874,44.8336],[12.27754,44.83308],[12.27619,44.83234],[12.27572,44.832],[12.27469,44.83132],[12.27244,44.82967],[12.26952,44.82784],[12.26703,44.82617],[12.26516,44.82487],[12.26273,44.82121],[12.26187,44.82033],[12.26159,44.81976],[12.26117,44.81908],[12.26102,44.81874],[12.25902,44.81692],[12.25791,44.816],[12.25789,44.81585],[12.25796,44.81564],[12.25756,44.81545],[12.25687,44.81524],[12.25616,44.81494],[12.25111,44.81321],[12.25098,44.8132],[12.25071,44.81324],[12.25053,44.81331],[12.25012,44.81361],[12.24971,44.81395],[12.24939,44.81415],[12.2491,44.81441],[12.24858,44.81505],[12.24844,44.81513],[12.24824,44.81516],[12.24797,44.81509],[12.24861,44.81399],[12.24858,44.81386],[12.24826,44.81352],[12.24824,44.81343],[12.24834,44.81334],[12.24905,44.81303],[12.2492,44.81294],[12.24927,44.81287],[12.24954,44.81244],[12.24966,44.81231],[12.24979,44.8122],[12.25079,44.81157],[12.25244,44.81208],[12.25264,44.8121],[12.25579,44.81143],[12.25598,44.81136],[12.25604,44.81127],[12.25606,44.81116],[12.25601,44.81106],[12.25235,44.80608],[12.25182,44.80534],[12.25171,44.80511],[12.25479,44.80491],[12.2553,44.80492],[12.25596,44.80499],[12.25672,44.805],[12.25747,44.80496],[12.25803,44.80488],[12.25833,44.8048],[12.25867,44.80467],[12.25902,44.80449],[12.26089,44.80333],[12.26143,44.80292],[12.26168,44.80294],[12.26429,44.80346],[12.26457,44.80349],[12.26475,44.80348],[12.26606,44.80328],[12.26658,44.80314],[12.26666,44.80297],[12.26891,44.80005],[12.26908,44.79988]]}},{"type":"Feature","properties":{},"geometry":{"coordinates":[[12.285080589365293,44.87228894992887],[12.285174676999247,44.87196727209192],[12.28539784961768,44.87100230845206],[12.285661049000254,44.87045654061677],[12.286015567735461,44.869798590506036],[12.286357364742742,44.86929738347442],[12.286803600547046,44.86888377861442],[12.28726244765744,44.86832423557931],[12.287925576226854,44.86768795267983],[12.288451264082056,44.866846890008674],[12.288746302087787,44.86612718053138],[12.289275634880198,44.86486666782562],[12.290252293333452,44.86306410853683],[12.291069928165513,44.86199216309859],[12.292999829667423,44.85976671573803],[12.293465824754293,44.85930030554141],[12.294216989164312,44.85836672479641],[12.29464416068808,44.85788181018313],[12.295073025398068,44.85759739215402],[12.296550315404545,44.856617635464545],[12.29821499217806,44.85581200344524],[12.299376793131387,44.85546056000152],[12.300032810049373,44.85534696166164],[12.301432328102976,44.85508244623506],[12.302874563769791,44.85503984660389],[12.303608254481048,44.85484512681734]],"type":"LineString"}}]}