{"type":"FeatureCollection","features":[{"type":"Feature","properties":{},"geometry":{"coordinates":[[[12.252572895394621,44.812090592316],[12.248818112499862,44.81092712144272],[12.244859732072086,44.80970798976051],[12.243535609692145,44.8094003076624],[12.24138970583175,44.80918801728387],[12.235939826131215,44.808664946093245],[12.234862599492715,44.80791888408689],[12.234512073363959,44.80750642290036],[12.233793922271701,44.80648132276647],[12.233716977511449,44.80615377213775],[12.234862599492715,44.80501339617979],[12.235794486029931,44.80615377213775],[12.236119363904749,44.80638427092194],[12.237763065251329,44.80710741686113],[12.238900137815165,44.80735610876695],[12.240071408049573,44.80746529024117],[12.241088788764358,44.807368240052114],[12.242119967748607,44.80698204399951],[12.244146179760008,44.80621776293978],[12.245673840936803,44.80577495783248],[12.249685332184185,44.805429205162994],[12.251711544195558,44.805065253266804],[12.251728643031242,44.805265427094014],[12.256129453187356,44.81119294382643],[12.255932816578223,44.8113749007307],[12.252572895394621,44.812090592316]]],"type":"Polygon"}},{"type":"Feature","properties":{},"geometry":{"coordinates":[[[12.258369244499505,44.802633190450706],[12.257336730102054,44.80217809024117],[12.2530093281689,44.802640311465154],[12.243773732960705,44.804125997166665],[12.238794894177289,44.805215475913286],[12.237212833254972,44.8047532753217],[12.232329807086785,44.80081669727116],[12.226048094601708,44.800420495354444],[12.22255825433254,44.802236398464515],[12.21702104110571,44.8078158158491],[12.214647949722234,44.80907028509267],[12.211949139914282,44.80982955585404],[12.208552362052018,44.81121602449778],[12.20492292817201,44.810060636275864],[12.20413189771088,44.806693372873184],[12.198082841244599,44.80507569604609],[12.197854264485272,44.80233404348107],[12.196458328377844,44.800683227627474],[12.195667297916714,44.79787673227165],[12.19352686255101,44.79582955544106],[12.193666456161878,44.79523520017696],[12.185883854922224,44.78292994737063],[12.187465915844484,44.77589477900281],[12.191048818520528,44.768098943527974],[12.19007166324451,44.76753733847676],[12.190769631298764,44.767173944063416],[12.19584153249022,44.768957858338496],[12.199104133155174,44.769035583693665],[12.223672608651071,44.765104297416116],[12.228863531698636,44.76501513751322],[12.238867740469487,44.77548697879598],[12.24603354582257,44.7819937595423],[12.247225208611297,44.78201083048614],[12.249391544038616,44.78349217580268],[12.250986037220457,44.78475510634976],[12.25356264576962,44.78690366496238],[12.255134936288528,44.788447484256125],[12.25735336226694,44.79117861984642],[12.257492013848093,44.791547611711565],[12.256995179015462,44.793909103784415],[12.256876082023496,44.794422304192096],[12.258851867053835,44.79655410480535],[12.258921192843843,44.796742683375896],[12.259059850064773,44.797668449693646],[12.259094512959791,44.799029454917104],[12.259118495037796,44.80258750416789],[12.258369244499505,44.802633190450706]]],"type":"Polygon"}},{"type":"Feature","properties":{},"geometry":{"coordinates":[[12.230721278224166,44.92319257834794],[12.230977304231203,44.923173766243025],[12.231025611024904,44.923473048995504],[12.230701955506504,44.92350212209462],[12.230901352476963,44.92447591437815],[12.231068010914925,44.924602465549924],[12.231217761976126,44.924679422206964],[12.23151484875757,44.92498553766714],[12.231515899082922,44.92506398106565],[12.231741227245095,44.92520907373003],[12.231970291036305,44.9253607914238],[12.232217797168346,44.92547887491463],[12.232551572406294,44.925648674744025],[12.23280009641033,44.92578216440532],[12.233222692262785,44.92606605998819],[12.233505908438275,44.92628398085344],[12.233859509603377,44.92665197527981],[12.234065196896381,44.926915975296794],[12.234209779200114,44.92711099209461],[12.234444202228104,44.92753235501766],[12.23470544099456,44.92800831785706],[12.234929038074966,44.92842473845175],[12.235153605431549,44.92884915973161],[12.235407835061295,44.92932542638201],[12.235610547657842,44.929705853393216],[12.235788443470824,44.930041819200994],[12.23598386283058,44.93041358513173],[12.236180063869,44.93077971542428],[12.236307866104028,44.931011889615405],[12.236623723221044,44.931463162084526],[12.236964591700058,44.931890531042],[12.237344447192243,44.93219215089326],[12.237953293941445,44.9325270573257],[12.238738009765228,44.9329540953124],[12.239581648846894,44.9332506899419],[12.239866673420437,44.93335584128704],[12.24053983496762,44.93349040844953],[12.241100593784722,44.93354171794283],[12.241957993208388,44.93345629110854],[12.242773685849983,44.933345527864674],[12.243280847459232,44.93327566560265],[12.244790063092694,44.93296421680165],[12.246270030311479,44.9328724591295],[12.24765050681134,44.93300586791429],[12.248360795106521,44.93307499935466],[12.249316140078093,44.93323688526405],[12.249581564758131,44.93329359699544],[12.249986810249027,44.933377521040285],[12.250744709049115,44.93363938668287],[12.250960520678149,44.933668727110216],[12.252230711046423,44.933745166334916],[12.253581311912995,44.93390132018837],[12.257057325082798,44.93400518853275],[12.257716730844663,44.9340056460739]],"type":"LineString"}},{"type":"Feature","properties":{},"geometry":{"coordinates":[[12.257716008196127,44.934005767138984],[12.258291781633915,44.93401190013094],[12.262194174193525,44.934066499205414],[12.266578427019908,44.934157633492816],[12.266894256996125,44.93426228880605],[12.267021932944601,44.93442878550215],[12.26703201262498,44.93463095941328],[12.266841431713317,44.93570091511398],[12.266801718923034,44.93594061179891],[12.266418729659279,44.93661302244928],[12.266189148905312,44.93700387406341],[12.266120416583647,44.93727081568812],[12.266483614144477,44.938128003120994],[12.266903893584953,44.9390667028116],[12.267222110276293,44.93982156317813],[12.267379551361728,44.940003157075466],[12.267611755150995,44.94018987509119],[12.26791454889323,44.94032925574959],[12.269305361287422,44.94058896753978],[12.270749922215884,44.94077256809638],[12.271208208058795,44.94083429966935],[12.272180087164912,44.94089858562501],[12.272926040458628,44.94091028655251],[12.27403987333031,44.94086450217702],[12.275112072228296,44.94073779995762],[12.275933238161997,44.940563456689546],[12.276646462375282,44.94032097093748],[12.276730469037517,44.94029170783227],[12.277885915096988,44.939817022949995],[12.279044770245775,44.9393362683781],[12.279832886239689,44.93897052691065],[12.280755790354732,44.93854358230112],[12.281865746204232,44.93802238466989],[12.28273768845122,44.9376048482105],[12.283605960173048,44.93707692555191],[12.283871601308931,44.93691255222163],[12.28498637595402,44.93604767883315],[12.285557269217918,44.93556597621205],[12.286241352439333,44.93500195707446],[12.287406502753527,44.9340481614673],[12.287870910333481,44.933691780696336],[12.289076689549432,44.93274504008065],[12.289580584778633,44.93236207018015],[12.290276356174473,44.9317603589046],[12.290624110499579,44.93141393503723],[12.291222884145526,44.93072537852703],[12.291732667343268,44.930018374057255],[12.292163752471936,44.92913879617237],[12.292525914513618,44.92852342491565],[12.29257109633025,44.928387044049686],[12.29264908555021,44.928136553263926],[12.292690740574812,44.927802909115],[12.292723077568525,44.927432555682145],[12.292608947256042,44.926574519128536],[12.29236747435715,44.92598654711347],[12.29212803758952,44.925393498586146],[12.291886294661282,44.924959276175116],[12.291485439883957,44.92425033106346],[12.29101769531465,44.923412755740316],[12.290548563736934,44.9225707013953],[12.29036080990278,44.92222691845498],[12.290047850305172,44.9217120613591],[12.289789304458594,44.921290539244836],[12.289485379182707,44.92081248280965],[12.289222016474667,44.92043951608309],[12.288834286152053,44.91991113770786],[12.288490451505282,44.91958306010599],[12.287746500757578,44.918852976282324],[12.287305100612969,44.91852829686238],[12.286519889575743,44.9180914247068],[12.285042788895424,44.91726906968276],[12.283743227138757,44.916544536003954],[12.283122778799793,44.916200633413695],[12.282693595127256,44.91588807618891],[12.281791468327526,44.9147802314136],[12.280940561296603,44.9137208860773],[12.280172903453376,44.91273592950304],[12.280023682353999,44.912547488293825],[12.27976763527684,44.91188261232597],[12.27972129305715,44.911521668468424],[12.27971641597017,44.911364513856],[12.27974080140612,44.91113137160673],[12.279809490329626,44.91064029833302],[12.27983706095904,44.91048433954458],[12.27991753289777,44.91004567921772],[12.279981151158694,44.9097597254063],[12.2801336571832,44.90891373326741],[12.280296679753064,44.908072456597125],[12.280479056456812,44.90709781739511],[12.280632874398691,44.906277167524394],[12.281227436690614,44.90512923997389],[12.28126701245219,44.90505178676321],[12.282552124925616,44.903979206795924],[12.282677410911049,44.903872079141905],[12.283060262255646,44.90344027720917],[12.283206980361143,44.90285244414267],[12.283271763898085,44.90227674522316],[12.283371750436515,44.90128875005624],[12.283476775437776,44.90048323846784],[12.283567309025727,44.89977793587005],[12.283672214226243,44.898499871288266],[12.283618566047608,44.897588565732576],[12.283552725338325,44.89643461107886],[12.283508831478883,44.8958751212426],[12.283268571505118,44.89490765587391],[12.282970962971461,44.8937188806739],[12.282518422912005,44.89056301327685],[12.28284884189523,44.88794247585031],[12.283111534412882,44.88666177186465],[12.283460310005438,44.88326067179196],[12.283481536043723,44.88256960182727],[12.283472357738134,44.880267377026684],[12.283594787000936,44.87773983163473],[12.283989454118938,44.876094327553574],[12.28433817089416,44.87535944996992],[12.284585985131315,44.87465049382433],[12.285109148521656,44.872217862303614],[12.28539740157575,44.87094278575674],[12.286407015134756,44.86923203897791],[12.287994902092152,44.86765136825056],[12.288462995650548,44.86679269974613],[12.289500933418395,44.864475993683556],[12.290326980067874,44.862953697286315],[12.29224524583043,44.86060514699909],[12.293511556960624,44.859237448074225],[12.29461295357126,44.85791672168622],[12.295346493510095,44.85742188854604],[12.296578277915927,44.85661448610966],[12.298014380634243,44.85591984086685],[12.29825288671887,44.85578800302909],[12.299347095203899,44.85546820951282],[12.299910921310214,44.85537197624734],[12.299936645705799,44.855398316771584],[12.300053834615852,44.85540304455665],[12.301191424523694,44.855228791648926],[12.301697885029625,44.85516779441946],[12.302817138351486,44.855120228211376],[12.303052717745402,44.85509864949458],[12.303222123151386,44.85502546943809],[12.304288444305826,44.85478312452477],[12.305247710477687,44.854752383043774],[12.305640271823279,44.8547556315136],[12.307118670212674,44.85464726943542],[12.30751751424566,44.8545857318999],[12.30860771042083,44.854342326073635],[12.309808184699335,44.85410934292469],[12.311712960461989,44.85385310087986],[12.31239096736951,44.853770249022006],[12.312519503854105,44.85375632971156],[12.313604334670913,44.853698151210494],[12.314587726551082,44.85365634177819],[12.315381778172167,44.85362424259529],[12.316090160117312,44.85360783608647],[12.316596539747934,44.85366506543414],[12.317103050590305,44.853756878407125],[12.317420170705532,44.85379028917899],[12.31771125415122,44.85378756206458],[12.318401275288267,44.85369923476779],[12.319299959999881,44.85356387780399],[12.320285629732894,44.853369601704856],[12.32226477847749,44.852968578274584],[12.323643282513615,44.85268638185002],[12.324488602275437,44.85251538048783],[12.3261413245352,44.85218032420275],[12.3270967404396,44.85192586831593],[12.328082408165642,44.85162452413411],[12.329015276595015,44.85133096319777],[12.330055397874247,44.85088225228964],[12.330455673028041,44.85070607703432],[12.330883352527337,44.85066833402931],[12.331209879615386,44.850658269223715],[12.331518660664699,44.85060291276213],[12.332084347930532,44.85030031874257],[12.333475636775859,44.84940355115094],[12.334409205947367,44.848763031952075],[12.335526645737247,44.847983764362596],[12.336695931504295,44.8471783162679],[12.338111153155381,44.846211794605296],[12.338345873082716,44.84604772757177],[12.338858733562063,44.84556835080224],[12.339307307868921,44.84487989860247],[12.339830814129101,44.84353229174357],[12.340071232833338,44.84289528862354],[12.34033715760603,44.842097775199335],[12.340431993861358,44.84181540268105],[12.340725254473398,44.840682659936874],[12.340924506233023,44.83999107095843],[12.34142762379193,44.83823789261686],[12.341727385817478,44.83727644620171],[12.341986310592006,44.836461714743024],[12.34209335695624,44.836122493110764],[12.342302760197583,44.83586451678627],[12.342570725360929,44.83567197760635],[12.342906213424726,44.83528460450299],[12.342955137644935,44.8352152165439],[12.343246350952711,44.834664242649325],[12.343558429839646,44.83402299187031],[12.343894932364833,44.83328997977702],[12.343963831880473,44.83311264761332],[12.344143311724793,44.83238746487547],[12.344316128171812,44.83167880692008],[12.344460381119404,44.83105028958303],[12.344660724658922,44.830174785589065],[12.34512972254393,44.82919577424698],[12.345329541561227,44.82878285646194],[12.345677943612031,44.82814319343166],[12.34592203586763,44.82770028047179],[12.346133073907197,44.827244674140985],[12.346421145964456,44.82662103824342],[12.34665631130244,44.82640010607906],[12.347338033063124,44.82591552590969],[12.347561605497305,44.82573923088381],[12.347781209513784,44.82549464625856],[12.348100402726118,44.82499054706787],[12.348704383260127,44.824046343066726],[12.34908445730332,44.82346219978453],[12.349216720497509,44.82325404317723],[12.349477500266659,44.8227514659084],[12.349780215991188,44.82198198102245],[12.350138277884326,44.8211106080613],[12.350375599167847,44.820546170071],[12.350876083199807,44.81935265902672],[12.350872660800661,44.81928085845715],[12.350819475452198,44.8192419153186],[12.350568989621507,44.81920784005064],[12.35051751993035,44.819168896862294],[12.350495216397377,44.819067887845904],[12.350316788134904,44.81895470885823],[12.35036311085679,44.818801369230215],[12.350538107807324,44.81873565212223],[12.350706242131338,44.81879893526468],[12.350893248676329,44.8186821047932],[12.350918001743366,44.81858852447533]],"type":"LineString"},"id":3},{"type":"Feature","properties":{},"geometry":{"coordinates":[[12.350917216423255,44.81858882481043],[12.350926752737394,44.81809398689862],[12.351195051715365,44.81767586335965],[12.351357097002335,44.81767267037719],[12.351364599098332,44.81730973356224],[12.35173769669052,44.81681390916876],[12.352403416333715,44.816040597194444],[12.352864242947476,44.815514001953005],[12.353546414708035,44.81486169139225],[12.354384621735619,44.81405652028093],[12.355148839141293,44.813359170731644],[12.355644075007945,44.81289259979175],[12.356317500630212,44.8123160185838],[12.356497498057763,44.81216358082375],[12.35667934811562,44.812083254861506],[12.356940114235101,44.812019967660746],[12.357863089057957,44.81189339305175],[12.359115452662138,44.81170839889208],[12.359657152873382,44.81157686310249],[12.359962523724306,44.81148679973609],[12.3602987747758,44.81136022395697],[12.361793610378385,44.810569917875625],[12.363782069975287,44.80945002914464],[12.365003522495499,44.80872313916933],[12.36625931723475,44.80793686667678],[12.367609155133891,44.80708445476975],[12.368600749149238,44.80645172166476],[12.36969509838815,44.805599118354365],[12.370700769624477,44.80478222980861],[12.370951242345598,44.80456556514213],[12.371229164132274,44.8043975886047],[12.371297786795537,44.80429047287615],[12.371596295381693,44.804059199601824],[12.372657058969537,44.8032187638625],[12.373286930616388,44.80270854824033],[12.373499660873506,44.802569780581905],[12.373863360987912,44.802236249932776],[12.373987753795632,44.80211610900241],[12.374200484052778,44.80199681630185],[12.376202593417787,44.80032731724796],[12.376665576723127,44.79996595913866],[12.376771410083364,44.79975944394593],[12.376677881856466,44.799725269744414]],"type":"LineString"}}]}