{"type":"FeatureCollection","features":[{"type":"Feature","properties":{},"geometry":{"coordinates":[[[12.303537016171845,44.27496919154274],[12.310784800142073,44.26766590729753],[12.314112442216185,44.25799923306366],[12.317027371038677,44.25149587351979],[12.316746161263694,44.25112658538177],[12.317683527594966,44.25062301199736],[12.316464951593645,44.249515123507564],[12.319886441630473,44.24202797779077],[12.32621367382285,44.23598381872671],[12.345757970602449,44.2331294865931],[12.348476361316273,44.233733948728315],[12.351476096482884,44.235748714567336],[12.352694659178297,44.23611811932665],[12.35381947437267,44.23675616187353],[12.354569344427091,44.23954323466626],[12.347621802140537,44.24894678117826],[12.345372040334126,44.25163253201811],[12.340591479942958,44.254553148568164],[12.339701016362824,44.25337822048391],[12.33651395560895,44.25495601743239],[12.33566359968927,44.256131493018785],[12.32004678023398,44.27177560202071],[12.319374079032002,44.27211185391411],[12.312025599436367,44.27932313389729],[12.303537016171845,44.27496919154274]]],"type":"Polygon"}}]}