{"type":"FeatureCollection","features":[{"type":"Feature","properties":{},"geometry":{"coordinates":[[[12.178022952910851,44.69114774866469],[12.173519419645146,44.68502589955875],[12.178414446374433,44.673747675208546],[12.176260774355313,44.67026641306035],[12.179001897657997,44.66413899926533],[12.18507134246613,44.662189262655005],[12.182330311080761,44.660935833795605],[12.151592147316364,44.65132562485843],[12.123006618394527,44.652579689289865],[12.116152770213006,44.661354461778245],[12.107340294579984,44.65425256543742],[12.107731969363783,44.6433875376197],[12.101856757737664,44.63558605026944],[12.100290002114093,44.62179087259534],[12.096177203443574,44.61733108218172],[12.10185981621376,44.58498893837293],[12.104797015151945,44.57759805487376],[12.114391697305933,44.575785596690054],[12.118112015169743,44.57034647509445],[12.135146245903712,44.56142013344561],[12.133971538660433,44.55179409765242],[12.128098064238515,44.54998039621111],[12.128881142496311,44.54788742851423],[12.132405262334913,44.54746883851212],[12.132992615957136,44.55025936507096],[12.138278798553586,44.55179409765242],[12.13749566039138,44.55388684958794],[12.141215566663476,44.553468305220946],[12.14160713574455,44.55528197573659],[12.143956550232275,44.55332878976313],[12.148851163747565,44.55388684958794],[12.147089102882148,44.55109649695049],[12.149438517368623,44.54914317050162],[12.189770132735816,44.55360782034424],[12.205628680526331,44.56253609255083],[12.215222123017071,44.572578761231114],[12.212089570367198,44.57829672832165],[12.220310363004614,44.5799724226641],[12.227946933502693,44.577182170396526],[12.249288633084547,44.57997017330362],[12.241848820540326,44.584850779400114],[12.243218433656352,44.587918831287254],[12.245760301546682,44.5883387258568],[12.246156080434673,44.58457189866084],[12.251049613706812,44.5833174836537],[12.261817288908645,44.58401482148071],[12.269252810368926,44.59489122327989],[12.262403983484631,44.60018768191523],[12.268471828311931,44.60241828117978],[12.257689161407257,44.62234721634189],[12.253980767950736,44.63042870575572],[12.24536235746379,44.63878566167185],[12.23538505131944,44.65912260305808],[12.232449079669692,44.66009790151057],[12.227553200459596,44.67541190926798],[12.203866997471948,44.678062379562306],[12.190357095153047,44.6878020137965],[12.185854164124237,44.690304302639845],[12.178022952910851,44.69114774866469]]],"type":"Polygon"}}]}