{"type":"FeatureCollection","features":[{"type":"Feature","properties":{},"geometry":{"coordinates":[[[11.944144075116498,44.723334152525325],[11.944257865727195,44.723144637856194],[11.945777889439626,44.72373284919121],[11.946605759497203,44.7243210545455],[11.946804296414115,44.72476289553538],[11.950245540490926,44.73940523592941],[11.951137447568442,44.74116552046604],[11.95323619855273,44.74197061428691],[11.965746167180612,44.74137407700735],[11.968636613383865,44.741851655136884],[11.968678759361069,44.74256718715384],[11.969812225009719,44.74271626480197],[11.970399761644956,44.74212002958214],[11.976710102224615,44.74290201410929],[11.993961238023502,44.7368324718027],[12.015953810964703,44.7334585427798],[12.036124338307673,44.730243016443865],[12.02832313918995,44.733313406444296],[12.017296737361193,44.73699517444308],[12.009859312397964,44.73662702566952],[12.000660843725939,44.739109847113525],[11.99248486204749,44.739423768237],[11.99110992218553,44.73980744729579],[11.986469500151713,44.74287678810896],[11.985050499339621,44.74330572915363],[11.980954548608509,44.74444627762111],[11.975766090842228,44.746386675080515],[11.973989964027822,44.746394866366245],[11.972072874701809,44.74592700610225],[11.965333996215179,44.744216811992544],[11.963246470543766,44.74338945506602],[11.959486617676163,44.7428815667314],[11.95643805818591,44.74285063447732],[11.952273554363558,44.74343841113628],[11.951079473327553,44.74316984071339],[11.950462531458328,44.74260442521759],[11.944949857341385,44.74102123241073],[11.943258242539827,44.73989035386222],[11.944293112771533,44.738702907581114],[11.94441252087529,44.73820813109941],[11.946851465308072,44.7353506601828],[11.946706127157228,44.73500338660051],[11.947542073697832,44.733923478034484],[11.947608136493926,44.73334154459741],[11.947476010901795,44.7320368660952],[11.947026783887992,44.730844795977276],[11.9461283298605,44.72987798090847],[11.945372843124318,44.72882569311855],[11.945597456631248,44.72759600881588],[11.946561973454806,44.726272426270214],[11.9466280362509,44.725812450776715],[11.94641663530399,44.72492065113474],[11.9450953793814,44.72429168943577],[11.944302625827333,44.72439495227343],[11.943774123458809,44.72377537248252],[11.944144075116498,44.723334152525325]]],"type":"Polygon"}}]}