{"type":"FeatureCollection","features":[{"type":"Feature","properties":{},"geometry":{"coordinates":[[[11.823131350391805,44.61531353190429],[11.820461886390945,44.613444719068895],[11.813254299521304,44.60139219390149],[11.810323881878617,44.59791451609573],[11.796139499718038,44.579088364121446],[11.796009236205691,44.57730251508565],[11.794381230668677,44.57547019616979],[11.794739348646061,44.57251714490482],[11.789431868176877,44.555257308862],[11.78972505154394,44.554584512792246],[11.796790688614749,44.556046191771316],[11.817291894438341,44.55921682082172],[11.818023466934733,44.55956929744525],[11.823265816713274,44.56017251062937],[11.8361152193944,44.562723840063086],[11.844418098654444,44.56759745698332],[11.859115001035661,44.576593089706506],[11.862989827695287,44.57833255838264],[11.869144007349263,44.57863403855063],[11.871976926006369,44.578773180404426],[11.871737417986026,44.57935116530888],[11.868414408063273,44.582337904029714],[11.86685649358003,44.58304976015583],[11.86524773480835,44.583106111551814],[11.863427991279195,44.58258016306516],[11.862162082737996,44.58130283978784],[11.859656638749158,44.58122770225077],[11.858021506882665,44.582692866712875],[11.857098448570582,44.58460879529511],[11.853643573176214,44.5867500525174],[11.850937522326518,44.5892722196144],[11.840779261178142,44.59865776206689],[11.823131350391805,44.61531353190429]]],"type":"Polygon"}}]}