{"type":"FeatureCollection","features":[{"type":"Feature","properties":{},"geometry":{"coordinates":[[[12.210403602200046,44.518636922912776],[12.213339735752811,44.51216311338885],[12.207544741323915,44.50621217206941],[12.206813497972462,44.50354213811221],[12.217647931946402,44.500091098184356],[12.210915207569371,44.48504273860681],[12.208075160138208,44.471232331697365],[12.209547786793621,44.45794408592744],[12.213755493115656,44.45892013134525],[12.216174936847665,44.4582444091443],[12.239737934178976,44.4659776958041],[12.256778434542099,44.48121533243361],[12.25909177319187,44.48286652004211],[12.264983112858204,44.49089607401518],[12.269505738604948,44.49434763917628],[12.270872825516392,44.5011752440802],[12.268348565682231,44.50485129864265],[12.269294427179346,44.51032719689684],[12.266770670097287,44.511602609199116],[12.268663687952397,44.51992792982796],[12.268452788681714,44.521952485442796],[12.269504538153143,44.523302304041124],[12.272028711923952,44.52322714520702],[12.273186228931536,44.52480230732894],[12.252465791476425,44.527503969874346],[12.242367050568731,44.529151891654436],[12.235214299625625,44.52885260525275],[12.231742939838597,44.527053303534586],[12.228481726939549,44.52697902385373],[12.210403602200046,44.518636922912776]]],"type":"Polygon"}}]}