{
"type": "FeatureCollection",
"name": "PR Delta Po ER Anello Dolce Salato",
"features": [
{ "type": "Feature", "properties": { "Name": "Partenza/arrivo" }, "geometry": { "type": "Point", "coordinates": [ 12.22935, 44.50889, 0.0 ] } },
{ "type": "Feature", "properties": { "Name": "Pineta San Vitale - Piallasse di Ravenna" }, "geometry": { "type": "LineString", "coordinates": [ [ 12.22935, 44.50889, 0.0 ], [ 12.229304, 44.508932, 0.0 ], [ 12.229359, 44.508908, 0.0 ], [ 12.229373, 44.50896, 0.0 ], [ 12.229431, 44.508981, 0.0 ], [ 12.229433, 44.50904, 0.0 ], [ 12.229447, 44.509089, 0.0 ], [ 12.229466, 44.509151, 0.0 ], [ 12.229501, 44.509208, 0.0 ], [ 12.229537, 44.509263, 0.0 ], [ 12.229569, 44.509305, 0.0 ], [ 12.229592, 44.509363, 0.0 ], [ 12.229626, 44.509418, 0.0 ], [ 12.229651, 44.509477, 0.0 ], [ 12.229677, 44.509533, 0.0 ], [ 12.229684, 44.509589, 0.0 ], [ 12.229709, 44.509644, 0.0 ], [ 12.229723, 44.509699, 0.0 ], [ 12.229741, 44.509766, 0.0 ], [ 12.229782, 44.50981, 0.0 ], [ 12.22982, 44.509846, 0.0 ], [ 12.229867, 44.509883, 0.0 ], [ 12.229937, 44.509901, 0.0 ], [ 12.230011, 44.509899, 0.0 ], [ 12.23009, 44.509898, 0.0 ], [ 12.230161, 44.509901, 0.0 ], [ 12.230239, 44.50991, 0.0 ], [ 12.230302, 44.509929, 0.0 ], [ 12.230392, 44.509955, 0.0 ], [ 12.230487, 44.509963, 0.0 ], [ 12.230561, 44.509987, 0.0 ], [ 12.230637, 44.510001, 0.0 ], [ 12.230749, 44.510006, 0.0 ], [ 12.230839, 44.510029, 0.0 ], [ 12.230917, 44.510045, 0.0 ], [ 12.23099, 44.510062, 0.0 ], [ 12.23107, 44.510048, 0.0 ], [ 12.231159, 44.510053, 0.0 ], [ 12.231256, 44.510076, 0.0 ], [ 12.231336, 44.510094, 0.0 ], [ 12.231423, 44.510091, 0.0 ], [ 12.231536, 44.510108, 0.0 ], [ 12.231625, 44.510124, 0.0 ], [ 12.231693, 44.510132, 0.0 ], [ 12.231784, 44.510145, 0.0 ], [ 12.231864, 44.510171, 0.0 ], [ 12.231947, 44.510196, 0.0 ], [ 12.232034, 44.510228, 0.0 ], [ 12.232124, 44.510251, 0.0 ], [ 12.232184, 44.510272, 0.0 ], [ 12.232239, 44.510301, 0.0 ], [ 12.232297, 44.51033, 0.0 ], [ 12.232387, 44.510355, 0.0 ], [ 12.232464, 44.510387, 0.0 ], [ 12.232528, 44.510403, 0.0 ], [ 12.232596, 44.510394, 0.0 ], [ 12.232662, 44.510403, 0.0 ], [ 12.232725, 44.510421, 0.0 ], [ 12.232781, 44.51045, 0.0 ], [ 12.232851, 44.510485, 0.0 ], [ 12.23293, 44.510506, 0.0 ], [ 12.233024, 44.510518, 0.0 ], [ 12.233109, 44.510534, 0.0 ], [ 12.233199, 44.510539, 0.0 ], [ 12.233286, 44.510545, 0.0 ], [ 12.23337, 44.51055, 0.0 ], [ 12.233463, 44.510555, 0.0 ], [ 12.233564, 44.51055, 0.0 ], [ 12.233671, 44.510552, 0.0 ], [ 12.233778, 44.510562, 0.0 ], [ 12.233875, 44.510559, 0.0 ], [ 12.23394, 44.510563, 0.0 ], [ 12.234005, 44.510565, 0.0 ], [ 12.234072, 44.510575, 0.0 ], [ 12.234137, 44.510583, 0.0 ], [ 12.234203, 44.510582, 0.0 ], [ 12.234276, 44.510583, 0.0 ], [ 12.234338, 44.510593, 0.0 ], [ 12.234411, 44.510586, 0.0 ], [ 12.234479, 44.510586, 0.0 ], [ 12.234546, 44.510584, 0.0 ], [ 12.23461, 44.510545, 0.0 ], [ 12.234664, 44.510509, 0.0 ], [ 12.234729, 44.510466, 0.0 ], [ 12.23479, 44.510444, 0.0 ], [ 12.234873, 44.510409, 0.0 ], [ 12.234942, 44.51037, 0.0 ], [ 12.235008, 44.510328, 0.0 ], [ 12.235083, 44.510285, 0.0 ], [ 12.235137, 44.510221, 0.0 ], [ 12.235207, 44.51017, 0.0 ], [ 12.235287, 44.510139, 0.0 ], [ 12.235342, 44.510106, 0.0 ], [ 12.23544, 44.510067, 0.0 ], [ 12.235504, 44.510043, 0.0 ], [ 12.235591, 44.510039, 0.0 ], [ 12.235681, 44.509978, 0.0 ], [ 12.235699, 44.5099, 0.0 ], [ 12.235746, 44.50986, 0.0 ], [ 12.235766, 44.509803, 0.0 ], [ 12.235815, 44.509754, 0.0 ], [ 12.235827, 44.50971, 0.0 ], [ 12.235855, 44.509661, 0.0 ], [ 12.235851, 44.509608, 0.0 ], [ 12.235837, 44.509541, 0.0 ], [ 12.235852, 44.509469, 0.0 ], [ 12.235819, 44.509412, 0.0 ], [ 12.235848, 44.509335, 0.0 ], [ 12.235831, 44.50928, 0.0 ], [ 12.235818, 44.509225, 0.0 ], [ 12.23578, 44.509171, 0.0 ], [ 12.235794, 44.509111, 0.0 ], [ 12.235789, 44.509043, 0.0 ], [ 12.235781, 44.508968, 0.0 ], [ 12.235799, 44.508903, 0.0 ], [ 12.235811, 44.508848, 0.0 ], [ 12.235806, 44.508787, 0.0 ], [ 12.235771, 44.50872, 0.0 ], [ 12.235772, 44.508658, 0.0 ], [ 12.235724, 44.508589, 0.0 ], [ 12.235755, 44.508534, 0.0 ], [ 12.235771, 44.508488, 0.0 ], [ 12.235781, 44.508374, 0.0 ], [ 12.235811, 44.508304, 0.0 ], [ 12.235819, 44.508225, 0.0 ], [ 12.235829, 44.508176, 0.0 ], [ 12.235812, 44.508109, 0.0 ], [ 12.235816, 44.50806, 0.0 ], [ 12.23579, 44.508014, 0.0 ], [ 12.235842, 44.507956, 0.0 ], [ 12.235926, 44.507926, 0.0 ], [ 12.235991, 44.507893, 0.0 ], [ 12.236051, 44.507859, 0.0 ], [ 12.236106, 44.507805, 0.0 ], [ 12.236195, 44.507748, 0.0 ], [ 12.236266, 44.5077, 0.0 ], [ 12.236355, 44.507652, 0.0 ], [ 12.236407, 44.507619, 0.0 ], [ 12.236458, 44.507561, 0.0 ], [ 12.236499, 44.507514, 0.0 ], [ 12.236546, 44.507478, 0.0 ], [ 12.236621, 44.507408, 0.0 ], [ 12.23667, 44.507356, 0.0 ], [ 12.23671, 44.507318, 0.0 ], [ 12.23675, 44.507273, 0.0 ], [ 12.236812, 44.50721, 0.0 ], [ 12.236845, 44.507147, 0.0 ], [ 12.236869, 44.5071, 0.0 ], [ 12.236939, 44.507043, 0.0 ], [ 12.236984, 44.506983, 0.0 ], [ 12.237038, 44.506926, 0.0 ], [ 12.237103, 44.506888, 0.0 ], [ 12.237174, 44.506855, 0.0 ], [ 12.237227, 44.506829, 0.0 ], [ 12.237297, 44.506794, 0.0 ], [ 12.23735, 44.506761, 0.0 ], [ 12.237409, 44.50673, 0.0 ], [ 12.23751, 44.506713, 0.0 ], [ 12.237595, 44.506668, 0.0 ], [ 12.237688, 44.506636, 0.0 ], [ 12.237737, 44.506607, 0.0 ], [ 12.237819, 44.506568, 0.0 ], [ 12.237873, 44.50654, 0.0 ], [ 12.237933, 44.506525, 0.0 ], [ 12.238002, 44.506525, 0.0 ], [ 12.238082, 44.506545, 0.0 ], [ 12.238126, 44.506587, 0.0 ], [ 12.238149, 44.506646, 0.0 ], [ 12.238169, 44.506689, 0.0 ], [ 12.238207, 44.506726, 0.0 ], [ 12.238274, 44.506739, 0.0 ], [ 12.238358, 44.506747, 0.0 ], [ 12.238424, 44.506747, 0.0 ], [ 12.238495, 44.50676, 0.0 ], [ 12.238562, 44.506755, 0.0 ], [ 12.238628, 44.506757, 0.0 ], [ 12.238697, 44.506743, 0.0 ], [ 12.238793, 44.506712, 0.0 ], [ 12.238871, 44.506692, 0.0 ], [ 12.238967, 44.506676, 0.0 ], [ 12.239054, 44.506661, 0.0 ], [ 12.239142, 44.506646, 0.0 ], [ 12.239248, 44.506634, 0.0 ], [ 12.239344, 44.506627, 0.0 ], [ 12.239456, 44.506613, 0.0 ], [ 12.239555, 44.506592, 0.0 ], [ 12.239659, 44.506584, 0.0 ], [ 12.239775, 44.506583, 0.0 ], [ 12.239878, 44.506585, 0.0 ], [ 12.239979, 44.506589, 0.0 ], [ 12.240084, 44.50662, 0.0 ], [ 12.240154, 44.506632, 0.0 ], [ 12.240216, 44.506645, 0.0 ], [ 12.240277, 44.506666, 0.0 ], [ 12.240351, 44.506676, 0.0 ], [ 12.240437, 44.506693, 0.0 ], [ 12.240524, 44.506708, 0.0 ], [ 12.240593, 44.506716, 0.0 ], [ 12.240679, 44.506719, 0.0 ], [ 12.240772, 44.506724, 0.0 ], [ 12.24087, 44.506735, 0.0 ], [ 12.240959, 44.506743, 0.0 ], [ 12.241054, 44.506748, 0.0 ], [ 12.241159, 44.506753, 0.0 ], [ 12.241262, 44.506769, 0.0 ], [ 12.241374, 44.506799, 0.0 ], [ 12.241463, 44.506824, 0.0 ], [ 12.241548, 44.50684, 0.0 ], [ 12.241639, 44.506875, 0.0 ], [ 12.241708, 44.506892, 0.0 ], [ 12.241791, 44.506917, 0.0 ], [ 12.241864, 44.506943, 0.0 ], [ 12.241933, 44.506959, 0.0 ], [ 12.241986, 44.506987, 0.0 ], [ 12.242058, 44.507015, 0.0 ], [ 12.24214, 44.507024, 0.0 ], [ 12.242211, 44.507036, 0.0 ], [ 12.242268, 44.507068, 0.0 ], [ 12.242342, 44.5071, 0.0 ], [ 12.242408, 44.507124, 0.0 ], [ 12.242478, 44.507146, 0.0 ], [ 12.242548, 44.50715, 0.0 ], [ 12.242613, 44.507155, 0.0 ], [ 12.242704, 44.507161, 0.0 ], [ 12.242794, 44.507159, 0.0 ], [ 12.242858, 44.50716, 0.0 ], [ 12.242936, 44.507157, 0.0 ], [ 12.243005, 44.507161, 0.0 ], [ 12.243068, 44.507175, 0.0 ], [ 12.243132, 44.507175, 0.0 ], [ 12.243214, 44.50718, 0.0 ], [ 12.243279, 44.507204, 0.0 ], [ 12.243339, 44.507223, 0.0 ], [ 12.243401, 44.507231, 0.0 ], [ 12.243476, 44.507233, 0.0 ], [ 12.243555, 44.507245, 0.0 ], [ 12.243638, 44.507266, 0.0 ], [ 12.243702, 44.507291, 0.0 ], [ 12.24379, 44.507323, 0.0 ], [ 12.243864, 44.507334, 0.0 ], [ 12.243948, 44.507345, 0.0 ], [ 12.244027, 44.507353, 0.0 ], [ 12.244103, 44.507361, 0.0 ], [ 12.244185, 44.507373, 0.0 ], [ 12.244286, 44.507389, 0.0 ], [ 12.244391, 44.507389, 0.0 ], [ 12.244478, 44.507393, 0.0 ], [ 12.244577, 44.507393, 0.0 ], [ 12.244661, 44.507411, 0.0 ], [ 12.244719, 44.507464, 0.0 ], [ 12.244762, 44.507501, 0.0 ], [ 12.244777, 44.507549, 0.0 ], [ 12.244796, 44.507496, 0.0 ], [ 12.244802, 44.507545, 0.0 ], [ 12.244806, 44.5076, 0.0 ], [ 12.244797, 44.507652, 0.0 ], [ 12.24478, 44.507702, 0.0 ], [ 12.244767, 44.50776, 0.0 ], [ 12.244747, 44.50781, 0.0 ], [ 12.244728, 44.507865, 0.0 ], [ 12.244709, 44.507918, 0.0 ], [ 12.244693, 44.507976, 0.0 ], [ 12.244677, 44.508035, 0.0 ], [ 12.244668, 44.50809, 0.0 ], [ 12.244659, 44.508138, 0.0 ], [ 12.244656, 44.50819, 0.0 ], [ 12.244681, 44.508245, 0.0 ], [ 12.244713, 44.508297, 0.0 ], [ 12.244741, 44.508339, 0.0 ], [ 12.244789, 44.508375, 0.0 ], [ 12.244854, 44.508415, 0.0 ], [ 12.244925, 44.508434, 0.0 ], [ 12.245, 44.508437, 0.0 ], [ 12.245071, 44.508456, 0.0 ], [ 12.245114, 44.508492, 0.0 ], [ 12.245141, 44.508541, 0.0 ], [ 12.245161, 44.508584, 0.0 ], [ 12.245176, 44.508631, 0.0 ], [ 12.245194, 44.508678, 0.0 ], [ 12.245226, 44.508721, 0.0 ], [ 12.245211, 44.508675, 0.0 ], [ 12.245211, 44.508628, 0.0 ], [ 12.245191, 44.508583, 0.0 ], [ 12.245171, 44.508539, 0.0 ], [ 12.245133, 44.5085, 0.0 ], [ 12.245083, 44.508471, 0.0 ], [ 12.245008, 44.508475, 0.0 ], [ 12.24493, 44.508475, 0.0 ], [ 12.24487, 44.508456, 0.0 ], [ 12.244808, 44.508429, 0.0 ], [ 12.24477, 44.508393, 0.0 ], [ 12.244729, 44.508342, 0.0 ], [ 12.244697, 44.50829, 0.0 ], [ 12.244687, 44.508243, 0.0 ], [ 12.244679, 44.508197, 0.0 ], [ 12.244672, 44.508141, 0.0 ], [ 12.244678, 44.508081, 0.0 ], [ 12.244681, 44.508026, 0.0 ], [ 12.244696, 44.50798, 0.0 ], [ 12.244704, 44.507928, 0.0 ], [ 12.244715, 44.507883, 0.0 ], [ 12.24473, 44.507825, 0.0 ], [ 12.244752, 44.507777, 0.0 ], [ 12.244769, 44.507725, 0.0 ], [ 12.244781, 44.507677, 0.0 ], [ 12.244798, 44.507627, 0.0 ], [ 12.244799, 44.507578, 0.0 ], [ 12.244828, 44.507534, 0.0 ], [ 12.244812, 44.507486, 0.0 ], [ 12.244789, 44.507439, 0.0 ], [ 12.24473, 44.507409, 0.0 ], [ 12.244649, 44.507427, 0.0 ], [ 12.244556, 44.507436, 0.0 ], [ 12.244477, 44.507428, 0.0 ], [ 12.244391, 44.50742, 0.0 ], [ 12.244306, 44.507411, 0.0 ], [ 12.244224, 44.507404, 0.0 ], [ 12.244122, 44.507402, 0.0 ], [ 12.244033, 44.507394, 0.0 ], [ 12.243941, 44.507367, 0.0 ], [ 12.243836, 44.507346, 0.0 ], [ 12.243762, 44.507331, 0.0 ], [ 12.243693, 44.507306, 0.0 ], [ 12.243611, 44.507286, 0.0 ], [ 12.243538, 44.50727, 0.0 ], [ 12.243451, 44.507254, 0.0 ], [ 12.243379, 44.507252, 0.0 ], [ 12.243316, 44.507249, 0.0 ], [ 12.243238, 44.507253, 0.0 ], [ 12.243148, 44.50726, 0.0 ], [ 12.243059, 44.507271, 0.0 ], [ 12.242952, 44.50727, 0.0 ], [ 12.242877, 44.50727, 0.0 ], [ 12.242789, 44.507264, 0.0 ], [ 12.242693, 44.507237, 0.0 ], [ 12.242598, 44.507202, 0.0 ], [ 12.242497, 44.507185, 0.0 ], [ 12.242409, 44.507165, 0.0 ], [ 12.242319, 44.507137, 0.0 ], [ 12.242241, 44.507112, 0.0 ], [ 12.242144, 44.507095, 0.0 ], [ 12.24205, 44.507074, 0.0 ], [ 12.241983, 44.507052, 0.0 ], [ 12.241899, 44.507037, 0.0 ], [ 12.241833, 44.507, 0.0 ], [ 12.241777, 44.506958, 0.0 ], [ 12.241711, 44.506924, 0.0 ], [ 12.241608, 44.506916, 0.0 ], [ 12.241511, 44.506911, 0.0 ], [ 12.241423, 44.506891, 0.0 ], [ 12.241332, 44.506857, 0.0 ], [ 12.241255, 44.506843, 0.0 ], [ 12.241161, 44.506838, 0.0 ], [ 12.241081, 44.506827, 0.0 ], [ 12.241006, 44.506799, 0.0 ], [ 12.240936, 44.506776, 0.0 ], [ 12.240863, 44.506761, 0.0 ], [ 12.240784, 44.506746, 0.0 ], [ 12.240702, 44.506733, 0.0 ], [ 12.240617, 44.506714, 0.0 ], [ 12.240551, 44.506684, 0.0 ], [ 12.240468, 44.506649, 0.0 ], [ 12.240387, 44.506625, 0.0 ], [ 12.240273, 44.506596, 0.0 ], [ 12.240188, 44.506578, 0.0 ], [ 12.240094, 44.506546, 0.0 ], [ 12.240016, 44.506534, 0.0 ], [ 12.239949, 44.506539, 0.0 ], [ 12.239886, 44.50655, 0.0 ], [ 12.239799, 44.506548, 0.0 ], [ 12.239719, 44.506554, 0.0 ], [ 12.239648, 44.506561, 0.0 ], [ 12.239574, 44.50656, 0.0 ], [ 12.239475, 44.506534, 0.0 ], [ 12.239381, 44.506511, 0.0 ], [ 12.239297, 44.506493, 0.0 ], [ 12.239218, 44.506478, 0.0 ], [ 12.239139, 44.506469, 0.0 ], [ 12.239068, 44.506483, 0.0 ], [ 12.239, 44.506476, 0.0 ], [ 12.238932, 44.506479, 0.0 ], [ 12.238865, 44.506441, 0.0 ], [ 12.238838, 44.506398, 0.0 ], [ 12.238765, 44.506318, 0.0 ], [ 12.238715, 44.506252, 0.0 ], [ 12.238668, 44.506196, 0.0 ], [ 12.238631, 44.506143, 0.0 ], [ 12.238583, 44.506089, 0.0 ], [ 12.238564, 44.506042, 0.0 ], [ 12.238549, 44.505986, 0.0 ], [ 12.238548, 44.505938, 0.0 ], [ 12.238544, 44.505886, 0.0 ], [ 12.238515, 44.505839, 0.0 ], [ 12.238493, 44.50579, 0.0 ], [ 12.238452, 44.505743, 0.0 ], [ 12.238432, 44.505683, 0.0 ], [ 12.238425, 44.50563, 0.0 ], [ 12.238405, 44.505577, 0.0 ], [ 12.238372, 44.505513, 0.0 ], [ 12.23835, 44.505462, 0.0 ], [ 12.238341, 44.505403, 0.0 ], [ 12.238316, 44.505355, 0.0 ], [ 12.238294, 44.505305, 0.0 ], [ 12.238278, 44.505248, 0.0 ], [ 12.23823, 44.505204, 0.0 ], [ 12.238212, 44.505145, 0.0 ], [ 12.238217, 44.505099, 0.0 ], [ 12.238158, 44.505075, 0.0 ], [ 12.238112, 44.505123, 0.0 ], [ 12.238052, 44.505141, 0.0 ], [ 12.237957, 44.505137, 0.0 ], [ 12.237894, 44.50515, 0.0 ], [ 12.23782, 44.50516, 0.0 ], [ 12.23772, 44.505174, 0.0 ], [ 12.237643, 44.5052, 0.0 ], [ 12.237554, 44.505219, 0.0 ], [ 12.237463, 44.505247, 0.0 ], [ 12.237366, 44.505286, 0.0 ], [ 12.237284, 44.5053, 0.0 ], [ 12.237183, 44.505294, 0.0 ], [ 12.237076, 44.505308, 0.0 ], [ 12.23701, 44.505323, 0.0 ], [ 12.236935, 44.505327, 0.0 ], [ 12.23683, 44.505332, 0.0 ], [ 12.236713, 44.505315, 0.0 ], [ 12.236606, 44.505311, 0.0 ], [ 12.236533, 44.505284, 0.0 ], [ 12.236445, 44.505277, 0.0 ], [ 12.236378, 44.50527, 0.0 ], [ 12.236307, 44.505275, 0.0 ], [ 12.236209, 44.505278, 0.0 ], [ 12.236125, 44.505219, 0.0 ], [ 12.236058, 44.505173, 0.0 ], [ 12.236001, 44.505127, 0.0 ], [ 12.235978, 44.505072, 0.0 ], [ 12.235958, 44.505009, 0.0 ], [ 12.235896, 44.504974, 0.0 ], [ 12.235825, 44.50495, 0.0 ], [ 12.235763, 44.504922, 0.0 ], [ 12.23569, 44.504915, 0.0 ], [ 12.235611, 44.504895, 0.0 ], [ 12.235527, 44.504872, 0.0 ], [ 12.235426, 44.504876, 0.0 ], [ 12.235313, 44.504881, 0.0 ], [ 12.235244, 44.504864, 0.0 ], [ 12.235172, 44.504837, 0.0 ], [ 12.235105, 44.504818, 0.0 ], [ 12.235049, 44.504793, 0.0 ], [ 12.234966, 44.504755, 0.0 ], [ 12.234904, 44.504744, 0.0 ], [ 12.234824, 44.504744, 0.0 ], [ 12.234756, 44.50477, 0.0 ], [ 12.234685, 44.504793, 0.0 ], [ 12.2346, 44.504804, 0.0 ], [ 12.234517, 44.504817, 0.0 ], [ 12.234441, 44.504825, 0.0 ], [ 12.234357, 44.504839, 0.0 ], [ 12.234256, 44.50484, 0.0 ], [ 12.234163, 44.504831, 0.0 ], [ 12.234073, 44.504827, 0.0 ], [ 12.233988, 44.504836, 0.0 ], [ 12.23391, 44.504839, 0.0 ], [ 12.233809, 44.504843, 0.0 ], [ 12.23372, 44.50485, 0.0 ], [ 12.233657, 44.504851, 0.0 ], [ 12.233584, 44.504886, 0.0 ], [ 12.233513, 44.504888, 0.0 ], [ 12.233425, 44.504906, 0.0 ], [ 12.233343, 44.504916, 0.0 ], [ 12.233282, 44.504934, 0.0 ], [ 12.233211, 44.504922, 0.0 ], [ 12.233148, 44.504905, 0.0 ], [ 12.233088, 44.504888, 0.0 ], [ 12.23301, 44.504869, 0.0 ], [ 12.232943, 44.504842, 0.0 ], [ 12.232878, 44.504815, 0.0 ], [ 12.232797, 44.50481, 0.0 ], [ 12.232716, 44.504833, 0.0 ], [ 12.232653, 44.504854, 0.0 ], [ 12.232566, 44.504888, 0.0 ], [ 12.232496, 44.504901, 0.0 ], [ 12.232412, 44.50492, 0.0 ], [ 12.23233, 44.50494, 0.0 ], [ 12.232241, 44.504969, 0.0 ], [ 12.232167, 44.504989, 0.0 ], [ 12.232088, 44.505009, 0.0 ], [ 12.232015, 44.505041, 0.0 ], [ 12.231943, 44.505066, 0.0 ], [ 12.231875, 44.505086, 0.0 ], [ 12.231808, 44.505094, 0.0 ], [ 12.231723, 44.505104, 0.0 ], [ 12.231626, 44.505124, 0.0 ], [ 12.231545, 44.505156, 0.0 ], [ 12.231443, 44.505188, 0.0 ], [ 12.231327, 44.505195, 0.0 ], [ 12.231221, 44.505216, 0.0 ], [ 12.231132, 44.505248, 0.0 ], [ 12.231026, 44.505261, 0.0 ], [ 12.230933, 44.505271, 0.0 ], [ 12.23085, 44.505314, 0.0 ], [ 12.230778, 44.505337, 0.0 ], [ 12.230696, 44.50538, 0.0 ], [ 12.230611, 44.505411, 0.0 ], [ 12.230514, 44.505445, 0.0 ], [ 12.230394, 44.505457, 0.0 ], [ 12.230304, 44.505463, 0.0 ], [ 12.230213, 44.505471, 0.0 ], [ 12.230141, 44.505479, 0.0 ], [ 12.230044, 44.505492, 0.0 ], [ 12.229969, 44.505512, 0.0 ], [ 12.229897, 44.505546, 0.0 ], [ 12.229811, 44.505557, 0.0 ], [ 12.229676, 44.505574, 0.0 ], [ 12.229613, 44.505577, 0.0 ], [ 12.229557, 44.505598, 0.0 ], [ 12.229503, 44.505623, 0.0 ], [ 12.229451, 44.505654, 0.0 ], [ 12.22939, 44.505665, 0.0 ], [ 12.229319, 44.505688, 0.0 ], [ 12.229244, 44.505684, 0.0 ], [ 12.229172, 44.505685, 0.0 ], [ 12.229092, 44.505694, 0.0 ], [ 12.229021, 44.505692, 0.0 ], [ 12.228944, 44.505698, 0.0 ], [ 12.228871, 44.505712, 0.0 ], [ 12.228774, 44.50576, 0.0 ], [ 12.22871, 44.505806, 0.0 ], [ 12.228656, 44.505843, 0.0 ], [ 12.228588, 44.505896, 0.0 ], [ 12.228548, 44.505947, 0.0 ], [ 12.228526, 44.505992, 0.0 ], [ 12.228513, 44.506039, 0.0 ], [ 12.228484, 44.506083, 0.0 ], [ 12.228476, 44.506128, 0.0 ], [ 12.228486, 44.506172, 0.0 ], [ 12.228542, 44.506205, 0.0 ], [ 12.228574, 44.506257, 0.0 ], [ 12.228612, 44.506318, 0.0 ], [ 12.228632, 44.506368, 0.0 ], [ 12.228667, 44.506434, 0.0 ], [ 12.228707, 44.506502, 0.0 ], [ 12.228746, 44.506568, 0.0 ], [ 12.228823, 44.506633, 0.0 ], [ 12.228855, 44.506695, 0.0 ], [ 12.228876, 44.506745, 0.0 ], [ 12.228911, 44.506805, 0.0 ], [ 12.228935, 44.50687, 0.0 ], [ 12.228959, 44.506919, 0.0 ], [ 12.228983, 44.506981, 0.0 ], [ 12.229019, 44.507044, 0.0 ], [ 12.229039, 44.507112, 0.0 ], [ 12.229068, 44.507179, 0.0 ], [ 12.229127, 44.507228, 0.0 ], [ 12.229176, 44.507275, 0.0 ], [ 12.229194, 44.507335, 0.0 ], [ 12.22924, 44.507403, 0.0 ], [ 12.229271, 44.50748, 0.0 ], [ 12.229294, 44.507523, 0.0 ], [ 12.229306, 44.507581, 0.0 ], [ 12.229323, 44.507625, 0.0 ], [ 12.229362, 44.507672, 0.0 ], [ 12.22938, 44.50772, 0.0 ], [ 12.229427, 44.507821, 0.0 ], [ 12.229428, 44.507867, 0.0 ], [ 12.229436, 44.507927, 0.0 ], [ 12.229485, 44.507999, 0.0 ], [ 12.229516, 44.508072, 0.0 ], [ 12.229563, 44.508148, 0.0 ], [ 12.229595, 44.5082, 0.0 ], [ 12.229608, 44.508253, 0.0 ], [ 12.229625, 44.508316, 0.0 ], [ 12.229635, 44.508369, 0.0 ], [ 12.22963, 44.508427, 0.0 ], [ 12.229638, 44.508482, 0.0 ], [ 12.22967, 44.508551, 0.0 ], [ 12.229697, 44.508596, 0.0 ], [ 12.229742, 44.508631, 0.0 ], [ 12.229778, 44.508672, 0.0 ], [ 12.229763, 44.508731, 0.0 ], [ 12.229733, 44.508771, 0.0 ], [ 12.229645, 44.50883, 0.0 ], [ 12.229573, 44.508868, 0.0 ], [ 12.229508, 44.508899, 0.0 ], [ 12.229433, 44.50891, 0.0 ], [ 12.229355, 44.508901, 0.0 ] ] } }
]
}
