{"type":"FeatureCollection","features":[{"type":"Feature","properties":{},"geometry":{"coordinates":[[12.244179246538579,44.85751440411147],[12.244955938370651,44.85759867468431],[12.245253141877583,44.85814643040217],[12.245308619866478,44.85862395677654],[12.24527440506185,44.85932944281234],[12.245275794888641,44.85999916123026],[12.245297230530156,44.86078909521686],[12.24530529257811,44.86173054178144],[12.245328885369787,44.862607869529086],[12.245365460582093,44.86340373282542],[12.245408331553563,44.86436057239774],[12.245475310095173,44.86470091246346],[12.245647720847927,44.86516154613304],[12.245652031093954,44.865587202960484],[12.245654238086473,44.86602692381723],[12.245744114791307,44.86656976333683],[12.246081228990732,44.86767721152006],[12.246298446924897,44.86843432853351],[12.24661667027354,44.86960675315083],[12.246865683759097,44.87027717317372],[12.245524884414579,44.87106052087748],[12.244477342026272,44.87167496278795],[12.24197753031919,44.87315066909852],[12.24058497834281,44.87397300658341],[12.240034760794458,44.8742676952987],[12.23922434328415,44.87452162424921],[12.238400925697277,44.87469755350119],[12.23925152919955,44.875770209686465],[12.240205511308375,44.87693229401515],[12.241079656167273,44.878026301844244],[12.241992661837259,44.87916184928153],[12.24318192381125,44.88063763624257],[12.244384338547832,44.88213035664191],[12.245344693931798,44.88328482733962],[12.246099128971167,44.88400854367262],[12.246589796456476,44.88452819928949],[12.246747191592277,44.88480818308841],[12.246851006128452,44.88536053386787],[12.247067967214548,44.88626305552867],[12.247282911499099,44.88656541189215],[12.24785944510137,44.887195205726925],[12.248197756577184,44.887450486231415],[12.249233886093322,44.888127630936054],[12.249847557112645,44.88854831662465],[12.250266161198027,44.8889136934022],[12.250851052277397,44.88961129600909],[12.251928720298821,44.890851136372646],[12.253138895417777,44.892196479105564],[12.253543036337163,44.89249371647176],[12.254738569606019,44.8932884721049],[12.256088740129968,44.89420115740401],[12.256827912983994,44.89472387844876],[12.258337401098629,44.89573549293448],[12.259737962445058,44.89670308097445],[12.261080565263597,44.89761226451151],[12.262641029841973,44.89867480154359],[12.26381231832272,44.89949268012663],[12.263902136068822,44.8996054500378],[12.263949019727136,44.89981419691219],[12.2637064805362,44.9005710682645],[12.263600044245095,44.900765831418596],[12.263435954962688,44.900988865832545],[12.262841685671361,44.90162969229314],[12.262517645604703,44.90257059416376],[12.262372704718416,44.90317361436783],[12.262397454403668,44.90340651539856],[12.262563632271878,44.90377916786758],[12.262832343143003,44.90407467342803],[12.263250485090282,44.904334346074364],[12.264024796682605,44.90471499334683],[12.263264460328514,44.90546684335871],[12.262617446013621,44.90618942738078],[12.261811817934074,44.907043728898714],[12.261425631760375,44.90742399641957],[12.261081902444943,44.90759136511349],[12.260012446518203,44.90778604905941],[12.258911678508213,44.90793117031714],[12.258378242640845,44.907974663576624],[12.257591424754935,44.90780539409138],[12.257260676315326,44.90783392247715],[12.255668807267597,44.908069758068336],[12.25530985102688,44.90828183883622],[12.254992975564164,44.90833699365962],[12.254700268568513,44.90822288017429],[12.253398435570745,44.908266409848636],[12.25307645000305,44.90828068527321],[12.25151892654219,44.90812472996649],[12.25059941815826,44.90818741747813],[12.250036236094758,44.90825671994236],[12.24938637285726,44.90838604846593],[12.249174156433583,44.90843999161453],[12.248513551655435,44.908656806224485],[12.24789858833688,44.90877620443035],[12.247407162831195,44.9088446718892],[12.246784722280324,44.90894433560828],[12.246475902973685,44.90900709726566],[12.244688896146812,44.90969044287749],[12.244230928952163,44.90984531631898]],"type":"LineString"}},{"type":"Feature","properties":{},"geometry":{"coordinates":[[12.244232109344068,44.90984585467294],[12.24391001563231,44.91001693896922],[12.243623590999107,44.9103154278007],[12.24398866308968,44.911830021088065],[12.2441957070682,44.9127662379793],[12.244374400830282,44.91363819506057],[12.24465400694001,44.914815373572196],[12.244998916342723,44.91641788670137],[12.245212811756147,44.917397525627706],[12.245484058281505,44.91856490726619],[12.24574705025691,44.919679091336235],[12.24599646945694,44.92073131293748],[12.246157930599395,44.921449044485485],[12.242043093005663,44.921894940992274],[12.23995372898898,44.92214329261293],[12.238249990558614,44.92233763724275],[12.23763331554207,44.92240708272229],[12.236949561243222,44.92265999196809],[12.236819443820508,44.92269250879039],[12.236309179419322,44.922752122916734],[12.235423962238428,44.922642702513656],[12.233914925993759,44.922831575702446],[12.233715146918172,44.922888407629586],[12.231853478063726,44.92310968535622],[12.231742531308157,44.92307770799354],[12.230966929417718,44.92317164474642]],"type":"LineString"}},{"type":"Feature","properties":{},"geometry":{"coordinates":[[12.23840135301731,44.87470047286618],[12.237117588749044,44.87495459841935],[12.235872344039308,44.87520979019692],[12.234353927737857,44.87552629956801],[12.2299231399125,44.87643877489555],[12.228953941170346,44.876598434580245],[12.228728209305217,44.876518454555196],[12.228751410188693,44.87628055360233],[12.22583965531004,44.8760051419446],[12.22417737717285,44.87582132359063],[12.223183682826999,44.87579021570488],[12.222661692506563,44.87576233291949],[12.222226211557569,44.875734150399495],[12.221251758952064,44.87571604884312],[12.220774519554851,44.875834415369155],[12.220404590838314,44.876098360710756],[12.220283292490791,44.8763801835012],[12.220283934352835,44.87676414868841],[12.220330985757016,44.87783732098171],[12.220369123480708,44.87863447971512],[12.220414411322565,44.87962971963387],[12.220458125011533,44.88065112612],[12.220514276003371,44.88211870488462],[12.2206334484475,44.882307336052804],[12.220542879428478,44.88243906021319],[12.219700574680417,44.88254882955573],[12.218307759279753,44.882903055245265],[12.218024672163352,44.88299856625318],[12.216672529665288,44.883730530410645],[12.215270951773732,44.88167748020746],[12.21414703699881,44.8800473530284],[12.212686996886333,44.87789959726979],[12.211806447249273,44.87662768939833],[12.211008654768563,44.87540704671716],[12.210205187364863,44.874281607676124],[12.209578598225818,44.87334608584075],[12.209047886858514,44.87257655807372],[12.208553336398495,44.87185987538183],[12.2082301371357,44.87135074088684],[12.207734832618883,44.87064578209208],[12.20728464000581,44.869982525768165],[12.20688186251681,44.86941441735422],[12.206350586643623,44.868622346671316],[12.205945135038803,44.868029206384534],[12.20550442337489,44.86736366332548],[12.20504928466758,44.86670694089389],[12.20463963384259,44.86609704111501],[12.202438766198014,44.86684014499821],[12.20108788641707,44.86728030577382],[12.198321702377626,44.868182943164584],[12.196404552752739,44.86880865798122],[12.194469094161235,44.86944160902459],[12.19438218994651,44.86926539170304],[12.193969394924324,44.86862039748661],[12.193505883796945,44.867918186660745],[12.19297761603994,44.867107872224324],[12.192407583240964,44.8662569550778],[12.192015263761817,44.86568145056168],[12.1914579107426,44.86484179267612],[12.19098342960288,44.86415939396974],[12.190605761512785,44.86361689842181],[12.190424328296729,44.863350358726876],[12.190269831913696,44.86292773370056],[12.190182559770278,44.86258531046033],[12.190177731757558,44.86220203421922],[12.190238084023576,44.86138271202603],[12.190263983317607,44.86095434506362],[12.1903371022849,44.860237953422455],[12.190399665706025,44.85968182814722],[12.190448274156324,44.85914618000473],[12.190507369497737,44.85841139597977],[12.190557375739957,44.85783821216097],[12.190627380851708,44.85700935578899],[12.190704151223969,44.85608719901845],[12.190788342013803,44.85509865767108],[12.190949478037425,44.85328236528949],[12.191052305828634,44.85203769528661],[12.19118252836384,44.85047259752005],[12.191269209137545,44.84930274328613],[12.191394169660612,44.84802320752274],[12.191509383079534,44.84672203166312],[12.191634752118233,44.845287972872484],[12.191755925934729,44.84397508714005],[12.191897916688163,44.842250773642434],[12.192034158433785,44.840789493571606],[12.192463605931096,44.835799400129105],[12.192659602436919,44.833201035622864],[12.19282489072566,44.831291266017814],[12.192907782848522,44.83037879568866],[12.192922419030083,44.830103878505696],[12.192963346693148,44.8297294429849],[12.193045202017629,44.8294740127061],[12.19338490161465,44.828992175235896],[12.192541674816255,44.82899513466009],[12.192021239663376,44.82907366650582],[12.188616264990912,44.830031746409816],[12.186652166126748,44.830575922821794],[12.18483538897081,44.83108723679271],[12.18148052991225,44.83200866045618],[12.17859820274279,44.83281038418204],[12.178462684478575,44.832879979455555],[12.17835308902761,44.832888035103565],[12.178163987325803,44.832931168121945],[12.177885311134247,44.83299312276529],[12.177388097774667,44.83305037196263],[12.176097165281703,44.83317313003704],[12.175493366866306,44.833230379026276],[12.175478415478977,44.83296027680521],[12.175459615894766,44.832720300084986],[12.175444392630851,44.83261921554151],[12.175418957899865,44.83249530538433],[12.175372000694779,44.832426330277514],[12.175372447124857,44.83232460379341],[12.175363581200855,44.83208148759738]],"type":"LineString"},"id":2},{"type":"Feature","properties":{},"geometry":{"coordinates":[[12.19337977064015,44.82899641556244],[12.195693961478753,44.828363582222806],[12.202877612979876,44.826375543670196],[12.209240900597877,44.82464261568407],[12.212289064260062,44.827031747718394],[12.214290247476981,44.825841747367065],[12.214985306977496,44.825565200909494],[12.215765129832533,44.82545698671677],[12.221511691464116,44.82574555365079],[12.227806178422014,44.82600096503944],[12.227804515989988,44.8265881351806],[12.232401802175957,44.826776851047214],[12.23340699658371,44.82681878782245],[12.234515666886523,44.82703371331755],[12.238085041866896,44.82794981889134],[12.236753595560941,44.82991867220642],[12.235300450102983,44.832381150666464],[12.2343148310988,44.83404999775121],[12.232636150052201,44.836853986659946],[12.231315403412822,44.83911907009676],[12.230494354254631,44.840522027221255],[12.230278279414051,44.84090556264175],[12.230140613001623,44.84156174713098],[12.230140613001623,44.842304690795544],[12.23011873485504,44.84363006616701],[12.230095738274457,44.84490002047701],[12.22988695951804,44.84518035253592],[12.229619668301893,44.845572914771026],[12.22936729195672,44.846098140205555],[12.228955146179572,44.847449503452566],[12.228273010126316,44.84984158290169],[12.22776208999045,44.85159483427964],[12.227307237449793,44.853199898538094],[12.226629850906505,44.855676948436525],[12.229274253978218,44.85620800118565],[12.23305006453117,44.85697453367541],[12.233215314809712,44.85702965878565],[12.233370844484,44.85716747133071],[12.233497212343792,44.85722604156291],[12.233524435382606,44.857420059227906],[12.234666606425066,44.857640557646874],[12.235434534189608,44.85779214982011],[12.235692130212072,44.85779214982011],[12.235935145327318,44.85772324433634],[12.23607609409433,44.857533753830126],[12.236110116211023,44.857392496865884],[12.236367712233516,44.85706174749561],[12.236781840092561,44.85600561067713],[12.236890500672388,44.85594831240988],[12.237180302826914,44.85601264070195],[12.239948161386252,44.85636871751146],[12.241944867072988,44.85662567442628]],"type":"LineString"}}]}