{"type":"FeatureCollection","features":[{"type":"Feature","properties":{},"geometry":{"coordinates":[[12.313358975211457,44.346294238725164],[12.312672049812875,44.347338035326686],[12.312539493654072,44.34723985682393],[12.311592663950108,44.345909352625085],[12.310093214270324,44.34381223098248],[12.309057518199666,44.342356683104555],[12.308637320955398,44.34176908813427],[12.308513633411025,44.34135699590587],[12.308495532795547,44.341143397223306],[12.308350727865843,44.34081976137375],[12.308154637857257,44.34061479107791],[12.30794076077197,44.340472422225616],[12.30775673784035,44.340379645736135],[12.306812489029426,44.34008836975761],[12.306399579332549,44.340639759669756],[12.304107995623554,44.33998206460305],[12.303171721456238,44.33970134204367],[12.3028570654659,44.33955553826959],[12.302737407554645,44.33955870792121],[12.302617749642536,44.33968707864673],[12.302549057137412,44.33971243579413],[12.302191790596936,44.33945259838802],[12.30210997623766,44.33942838545178],[12.301898387375218,44.33949093551598],[12.301827899569673,44.339714117500364],[12.301650499945481,44.340249162367286],[12.301412903803111,44.34063658125885],[12.301001651350106,44.34115264168841],[12.300566871813686,44.34171112227483],[12.3005003934189,44.34180114948521],[12.300424146615285,44.34185052789789],[12.300228463540321,44.34211966014752],[12.299996466426137,44.34242204638889],[12.299661833003682,44.34282867219295],[12.299541126098603,44.34306024881516],[12.299394094562103,44.343254572419994],[12.29928872675282,44.343476152755215],[12.29904934398482,44.34378634610485],[12.298978648339158,44.34388097079554],[12.298820596624694,44.344039753473396],[12.298700105709912,44.34421960153824],[12.298558615271759,44.34442554725888],[12.298305112865165,44.34466635231061],[12.29812945482081,44.34490100886285],[12.297816145809009,44.34518769960411],[12.29759571717193,44.34547482446288],[12.297490847788708,44.34567124249247],[12.29717849454562,44.34608961377879],[12.296914406895269,44.34633152603939],[12.296668453348957,44.34659124274768],[12.296500329417825,44.34673527995696],[12.296432081694093,44.34688309107054],[12.296438740068652,44.34712831001113],[12.29628222817945,44.34742459250768],[12.296049185106,44.34768885509459],[12.295758248408447,44.34808621191314],[12.295514471212556,44.348355018246366],[12.295349538349797,44.34860434644733],[12.295149251210205,44.348879148325466],[12.29495100645184,44.3491936283892],[12.294874435156004,44.34935551423868],[12.294836149508086,44.349379320943484],[12.294742932278467,44.34936384658636],[12.294596448061355,44.349298378107534],[12.29450220230595,44.34928997896918],[12.294199246309887,44.34937211215208],[12.293698811436713,44.34936291400882],[12.293522873150124,44.349309724837155],[12.293404687020427,44.349249017648475],[12.293286500889366,44.34913236444302],[12.293208265000573,44.34907641843526],[12.29245036873894,44.34915816250253],[12.292154166729972,44.34906167282443],[12.291871185855086,44.34906643419029],[12.291781297811383,44.349079527943445],[12.291478341816656,44.349008107434656],[12.291296219139213,44.34902596250936],[12.290939996155743,44.349234272020425],[12.290583183156116,44.349338506969985],[12.29044502190527,44.34936588468776],[12.29033182955584,44.34930517755723],[12.290255258259975,44.349168288699275],[12.28981725098646,44.34883122967514],[12.289590058089374,44.34877148444605],[12.28943175594145,44.34878091790756],[12.289393492817936,44.34884051200234],[12.289393492817936,44.34891826279011],[12.289196552145057,44.349199925157734],[12.289182193151987,44.34963379982122],[12.288825238182426,44.350178045803005],[12.288828927876636,44.35053871342183],[12.288699685560061,44.35069421038878],[12.288223884993158,44.35098576046394],[12.288027703456947,44.35126117288738],[12.287925130189166,44.351522286981464],[12.28796616163109,44.35195086549518],[12.287830764919164,44.35212396169547],[12.287752847855103,44.35222654365299],[12.287736436132263,44.35260940649121],[12.287399897029019,44.352923363552634],[12.287071928986478,44.353760921468165],[12.286687655153173,44.354267241247214],[12.286614356684481,44.35474861419391],[12.286415700420122,44.35536335776587],[12.286339472123757,44.355472498700294],[12.285740171374925,44.35553931163906],[12.285302269924074,44.355699609849495],[12.284841321028892,44.35572058341441],[12.284004827791307,44.35568265476911],[12.282950073912502,44.3556641962208],[12.28036267341318,44.355127795177225],[12.279850627971058,44.35517980145002],[12.279662542490428,44.3551666166598],[12.279492896761354,44.35527209489467],[12.279290668360034,44.35526681890477],[12.278486695125025,44.355250997180406],[12.278294921691725,44.35530901014954],[12.278120235693024,44.355217532238186],[12.277570660622132,44.35525444824128],[12.277445270300234,44.35522544173659],[12.276681900389491,44.355695096751475],[12.275406863803369,44.355584245896125],[12.274134344338478,44.35552420366247],[12.273246819032067,44.35545868200202],[12.272203413103796,44.355231178079464],[12.271425044598573,44.355157279491834],[12.271360449701945,44.35560066962134],[12.27120865169502,44.355649165213094],[12.271204805579458,44.355675924465686],[12.271129048889179,44.35573480168958],[12.270776615592325,44.35635183143839],[12.270378927141707,44.357016878515935],[12.269969675464438,44.35765414697593],[12.269823017240242,44.35808633517348],[12.269091099624205,44.35918337671666],[12.268990215635199,44.35934240509064],[12.26882033969028,44.35978236538514],[12.268430644398165,44.36015494296899],[12.268207495701603,44.36085252390143],[12.268058415331211,44.36125357865441],[12.267522954067033,44.36219458958726],[12.267164896985804,44.362723077002755],[12.267011729114188,44.3629404328226],[12.26671817276548,44.3634944382712],[12.266447854211691,44.364025995704935],[12.266062458292396,44.36474234072534],[12.265740486168312,44.36535110238145],[12.265408023466989,44.36599425721255],[12.26518150549336,44.36658233683167],[12.265124821706735,44.36674705844658],[12.265005038014408,44.367265695849284],[12.264731057174714,44.36791633365456],[12.26466337586865,44.368086879488175],[12.264380605145817,44.36846308723],[12.264036400719334,44.36910447860785],[12.263974526708097,44.369195866622306],[12.263591097511352,44.36969668190724],[12.263180583871303,44.37046841238646],[12.263038319052441,44.37052759632459],[12.262471335821886,44.37051102332697],[12.261913147317074,44.37057317108878],[12.261784474719406,44.37066017845217],[12.261665173654336,44.37059696115756],[12.26111391810187,44.370591488172295],[12.260503964042414,44.370396284702736],[12.260350837500397,44.370451014713126],[12.260164533540802,44.37048567702635],[12.260065001288979,44.37055500159187],[12.260036928089221,44.370644393673956],[12.259789262041608,44.37047711663823],[12.259711380367435,44.37058571556315],[12.259581773048325,44.37079883508858],[12.259255117023116,44.37109494354249],[12.25896049324706,44.37135864796653],[12.25841075216593,44.371860112897394],[12.257859217086718,44.372363042772946],[12.257347774939689,44.3728268462647],[12.257106359958073,44.37304400813406],[12.257082689231623,44.37314975727145],[12.256516770175807,44.3736556987657],[12.25598915139517,44.37412133415407],[12.255343130228823,44.37469896369967],[12.254704797456384,44.375267430832224],[12.254193170922434,44.37572205319793],[12.254090596784266,44.3758063909672],[12.254012483387754,44.37586645366764],[12.253875193174139,44.37592228654418],[12.253657422490107,44.375995884346935],[12.25355143538141,44.376029734596074],[12.253242532400662,44.3760957187161],[12.25284528835229,44.376169807071875],[12.252506489719849,44.37621886826474],[12.252265705148005,44.376229018680306],[12.252049900528846,44.37622732629214],[12.251567017708737,44.3761638801669],[12.251193934093067,44.376093563353976],[12.250866519940274,44.376007696665596],[12.250479503562985,44.37583681430465],[12.250261464268505,44.37572699140077],[12.249935991779381,44.375684693630404],[12.24900199072431,44.37572022286872],[12.248075456295396,44.37576906379596],[12.246653793580691,44.375815579648275],[12.245129508382036,44.3758804779863],[12.243098378131037,44.37597492525947],[12.241792248676688,44.37619934031457],[12.241735405380695,44.3759303568028],[12.241653452837909,44.375817023057465],[12.241683739646987,44.37575207890197],[12.241612476566473,44.375746985239374],[12.24147173198213,44.3759863868884],[12.241229437508252,44.376172304514824],[12.24099070618891,44.376232154583874],[12.240924787839646,44.376429532037974],[12.24045880874337,44.376864635104],[12.23985715263882,44.377414521670744],[12.239512360908492,44.37773494222617],[12.23945000571382,44.37774130908775],[12.239063403500978,44.3775579431954],[12.237771622904717,44.378824089285246],[12.237511172205359,44.379120267546995],[12.236574767371792,44.3786593734836],[12.235660580039166,44.37816875602394],[12.233936696503179,44.37981031707852],[12.233976431355927,44.379872665116835],[12.233712447259023,44.38026434209186],[12.234535612368745,44.38053848500263],[12.23459362808083,44.380541076529084],[12.234702407539771,44.38059031551222],[12.234671586693196,44.38066806119056],[12.235619844101393,44.380964741725904],[12.236529951754676,44.380057566565625],[12.236958062591555,44.37980564476058]],"type":"LineString"}},{"type":"Feature","properties":{},"geometry":{"coordinates":[[12.236957186384046,44.37980512224141],[12.237370402297074,44.37938819610133],[12.23751080730409,44.379120092145996]],"type":"LineString"}}]}