{"type":"FeatureCollection","features":[{"type":"Feature","properties":{},"geometry":{"coordinates":[[12.330575471015038,44.273625456381694],[12.330043745558186,44.27340531004336],[12.329164770821308,44.27319293279447],[12.328513678424827,44.2731903428234],[12.326050003082173,44.27344387476151],[12.325435853638425,44.27336026017741],[12.32482455022091,44.2731737824916],[12.324578581981939,44.273215222028426],[12.323945575485396,44.27400256767842],[12.323908961444602,44.274483351193226],[12.32395960244719,44.27513749000332],[12.324136844265695,44.27558035874273],[12.324810240357323,44.27606708998039],[12.326066731807856,44.2765231674004],[12.326880368130105,44.27677957009607],[12.327576368540264,44.27721255194729],[12.328137725552239,44.2776135604218],[12.328411516584424,44.27799766810705],[12.328813023562816,44.27883156470676],[12.329124917680673,44.278962336079786],[12.329598768258734,44.27904779667338],[12.330235391935787,44.27898046409473],[12.330658601993179,44.278845798705476],[12.330900953053032,44.278695594638634],[12.331474752975822,44.27763513146368],[12.331822002253034,44.277484924301405],[12.332621311177917,44.277564456154835],[12.3357891324423,44.27798399888951],[12.33644156228948,44.278064739006766]],"type":"LineString"},"id":0},{"type":"Feature","properties":{},"geometry":{"coordinates":[[12.331822186182592,44.27748498828268],[12.331622347412178,44.27720846724927],[12.331785470262133,44.27692734004046],[12.331840338598624,44.276818953141884],[12.331919823515165,44.27666231967581],[12.33236480431961,44.27609491779688],[12.332429192128046,44.27602786001469],[12.332721853087548,44.27573606118159],[12.333095773854296,44.275418136557704],[12.333277748377668,44.275261148395174],[12.33348978137073,44.274908265444225],[12.333635482142256,44.27469393639748],[12.333906463332028,44.2741898729646],[12.334114845065017,44.27380602477166],[12.334220247194878,44.27361753612067],[12.334520973986969,44.273158075764314],[12.334728137665593,44.27283737521739],[12.334947031138427,44.27249998077457],[12.335207564581992,44.272129029519164],[12.33545867384231,44.27179342518528],[12.335788630955022,44.27136682144675],[12.335872560921587,44.27128219449929],[12.335959599123328,44.27112270718095],[12.336213472195993,44.270822445760444],[12.33626649393733,44.270771692610936],[12.33671697519165,44.270389026784926],[12.336810399667684,44.27031255505452],[12.337409604104636,44.26991083218877],[12.337750860941185,44.26964791572382],[12.337926309186315,44.269384958839225],[12.3380483987645,44.269157291279015],[12.338666477253241,44.26789144356442],[12.339158271654128,44.26699558884596],[12.339498903858953,44.26639970465814]],"type":"LineString"}},{"type":"Feature","properties":{},"geometry":{"coordinates":[[12.339498798988416,44.266399681995466],[12.33958280477475,44.266380963697685],[12.339608839922988,44.26633680953651],[12.339896962802015,44.26637425166825],[12.340221880224703,44.26630227128885],[12.340301103287942,44.26613731213868],[12.340469299946932,44.26606574241612],[12.340627746074432,44.26613818493942],[12.3406838116274,44.266280451321705],[12.34096187871694,44.26639840448229],[12.341258087499597,44.266392008346145],[12.34146044186923,44.266369322700484],[12.34240331530566,44.26639769894385],[12.343391339958856,44.26642506912046],[12.343660957388977,44.26642343364745]],"type":"LineString"},"id":2},{"type":"Feature","properties":{},"geometry":{"coordinates":[[12.343659846697165,44.2664232962677],[12.343850860378126,44.26625836362862],[12.343981880593077,44.26627910368697],[12.343970847311226,44.266380828626524],[12.344064630202155,44.266451937217084],[12.344543120665008,44.26647516607292],[12.345241369524501,44.266496640257856],[12.345443465225571,44.26646700188854],[12.34559063011119,44.266421429988924],[12.345702627105766,44.26632641146156],[12.345879622712289,44.26606935639035],[12.346263060602979,44.2655111461832],[12.346668718977668,44.264920489989976],[12.346965909152487,44.26448358303418],[12.347409016473875,44.263820367809245],[12.347529572428869,44.26362827539347],[12.3476300866227,44.26352963354651],[12.34785159012506,44.263219043948254],[12.348059605643726,44.262918766827624],[12.348234574796237,44.26262150419987],[12.348376039217925,44.262480203948314],[12.348453470140754,44.26235215798866],[12.348693197275253,44.262460409913984],[12.349190365372579,44.262691290306776],[12.34976615265603,44.262924754559606]],"type":"LineString"},"id":3},{"type":"Feature","properties":{},"geometry":{"coordinates":[[12.348453152712722,44.262352280113674],[12.34829098318977,44.26228126163599],[12.347722555781132,44.26201999362178],[12.346815635039576,44.26160303345185],[12.346606252846499,44.26149519587216],[12.346291034417163,44.2612796321329],[12.346148830614538,44.261187974869955],[12.345949745291279,44.260904515393975],[12.346096689220445,44.2606974363506],[12.346148830614538,44.260514119867196],[12.346092236850865,44.26039606181257],[12.34560278068534,44.25983803832165],[12.345124717461943,44.258884449028756],[12.345079999055486,44.25855277390639],[12.345075933753776,44.258134478306886],[12.34505154206363,44.25786685435176],[12.344747999545035,44.25754560761385],[12.344232437504786,44.25687772998967],[12.34352883226839,44.25613320035208],[12.342413976378367,44.25468487131076],[12.342071525620298,44.254517485923515],[12.341415649209694,44.254324051121074]],"type":"LineString"}},{"type":"Feature","properties":{},"geometry":{"coordinates":[[12.341414913597589,44.25432429782168],[12.341276857394774,44.25427637127541],[12.34144510234708,44.25407796302136],[12.34156576286776,44.253987887887746]],"type":"LineString"}}]}